{"type":"FeatureCollection","features":[{"type":"Feature","id":"es-as-neighborhood-24b18","properties":{"id":"es-as-neighborhood-24b18","slug":"gijon-xixon-nuevo-roces","name":"Nuevo Roces","localName":"Nuevo Roces","aliases":[],"kind":"neighborhood","boundaryStatus":"statistical","parentId":"es-as-concejo-33024","population":null,"areaKm2":0.6,"density":null,"referenceYear":2024,"sourceId":"sadei-neighborhoods","bbox":[-5.67882,43.50725,-5.66342,43.51422],"center":[-5.67112,43.510735]},"geometry":{"type":"MultiPolygon","coordinates":[[[[-5.66342,43.51391],[-5.66379,43.51352],[-5.66349,43.51287],[-5.66568,43.51216],[-5.66601,43.5117],[-5.66603,43.51157],[-5.66645,43.51113],[-5.66737,43.51027],[-5.66779,43.51005],[-5.67382,43.50799],[-5.67362,43.50769],[-5.67409,43.50747],[-5.67558,43.50725],[-5.67692,43.50747],[-5.6781,43.50757],[-5.67878,43.50748],[-5.67882,43.5083],[-5.67843,43.51318],[-5.67188,43.51314],[-5.67003,43.51319],[-5.66865,43.51332],[-5.66349,43.51422],[-5.66342,43.51391]]]]}},{"type":"Feature","id":"es-as-neighborhood-24b22","properties":{"id":"es-as-neighborhood-24b22","slug":"gijon-xixon-roces-periurbano","name":"Roces Periurbano","localName":"Roces Periurbano","aliases":[],"kind":"neighborhood","boundaryStatus":"statistical","parentId":"es-as-concejo-33024","population":null,"areaKm2":2.7,"density":null,"referenceYear":2024,"sourceId":"sadei-neighborhoods","bbox":[-5.70003,43.49744,-5.65467,43.51697],"center":[-5.677350000000001,43.507205]},"geometry":{"type":"MultiPolygon","coordinates":[[[[-5.68657,43.51448],[-5.68507,43.51386],[-5.6835,43.51345],[-5.68182,43.51323],[-5.67843,43.51318],[-5.67882,43.5083],[-5.67878,43.50748],[-5.6781,43.50757],[-5.67692,43.50747],[-5.67558,43.50725],[-5.67409,43.50747],[-5.67373,43.5076],[-5.67362,43.50769],[-5.67382,43.50799],[-5.66779,43.51005],[-5.66737,43.51027],[-5.66603,43.51157],[-5.66601,43.5117],[-5.66568,43.51216],[-5.66349,43.51287],[-5.66379,43.51344],[-5.66379,43.51352],[-5.66342,43.51391],[-5.66349,43.51422],[-5.65996,43.51481],[-5.65876,43.51514],[-5.65775,43.51553],[-5.6569,43.51599],[-5.65625,43.51644],[-5.65566,43.51697],[-5.65473,43.51531],[-5.65467,43.51501],[-5.6547,43.51474],[-5.65509,43.51434],[-5.65551,43.51438],[-5.65546,43.51483],[-5.65581,43.51467],[-5.65624,43.5146],[-5.65759,43.51492],[-5.65752,43.51449],[-5.65788,43.5142],[-5.65865,43.51384],[-5.65896,43.51377],[-5.65959,43.51386],[-5.66111,43.51358],[-5.66152,43.51327],[-5.66257,43.51304],[-5.66324,43.51279],[-5.66338,43.51264],[-5.66387,43.51257],[-5.66406,43.51248],[-5.6642,43.51237],[-5.6642,43.51224],[-5.66439,43.51204],[-5.66516,43.51165],[-5.66529,43.51152],[-5.66534,43.51105],[-5.66582,43.51045],[-5.66573,43.51028],[-5.66546,43.51002],[-5.66511,43.50981],[-5.66508,43.50973],[-5.66525,43.50948],[-5.66575,43.50913],[-5.66637,43.50858],[-5.66679,43.50722],[-5.66632,43.50665],[-5.66626,43.50648],[-5.66701,43.50638],[-5.66752,43.50639],[-5.66786,43.5065],[-5.66823,43.50646],[-5.66806,43.50579],[-5.66803,43.50532],[-5.66839,43.50517],[-5.66913,43.50502],[-5.66916,43.50441],[-5.66943,43.50398],[-5.66947,43.5038],[-5.66945,43.50364],[-5.66918,43.50317],[-5.6696,43.50288],[-5.66993,43.50226],[-5.67069,43.50237],[-5.67087,43.50149],[-5.67129,43.5012],[-5.67189,43.50095],[-5.67223,43.49964],[-5.67232,43.49902],[-5.67238,43.49763],[-5.67218,43.49744],[-5.67268,43.49776],[-5.67289,43.49778],[-5.67443,43.49848],[-5.67523,43.49864],[-5.67562,43.49863],[-5.67574,43.49847],[-5.67654,43.49857],[-5.67759,43.49843],[-5.67726,43.49945],[-5.67794,43.49938],[-5.67841,43.49926],[-5.67869,43.49937],[-5.67905,43.49941],[-5.6799,43.4994],[-5.68105,43.49925],[-5.68132,43.49929],[-5.68252,43.49894],[-5.68273,43.49919],[-5.68379,43.49943],[-5.68436,43.50058],[-5.68441,43.50102],[-5.68452,43.50122],[-5.68483,43.50138],[-5.68515,43.50143],[-5.68529,43.50125],[-5.68689,43.5019],[-5.68725,43.50235],[-5.68721,43.50265],[-5.68732,43.50292],[-5.6878,43.50304],[-5.68896,43.50365],[-5.68993,43.50395],[-5.6906,43.50433],[-5.68996,43.50487],[-5.68889,43.50615],[-5.68894,43.50662],[-5.68909,43.50689],[-5.68991,43.50794],[-5.69046,43.50774],[-5.69109,43.50855],[-5.69187,43.50881],[-5.69229,43.50923],[-5.69221,43.50925],[-5.69626,43.5108],[-5.69789,43.51107],[-5.69796,43.51156],[-5.69882,43.51245],[-5.69936,43.51276],[-5.69963,43.51309],[-5.69997,43.51371],[-5.70003,43.51434],[-5.69841,43.51506],[-5.69712,43.51538],[-5.69676,43.51529],[-5.69636,43.51506],[-5.69585,43.515],[-5.69507,43.51518],[-5.69489,43.51528],[-5.69328,43.51561],[-5.69288,43.51553],[-5.69186,43.515],[-5.69169,43.51517],[-5.69162,43.51541],[-5.69117,43.51612],[-5.6916,43.5165],[-5.69195,43.51695],[-5.68656,43.51445],[-5.68657,43.51448]]]]}},{"type":"Feature","id":"es-as-neighborhood-24b07","properties":{"id":"es-as-neighborhood-24b07","slug":"gijon-xixon-contrueces","name":"Contrueces","localName":"Contrueces","aliases":[],"kind":"neighborhood","boundaryStatus":"statistical","parentId":"es-as-concejo-33024","population":null,"areaKm2":0.7,"density":null,"referenceYear":2024,"sourceId":"sadei-neighborhoods","bbox":[-5.67188,43.51314,-5.656,43.52388],"center":[-5.66394,43.51851]},"geometry":{"type":"MultiPolygon","coordinates":[[[[-5.66365,43.5232],[-5.66359,43.52275],[-5.66334,43.52216],[-5.66288,43.52158],[-5.66231,43.52113],[-5.66143,43.5207],[-5.65807,43.51996],[-5.656,43.51667],[-5.6569,43.51599],[-5.65775,43.51553],[-5.65876,43.51514],[-5.65996,43.51481],[-5.66865,43.51332],[-5.67003,43.51319],[-5.67188,43.51314],[-5.67109,43.51374],[-5.67059,43.51429],[-5.67032,43.51447],[-5.6673,43.51486],[-5.66751,43.51529],[-5.66707,43.5156],[-5.66675,43.51578],[-5.66627,43.5158],[-5.66572,43.51609],[-5.66524,43.5162],[-5.66506,43.51634],[-5.66502,43.5165],[-5.66525,43.51653],[-5.66676,43.51651],[-5.66703,43.51831],[-5.66718,43.5184],[-5.6685,43.52003],[-5.669,43.52048],[-5.66943,43.52073],[-5.66907,43.52102],[-5.66357,43.52388],[-5.66365,43.5232]]]]}},{"type":"Feature","id":"es-as-neighborhood-24b13","properties":{"id":"es-as-neighborhood-24b13","slug":"gijon-xixon-montevil","name":"Montevil","localName":"Montevil","aliases":[],"kind":"neighborhood","boundaryStatus":"statistical","parentId":"es-as-concejo-33024","population":null,"areaKm2":0.4,"density":null,"referenceYear":2024,"sourceId":"sadei-neighborhoods","bbox":[-5.68254,43.51647,-5.66676,43.52414],"center":[-5.67465,43.520305]},"geometry":{"type":"MultiPolygon","coordinates":[[[[-5.67828,43.52252],[-5.67679,43.52379],[-5.67087,43.52007],[-5.66943,43.52073],[-5.669,43.52048],[-5.6685,43.52003],[-5.66718,43.5184],[-5.66703,43.51831],[-5.66676,43.51651],[-5.66746,43.51651],[-5.66895,43.51677],[-5.67102,43.51647],[-5.67246,43.51654],[-5.67336,43.51672],[-5.67387,43.51693],[-5.6747,43.51711],[-5.67492,43.51779],[-5.67564,43.51854],[-5.6737,43.51958],[-5.6754,43.52063],[-5.67668,43.52001],[-5.67694,43.51994],[-5.67721,43.52013],[-5.67988,43.52103],[-5.68254,43.52275],[-5.6809,43.52414],[-5.67828,43.52252]]]]}},{"type":"Feature","id":"es-as-neighborhood-24b24","properties":{"id":"es-as-neighborhood-24b24","slug":"gijon-xixon-santa-barbara","name":"Santa Bárbara","localName":"Santa Bárbara","aliases":[],"kind":"neighborhood","boundaryStatus":"statistical","parentId":"es-as-concejo-33024","population":null,"areaKm2":0.5,"density":null,"referenceYear":2024,"sourceId":"sadei-neighborhoods","bbox":[-5.69324,43.51445,-5.68425,43.52505],"center":[-5.688745,43.51975]},"geometry":{"type":"MultiPolygon","coordinates":[[[[-5.69165,43.52488],[-5.69146,43.52462],[-5.69104,43.52438],[-5.6882,43.52411],[-5.68738,43.52385],[-5.68696,43.52365],[-5.68533,43.52268],[-5.68499,43.52183],[-5.68425,43.52119],[-5.68668,43.51782],[-5.68708,43.51723],[-5.68722,43.51689],[-5.68727,43.51663],[-5.68724,43.51607],[-5.6871,43.5156],[-5.68656,43.51445],[-5.69312,43.51748],[-5.69276,43.51797],[-5.69324,43.51875],[-5.69307,43.51912],[-5.69247,43.51982],[-5.69177,43.52117],[-5.69074,43.52114],[-5.69075,43.52125],[-5.69285,43.52413],[-5.69177,43.52505],[-5.69165,43.52488]]]]}},{"type":"Feature","id":"es-as-neighborhood-24b17","properties":{"id":"es-as-neighborhood-24b17","slug":"gijon-xixon-nuevo-gijon-la-peral","name":"Nuevo Gijón - La Peral","localName":"Nuevo Gijón - La Peral","aliases":[],"kind":"neighborhood","boundaryStatus":"statistical","parentId":"es-as-concejo-33024","population":null,"areaKm2":0.3,"density":null,"referenceYear":2024,"sourceId":"sadei-neighborhoods","bbox":[-5.68738,43.52119,-5.67805,43.52842],"center":[-5.682715,43.524805]},"geometry":{"type":"MultiPolygon","coordinates":[[[[-5.67974,43.52764],[-5.67805,43.52655],[-5.68379,43.52168],[-5.68425,43.52119],[-5.68499,43.52183],[-5.68533,43.52268],[-5.68738,43.52385],[-5.68718,43.52397],[-5.68687,43.52401],[-5.68672,43.52433],[-5.68599,43.52506],[-5.68581,43.52539],[-5.68577,43.52566],[-5.68463,43.52647],[-5.68501,43.52671],[-5.68327,43.52818],[-5.68202,43.52744],[-5.68147,43.52766],[-5.68146,43.52783],[-5.68123,43.52803],[-5.68095,43.52842],[-5.67974,43.52764]]]]}},{"type":"Feature","id":"es-as-neighborhood-24b21","properties":{"id":"es-as-neighborhood-24b21","slug":"gijon-xixon-pumarin","name":"Pumarín","localName":"Pumarín","aliases":[],"kind":"neighborhood","boundaryStatus":"statistical","parentId":"es-as-concejo-33024","population":null,"areaKm2":0.7,"density":null,"referenceYear":2024,"sourceId":"sadei-neighborhoods","bbox":[-5.6809,43.52007,-5.66773,43.53121],"center":[-5.674315,43.525639999999996]},"geometry":{"type":"MultiPolygon","coordinates":[[[[-5.67164,43.53066],[-5.67159,43.5307],[-5.67141,43.53059],[-5.66975,43.53039],[-5.66995,43.52954],[-5.66835,43.52934],[-5.66888,43.52705],[-5.66798,43.52694],[-5.66824,43.52583],[-5.66773,43.52469],[-5.671,43.52293],[-5.66907,43.52102],[-5.66943,43.52073],[-5.67087,43.52007],[-5.67679,43.52379],[-5.67828,43.52252],[-5.6809,43.52414],[-5.67252,43.53121],[-5.67164,43.53066]]]]}},{"type":"Feature","id":"es-as-neighborhood-24b27","properties":{"id":"es-as-neighborhood-24b27","slug":"gijon-xixon-viesques","name":"Viesques","localName":"Viesques","aliases":[],"kind":"neighborhood","boundaryStatus":"statistical","parentId":"es-as-concejo-33024","population":null,"areaKm2":1,"density":null,"referenceYear":2024,"sourceId":"sadei-neighborhoods","bbox":[-5.65551,43.52069,-5.63498,43.5313],"center":[-5.645244999999999,43.525995]},"geometry":{"type":"MultiPolygon","coordinates":[[[[-5.64354,43.53124],[-5.64239,43.52992],[-5.64158,43.52913],[-5.64071,43.52846],[-5.64034,43.52835],[-5.63508,43.52774],[-5.63498,43.52748],[-5.63531,43.52734],[-5.63585,43.52677],[-5.63651,43.52625],[-5.63871,43.52525],[-5.63906,43.52503],[-5.63976,43.52477],[-5.64122,43.52488],[-5.6416,43.52499],[-5.64208,43.5253],[-5.64197,43.52483],[-5.64166,43.5244],[-5.64179,43.52395],[-5.64202,43.5236],[-5.64263,43.52341],[-5.64318,43.52293],[-5.64418,43.52249],[-5.64509,43.52245],[-5.64525,43.52236],[-5.64534,43.52219],[-5.64518,43.52151],[-5.64962,43.52069],[-5.65015,43.52106],[-5.65041,43.52109],[-5.65075,43.52104],[-5.65111,43.52089],[-5.65308,43.52073],[-5.65412,43.52102],[-5.65551,43.52126],[-5.65435,43.52318],[-5.65209,43.52455],[-5.65231,43.52476],[-5.65401,43.52434],[-5.6532,43.5252],[-5.65014,43.52694],[-5.65187,43.5285],[-5.65244,43.52882],[-5.65188,43.52918],[-5.65108,43.52984],[-5.64986,43.5301],[-5.64986,43.52982],[-5.64969,43.52947],[-5.64798,43.52787],[-5.64734,43.52938],[-5.64715,43.52933],[-5.64704,43.5304],[-5.64441,43.53027],[-5.64448,43.53055],[-5.64507,43.5313],[-5.64354,43.53124]]]]}},{"type":"Feature","id":"es-as-neighborhood-24b19","properties":{"id":"es-as-neighborhood-24b19","slug":"gijon-xixon-perchera-la-brana","name":"Perchera - La Braña","localName":"Perchera - La Braña","aliases":[],"kind":"neighborhood","boundaryStatus":"statistical","parentId":"es-as-concejo-33024","population":null,"areaKm2":0.4,"density":null,"referenceYear":2024,"sourceId":"sadei-neighborhoods","bbox":[-5.69177,43.52385,-5.67599,43.53272],"center":[-5.68388,43.528285]},"geometry":{"type":"MultiPolygon","coordinates":[[[[-5.68092,43.53192],[-5.67771,43.52937],[-5.67599,43.52828],[-5.67805,43.52655],[-5.68095,43.52842],[-5.68123,43.52803],[-5.68146,43.52783],[-5.68147,43.52766],[-5.68202,43.52744],[-5.68327,43.52818],[-5.68501,43.52671],[-5.68463,43.52647],[-5.68577,43.52566],[-5.68581,43.52539],[-5.68599,43.52506],[-5.68672,43.52433],[-5.68687,43.52401],[-5.68718,43.52397],[-5.68738,43.52385],[-5.6882,43.52411],[-5.69104,43.52438],[-5.69146,43.52462],[-5.69177,43.52505],[-5.68923,43.52687],[-5.68556,43.5297],[-5.68192,43.53272],[-5.68092,43.53192]]]]}},{"type":"Feature","id":"es-as-neighborhood-24b12","properties":{"id":"es-as-neighborhood-24b12","slug":"gijon-xixon-les-mestes","name":"Les Mestes","localName":"Les Mestes","aliases":[],"kind":"neighborhood","boundaryStatus":"statistical","parentId":"es-as-concejo-33024","population":null,"areaKm2":0.5,"density":null,"referenceYear":2024,"sourceId":"sadei-neighborhoods","bbox":[-5.6466,43.52774,-5.63427,43.53526],"center":[-5.640435,43.5315]},"geometry":{"type":"MultiPolygon","coordinates":[[[[-5.64506,43.5313],[-5.6458,43.53216],[-5.64584,43.53345],[-5.64592,43.53394],[-5.64618,43.53454],[-5.6466,43.53526],[-5.64539,43.5347],[-5.64472,43.5345],[-5.64227,43.534],[-5.64105,43.53394],[-5.63652,43.53417],[-5.6347,43.53391],[-5.63471,43.53362],[-5.63428,43.5326],[-5.63427,43.53226],[-5.63488,43.52808],[-5.63508,43.52774],[-5.64034,43.52835],[-5.64071,43.52846],[-5.64158,43.52913],[-5.64239,43.52992],[-5.64354,43.53124],[-5.64506,43.5313]]]]}},{"type":"Feature","id":"es-as-neighborhood-24b26","properties":{"id":"es-as-neighborhood-24b26","slug":"gijon-xixon-tremanes","name":"Tremañes","localName":"Tremañes","aliases":[],"kind":"neighborhood","boundaryStatus":"statistical","parentId":"es-as-concejo-33024","population":null,"areaKm2":5.5,"density":null,"referenceYear":2024,"sourceId":"sadei-neighborhoods","bbox":[-5.72402,43.51156,-5.68192,43.53617],"center":[-5.7029700000000005,43.523865]},"geometry":{"type":"MultiPolygon","coordinates":[[[[-5.68914,43.53593],[-5.68795,43.53545],[-5.68453,43.53438],[-5.68306,43.53362],[-5.68192,43.53272],[-5.68556,43.5297],[-5.68923,43.52687],[-5.69177,43.52505],[-5.69285,43.52413],[-5.69075,43.52125],[-5.69074,43.52114],[-5.69177,43.52117],[-5.69247,43.51982],[-5.69307,43.51912],[-5.69324,43.51875],[-5.69276,43.51797],[-5.69312,43.51748],[-5.69195,43.51695],[-5.6916,43.5165],[-5.69117,43.51612],[-5.69162,43.51541],[-5.69169,43.51517],[-5.69186,43.515],[-5.69288,43.51553],[-5.69328,43.51561],[-5.69489,43.51528],[-5.69507,43.51518],[-5.69585,43.515],[-5.69636,43.51506],[-5.69676,43.51529],[-5.69712,43.51538],[-5.69841,43.51506],[-5.70003,43.51434],[-5.70045,43.51447],[-5.70068,43.51473],[-5.70024,43.5152],[-5.70024,43.51529],[-5.70073,43.51579],[-5.70076,43.51593],[-5.70056,43.51624],[-5.70078,43.51632],[-5.70149,43.51626],[-5.70258,43.51689],[-5.70315,43.51749],[-5.70361,43.51713],[-5.70359,43.51707],[-5.7045,43.51656],[-5.70502,43.51655],[-5.70528,43.51681],[-5.71165,43.51228],[-5.71243,43.51186],[-5.7129,43.5117],[-5.71374,43.51156],[-5.71464,43.51159],[-5.71532,43.51174],[-5.71736,43.51245],[-5.71834,43.51266],[-5.71919,43.51274],[-5.7206,43.51267],[-5.72188,43.51239],[-5.72201,43.51276],[-5.71928,43.51363],[-5.71887,43.51383],[-5.71843,43.51429],[-5.71833,43.51471],[-5.71847,43.51561],[-5.71879,43.5161],[-5.71925,43.51644],[-5.71987,43.51673],[-5.72002,43.51691],[-5.7205,43.51788],[-5.72124,43.51844],[-5.72204,43.51944],[-5.72258,43.51984],[-5.72298,43.51998],[-5.72312,43.52058],[-5.7235,43.52075],[-5.72402,43.52115],[-5.72239,43.52207],[-5.72279,43.52218],[-5.72187,43.5226],[-5.72197,43.52331],[-5.72182,43.52353],[-5.72204,43.52394],[-5.72174,43.52462],[-5.72209,43.5257],[-5.72212,43.52614],[-5.72242,43.52655],[-5.72277,43.52686],[-5.72314,43.52705],[-5.72364,43.52772],[-5.72318,43.52787],[-5.72315,43.52825],[-5.72267,43.52848],[-5.72267,43.52832],[-5.72258,43.52819],[-5.72212,43.52783],[-5.72179,43.52726],[-5.7208,43.52668],[-5.71965,43.5275],[-5.71817,43.52868],[-5.71765,43.5284],[-5.71352,43.53248],[-5.7126,43.53205],[-5.71236,43.53216],[-5.71198,43.53264],[-5.71195,43.53288],[-5.71201,43.53297],[-5.7126,43.53328],[-5.71262,43.53348],[-5.71219,43.53362],[-5.71173,43.53411],[-5.71128,43.53413],[-5.71041,43.53285],[-5.71022,43.53294],[-5.70986,43.53347],[-5.70968,43.53361],[-5.70948,43.53359],[-5.70914,43.53381],[-5.70697,43.53421],[-5.70694,43.53504],[-5.69323,43.53541],[-5.69188,43.53556],[-5.68985,43.53605],[-5.68957,43.53617],[-5.68914,43.53593]]]]}},{"type":"Feature","id":"es-as-neighborhood-24b11","properties":{"id":"es-as-neighborhood-24b11","slug":"gijon-xixon-el-llano","name":"El Llano","localName":"El Llano","aliases":[],"kind":"neighborhood","boundaryStatus":"statistical","parentId":"es-as-concejo-33024","population":null,"areaKm2":1,"density":null,"referenceYear":2024,"sourceId":"sadei-neighborhoods","bbox":[-5.67252,43.52102,-5.65874,43.53639],"center":[-5.66563,43.528705]},"geometry":{"type":"MultiPolygon","coordinates":[[[[-5.65983,43.53574],[-5.66001,43.53537],[-5.65935,43.53554],[-5.65896,43.53502],[-5.65897,43.53492],[-5.6598,43.53372],[-5.65874,43.53237],[-5.65926,43.53215],[-5.65878,43.53148],[-5.65876,43.53129],[-5.66031,43.53118],[-5.66066,43.53],[-5.65962,43.53007],[-5.65955,43.52951],[-5.66002,43.52917],[-5.66054,43.52749],[-5.66124,43.52762],[-5.66192,43.52522],[-5.66313,43.52536],[-5.66357,43.52388],[-5.66907,43.52102],[-5.671,43.52293],[-5.66773,43.52469],[-5.66824,43.52583],[-5.66798,43.52694],[-5.66888,43.52705],[-5.66835,43.52934],[-5.66995,43.52954],[-5.66975,43.53039],[-5.67141,43.53059],[-5.67159,43.5307],[-5.67164,43.53066],[-5.67252,43.53121],[-5.66911,43.5341],[-5.66015,43.53639],[-5.65983,43.53574]]]]}},{"type":"Feature","id":"es-as-neighborhood-24b04","properties":{"id":"es-as-neighborhood-24b04","slug":"gijon-xixon-ceares","name":"Ceares","localName":"Ceares","aliases":[],"kind":"neighborhood","boundaryStatus":"statistical","parentId":"es-as-concejo-33024","population":null,"areaKm2":1.6,"density":null,"referenceYear":2024,"sourceId":"sadei-neighborhoods","bbox":[-5.66365,43.51457,-5.64473,43.53639],"center":[-5.65419,43.52548]},"geometry":{"type":"MultiPolygon","coordinates":[[[[-5.65572,43.5358],[-5.65318,43.53552],[-5.65475,43.53054],[-5.65263,43.53046],[-5.65272,43.52931],[-5.65286,43.52921],[-5.65234,43.52873],[-5.65187,43.5285],[-5.65014,43.52694],[-5.6532,43.5252],[-5.65401,43.52434],[-5.65231,43.52476],[-5.65209,43.52455],[-5.65435,43.52318],[-5.65551,43.52126],[-5.65412,43.52102],[-5.65308,43.52073],[-5.65111,43.52089],[-5.65075,43.52104],[-5.65041,43.52109],[-5.65015,43.52106],[-5.64962,43.52069],[-5.64518,43.52151],[-5.64513,43.52121],[-5.64536,43.52112],[-5.64502,43.52088],[-5.64473,43.5208],[-5.64478,43.5207],[-5.64476,43.52043],[-5.64558,43.51956],[-5.64545,43.51933],[-5.64548,43.51923],[-5.64535,43.51912],[-5.64517,43.51856],[-5.64569,43.5178],[-5.64586,43.51738],[-5.64613,43.51743],[-5.6468,43.51723],[-5.64733,43.51692],[-5.64741,43.51679],[-5.64736,43.51668],[-5.6475,43.51645],[-5.64867,43.51498],[-5.64871,43.51457],[-5.64954,43.51474],[-5.6503,43.51478],[-5.65056,43.515],[-5.65046,43.51534],[-5.65106,43.51525],[-5.65118,43.51533],[-5.65158,43.51646],[-5.65252,43.51667],[-5.65313,43.51632],[-5.65429,43.51629],[-5.65465,43.51643],[-5.65494,43.51639],[-5.65517,43.51647],[-5.65539,43.51644],[-5.65566,43.51697],[-5.656,43.51667],[-5.65807,43.51996],[-5.66143,43.5207],[-5.66231,43.52113],[-5.66288,43.52158],[-5.66334,43.52216],[-5.66359,43.52275],[-5.66365,43.5232],[-5.66357,43.52388],[-5.66313,43.52536],[-5.66192,43.52522],[-5.66124,43.52762],[-5.66054,43.52749],[-5.66002,43.52917],[-5.65955,43.52951],[-5.65962,43.53007],[-5.66066,43.53],[-5.66031,43.53118],[-5.65876,43.53129],[-5.65878,43.53148],[-5.65926,43.53215],[-5.65874,43.53237],[-5.6598,43.53372],[-5.65897,43.53492],[-5.65896,43.53502],[-5.65935,43.53554],[-5.66001,43.53537],[-5.65983,43.53574],[-5.66015,43.53639],[-5.65572,43.5358]]]]}},{"type":"Feature","id":"es-as-neighborhood-24b10","properties":{"id":"es-as-neighborhood-24b10","slug":"gijon-xixon-laviada","name":"Laviada","localName":"Laviada","aliases":[],"kind":"neighborhood","boundaryStatus":"statistical","parentId":"es-as-concejo-33024","population":null,"areaKm2":0.3,"density":null,"referenceYear":2024,"sourceId":"sadei-neighborhoods","bbox":[-5.67386,43.5321,-5.66607,43.54017],"center":[-5.669965,43.536135]},"geometry":{"type":"MultiPolygon","coordinates":[[[[-5.66775,43.53981],[-5.66751,43.53945],[-5.66725,43.53922],[-5.66648,43.53876],[-5.66648,43.53801],[-5.66638,43.53786],[-5.66607,43.53668],[-5.67146,43.5321],[-5.67164,43.53228],[-5.67062,43.53369],[-5.67386,43.53737],[-5.67198,43.53867],[-5.67256,43.53974],[-5.67189,43.53989],[-5.66783,43.54017],[-5.66775,43.53981]]]]}},{"type":"Feature","id":"es-as-neighborhood-24b02","properties":{"id":"es-as-neighborhood-24b02","slug":"gijon-xixon-el-bibio-parque","name":"El Bibio - Parque","localName":"El Bibio - Parque","aliases":[],"kind":"neighborhood","boundaryStatus":"statistical","parentId":"es-as-concejo-33024","population":null,"areaKm2":0.5,"density":null,"referenceYear":2024,"sourceId":"sadei-neighborhoods","bbox":[-5.64789,43.53391,-5.6344,43.54062],"center":[-5.641145,43.537265]},"geometry":{"type":"MultiPolygon","coordinates":[[[[-5.64029,43.5384],[-5.63951,43.53807],[-5.63565,43.53677],[-5.63495,43.53637],[-5.63449,43.53574],[-5.6344,43.53535],[-5.63442,43.535],[-5.6347,43.53391],[-5.63652,43.53417],[-5.64105,43.53394],[-5.64264,43.53405],[-5.64472,43.5345],[-5.64539,43.5347],[-5.6466,43.53526],[-5.64789,43.53605],[-5.64419,43.54062],[-5.64029,43.5384]]]]}},{"type":"Feature","id":"es-as-neighborhood-24b01","properties":{"id":"es-as-neighborhood-24b01","slug":"gijon-xixon-l-arena","name":"L'arena","localName":"L'arena","aliases":[],"kind":"neighborhood","boundaryStatus":"statistical","parentId":"es-as-concejo-33024","population":null,"areaKm2":0.4,"density":null,"referenceYear":2024,"sourceId":"sadei-neighborhoods","bbox":[-5.65454,43.53526,-5.64419,43.54234],"center":[-5.6493649999999995,43.5388]},"geometry":{"type":"MultiPolygon","coordinates":[[[[-5.64419,43.54062],[-5.64789,43.53605],[-5.6466,43.53526],[-5.65318,43.53552],[-5.65301,43.53745],[-5.65253,43.53831],[-5.65454,43.5392],[-5.65276,43.54138],[-5.65219,43.54136],[-5.64846,43.54179],[-5.6477,43.54197],[-5.64702,43.54234],[-5.64419,43.54062]]]]}},{"type":"Feature","id":"es-as-neighborhood-24b16","properties":{"id":"es-as-neighborhood-24b16","slug":"gijon-xixon-el-natahoyo","name":"El Natahoyo","localName":"El Natahoyo","aliases":[],"kind":"neighborhood","boundaryStatus":"statistical","parentId":"es-as-concejo-33024","population":null,"areaKm2":1.1,"density":null,"referenceYear":2024,"sourceId":"sadei-neighborhoods","bbox":[-5.69492,43.53623,-5.67177,43.54548],"center":[-5.683345,43.540855]},"geometry":{"type":"MultiPolygon","coordinates":[[[[-5.68765,43.54543],[-5.68663,43.54478],[-5.6864,43.54496],[-5.68635,43.54484],[-5.6859,43.5445],[-5.68575,43.54431],[-5.68137,43.54491],[-5.67935,43.54548],[-5.67927,43.5454],[-5.68094,43.54495],[-5.68092,43.54488],[-5.68101,43.54483],[-5.68103,43.54467],[-5.68098,43.54439],[-5.68045,43.54396],[-5.68038,43.54382],[-5.68128,43.54321],[-5.68107,43.54305],[-5.68127,43.54291],[-5.68126,43.54233],[-5.68119,43.5422],[-5.67917,43.54123],[-5.67879,43.54131],[-5.67892,43.5416],[-5.67878,43.5419],[-5.67864,43.54193],[-5.67792,43.54031],[-5.67777,43.54026],[-5.67758,43.54051],[-5.67823,43.54201],[-5.67758,43.54223],[-5.67713,43.5425],[-5.67767,43.54304],[-5.67649,43.54218],[-5.6763,43.54221],[-5.6763,43.54232],[-5.67746,43.54319],[-5.67729,43.54323],[-5.6761,43.54234],[-5.6759,43.54246],[-5.67692,43.54337],[-5.677,43.54327],[-5.67706,43.54329],[-5.67714,43.54337],[-5.67696,43.54341],[-5.67734,43.54375],[-5.67742,43.54366],[-5.67741,43.54373],[-5.67758,43.54381],[-5.67755,43.54387],[-5.67869,43.54447],[-5.6781,43.54435],[-5.67764,43.54473],[-5.67718,43.54501],[-5.67666,43.54523],[-5.67603,43.54531],[-5.67548,43.54529],[-5.67539,43.54519],[-5.67554,43.54511],[-5.67619,43.54511],[-5.67665,43.54504],[-5.67671,43.54469],[-5.67665,43.54449],[-5.67634,43.54409],[-5.67599,43.54377],[-5.67517,43.54336],[-5.67423,43.54328],[-5.67249,43.54295],[-5.67203,43.54155],[-5.67177,43.54102],[-5.6718,43.54095],[-5.67299,43.54059],[-5.67256,43.53974],[-5.67349,43.53935],[-5.67539,43.53806],[-5.67739,43.53882],[-5.67779,43.53925],[-5.67809,43.53924],[-5.67826,43.53932],[-5.6857,43.53716],[-5.68779,43.53662],[-5.68965,43.53623],[-5.69049,43.53684],[-5.69492,43.54205],[-5.6926,43.54426],[-5.69177,43.5441],[-5.69119,43.5443],[-5.6907,43.54458],[-5.69056,43.54471],[-5.69057,43.54491],[-5.6911,43.5452],[-5.6911,43.54527],[-5.69092,43.54532],[-5.69053,43.54508],[-5.69031,43.5448],[-5.69078,43.54419],[-5.69074,43.544],[-5.68938,43.54384],[-5.68941,43.54394],[-5.68928,43.5439],[-5.68903,43.54337],[-5.6879,43.54371],[-5.68773,43.54373],[-5.68766,43.54359],[-5.68747,43.54364],[-5.6875,43.5437],[-5.68703,43.54384],[-5.68698,43.54391],[-5.68452,43.54251],[-5.68443,43.54257],[-5.68433,43.54253],[-5.68414,43.54272],[-5.68415,43.54282],[-5.68511,43.54328],[-5.6846,43.54316],[-5.68459,43.54311],[-5.68452,43.54316],[-5.68417,43.54308],[-5.68423,43.54339],[-5.68582,43.5439],[-5.6866,43.54412],[-5.68666,43.54409],[-5.68712,43.54437],[-5.68716,43.54446],[-5.68696,43.5446],[-5.68701,43.54472],[-5.68689,43.54489],[-5.68776,43.54536],[-5.68771,43.54548],[-5.68765,43.54543]]]]}},{"type":"Feature","id":"es-as-neighborhood-24b05","properties":{"id":"es-as-neighborhood-24b05","slug":"gijon-xixon-el-centro","name":"El Centro","localName":"El Centro","aliases":[],"kind":"neighborhood","boundaryStatus":"statistical","parentId":"es-as-concejo-33024","population":null,"areaKm2":1.1,"density":null,"referenceYear":2024,"sourceId":"sadei-neighborhoods","bbox":[-5.67299,43.5341,-5.65253,43.54593],"center":[-5.6627600000000005,43.540015]},"geometry":{"type":"MultiPolygon","coordinates":[[[[-5.66611,43.5458],[-5.66536,43.54426],[-5.6647,43.5437],[-5.66426,43.54381],[-5.66372,43.54435],[-5.6636,43.5444],[-5.66257,43.54458],[-5.66131,43.54432],[-5.66121,43.54406],[-5.66091,43.54371],[-5.66016,43.54326],[-5.65878,43.54257],[-5.65717,43.54205],[-5.65543,43.54164],[-5.65398,43.54142],[-5.65276,43.54138],[-5.65454,43.5392],[-5.65253,43.53831],[-5.65301,43.53745],[-5.65318,43.53552],[-5.66015,43.53639],[-5.66911,43.5341],[-5.66607,43.53668],[-5.66638,43.53786],[-5.66648,43.53801],[-5.66648,43.53876],[-5.66725,43.53922],[-5.66751,43.53945],[-5.66775,43.53981],[-5.66783,43.54017],[-5.67189,43.53989],[-5.67256,43.53974],[-5.67299,43.54059],[-5.6718,43.54095],[-5.67177,43.54102],[-5.67203,43.54155],[-5.67249,43.54295],[-5.67189,43.54296],[-5.67125,43.54309],[-5.67048,43.54343],[-5.67001,43.54389],[-5.66982,43.54451],[-5.6701,43.54465],[-5.67114,43.54473],[-5.67118,43.54481],[-5.67107,43.54489],[-5.67006,43.54486],[-5.66938,43.54498],[-5.66881,43.54522],[-5.66884,43.5454],[-5.66871,43.5455],[-5.66857,43.5454],[-5.66848,43.54449],[-5.66858,43.5437],[-5.66878,43.54324],[-5.66785,43.54262],[-5.66676,43.54317],[-5.66775,43.54486],[-5.66808,43.54504],[-5.66793,43.54501],[-5.66762,43.54555],[-5.66743,43.5456],[-5.6674,43.54532],[-5.66722,43.54534],[-5.66718,43.54488],[-5.66655,43.54381],[-5.6666,43.5438],[-5.6664,43.54345],[-5.66545,43.54405],[-5.66547,43.54422],[-5.66616,43.54557],[-5.6664,43.54589],[-5.66626,43.54593],[-5.66611,43.5458]]]]}},{"type":"Feature","id":"es-as-neighborhood-24b03","properties":{"id":"es-as-neighborhood-24b03","slug":"gijon-xixon-la-calzada","name":"La Calzada","localName":"La Calzada","aliases":[],"kind":"neighborhood","boundaryStatus":"statistical","parentId":"es-as-concejo-33024","population":null,"areaKm2":1,"density":null,"referenceYear":2024,"sourceId":"sadei-neighborhoods","bbox":[-5.70777,43.53504,-5.68957,43.54621],"center":[-5.69867,43.540625000000006]},"geometry":{"type":"MultiPolygon","coordinates":[[[[-5.69418,43.54568],[-5.6936,43.54495],[-5.69319,43.54456],[-5.6926,43.54426],[-5.69492,43.54205],[-5.69049,43.53684],[-5.68957,43.53617],[-5.68985,43.53605],[-5.69188,43.53556],[-5.69323,43.53541],[-5.70694,43.53504],[-5.70708,43.53545],[-5.70694,43.5359],[-5.70698,43.53613],[-5.70719,43.53638],[-5.70755,43.53652],[-5.70654,43.53805],[-5.70607,43.53812],[-5.70777,43.54081],[-5.7069,43.54133],[-5.70597,43.5416],[-5.7014,43.54205],[-5.70024,43.5423],[-5.69929,43.54261],[-5.69828,43.54308],[-5.69743,43.54358],[-5.69683,43.54408],[-5.6952,43.54578],[-5.69446,43.54621],[-5.69418,43.54568]]]]}},{"type":"Feature","id":"es-as-neighborhood-24b06","properties":{"id":"es-as-neighborhood-24b06","slug":"gijon-xixon-cimavilla","name":"Cimavilla","localName":"Cimavilla","aliases":[],"kind":"neighborhood","boundaryStatus":"statistical","parentId":"es-as-concejo-33024","population":null,"areaKm2":0.3,"density":null,"referenceYear":2024,"sourceId":"sadei-neighborhoods","bbox":[-5.67042,43.5437,-5.65939,43.54976],"center":[-5.664905,43.54673]},"geometry":{"type":"MultiPolygon","coordinates":[[[[-5.66466,43.54973],[-5.66442,43.54972],[-5.66429,43.54957],[-5.66395,43.54975],[-5.66355,43.54971],[-5.66312,43.54955],[-5.66262,43.54963],[-5.6622,43.54928],[-5.66205,43.54937],[-5.66156,43.54937],[-5.66137,43.54918],[-5.66114,43.54912],[-5.66096,43.54909],[-5.66069,43.54916],[-5.66057,43.5491],[-5.66062,43.54887],[-5.66035,43.54873],[-5.6603,43.54864],[-5.66035,43.54852],[-5.66042,43.54851],[-5.66042,43.54841],[-5.66031,43.54842],[-5.66008,43.54821],[-5.66,43.54794],[-5.65952,43.54765],[-5.65939,43.54734],[-5.65968,43.54681],[-5.65979,43.54684],[-5.65976,43.54667],[-5.65984,43.54649],[-5.65998,43.54648],[-5.65987,43.54609],[-5.65994,43.54613],[-5.65996,43.54634],[-5.66011,43.54634],[-5.66016,43.54614],[-5.66006,43.54612],[-5.66005,43.54602],[-5.66025,43.54609],[-5.65984,43.54581],[-5.66138,43.54496],[-5.66142,43.54484],[-5.66131,43.54432],[-5.66257,43.54458],[-5.6636,43.5444],[-5.66372,43.54435],[-5.66426,43.54381],[-5.6647,43.5437],[-5.6652,43.54413],[-5.66486,43.54412],[-5.66444,43.54442],[-5.66428,43.54467],[-5.66425,43.54505],[-5.66443,43.54543],[-5.66595,43.54673],[-5.66609,43.54665],[-5.66617,43.54672],[-5.66648,43.54645],[-5.66653,43.54612],[-5.66658,43.54609],[-5.6667,43.54613],[-5.66666,43.54636],[-5.66743,43.54615],[-5.66748,43.54625],[-5.66677,43.54644],[-5.66676,43.54654],[-5.66636,43.54688],[-5.66641,43.54693],[-5.6663,43.54703],[-5.66666,43.54735],[-5.66678,43.54739],[-5.66767,43.54747],[-5.66839,43.54728],[-5.66919,43.54685],[-5.66923,43.54632],[-5.6694,43.54622],[-5.66959,43.54634],[-5.67036,43.54641],[-5.67042,43.54659],[-5.67024,43.54672],[-5.66945,43.54673],[-5.66938,43.54695],[-5.66919,43.54712],[-5.66859,43.5474],[-5.66786,43.54765],[-5.66661,43.54796],[-5.66666,43.54808],[-5.66652,43.54811],[-5.6665,43.54826],[-5.66624,43.54832],[-5.66595,43.54862],[-5.66592,43.5488],[-5.66603,43.54889],[-5.66605,43.549],[-5.66581,43.54902],[-5.66568,43.54928],[-5.66531,43.54956],[-5.66481,43.54976],[-5.66466,43.54973]]]]}},{"type":"Feature","id":"es-as-neighborhood-24b25","properties":{"id":"es-as-neighborhood-24b25","slug":"gijon-xixon-somio","name":"Somió","localName":"Somió","aliases":[],"kind":"neighborhood","boundaryStatus":"statistical","parentId":"es-as-concejo-33024","population":null,"areaKm2":10.5,"density":null,"referenceYear":2024,"sourceId":"sadei-neighborhoods","bbox":[-5.64721,43.52038,-5.58715,43.55902],"center":[-5.61718,43.539699999999996]},"geometry":{"type":"MultiPolygon","coordinates":[[[[-5.61748,43.55899],[-5.61723,43.55873],[-5.61708,43.55842],[-5.61693,43.55844],[-5.61679,43.55859],[-5.61665,43.55853],[-5.61623,43.55802],[-5.6162,43.5578],[-5.6165,43.5573],[-5.61618,43.55724],[-5.61606,43.55731],[-5.61584,43.55729],[-5.61573,43.55726],[-5.61554,43.55706],[-5.61539,43.55705],[-5.61524,43.55714],[-5.61508,43.55712],[-5.61483,43.55698],[-5.61455,43.55667],[-5.61417,43.55664],[-5.61356,43.55627],[-5.61349,43.55616],[-5.6135,43.55599],[-5.61379,43.55578],[-5.61415,43.55537],[-5.61425,43.555],[-5.61413,43.55447],[-5.61369,43.55408],[-5.6134,43.55391],[-5.61293,43.55375],[-5.61272,43.55357],[-5.61236,43.55233],[-5.61193,43.55146],[-5.61146,43.55115],[-5.61063,43.55074],[-5.60983,43.55016],[-5.60945,43.54995],[-5.609,43.5498],[-5.60835,43.5498],[-5.60795,43.54961],[-5.60741,43.5497],[-5.60694,43.54969],[-5.60623,43.54943],[-5.60599,43.54951],[-5.60547,43.55007],[-5.60525,43.55014],[-5.60509,43.55002],[-5.60501,43.5498],[-5.60464,43.5496],[-5.60456,43.5493],[-5.60448,43.54922],[-5.60403,43.5491],[-5.60372,43.54913],[-5.60306,43.54963],[-5.60278,43.54973],[-5.60248,43.54968],[-5.60205,43.54929],[-5.60151,43.54959],[-5.60104,43.54963],[-5.60078,43.5495],[-5.6006,43.54926],[-5.59939,43.54878],[-5.59903,43.5483],[-5.59872,43.54803],[-5.59815,43.54811],[-5.59823,43.54832],[-5.59814,43.5484],[-5.59823,43.54854],[-5.59812,43.54867],[-5.59831,43.54886],[-5.59827,43.54893],[-5.59807,43.54883],[-5.59805,43.54857],[-5.59773,43.5486],[-5.59756,43.54849],[-5.59751,43.54835],[-5.59771,43.54846],[-5.59781,43.54835],[-5.59772,43.54811],[-5.59758,43.54794],[-5.59722,43.54783],[-5.59574,43.54788],[-5.59544,43.54817],[-5.59522,43.54823],[-5.5955,43.54862],[-5.59544,43.54871],[-5.59553,43.54877],[-5.59553,43.54887],[-5.59539,43.54894],[-5.59518,43.54895],[-5.59513,43.54887],[-5.59514,43.54827],[-5.59483,43.54825],[-5.59455,43.54828],[-5.59428,43.54844],[-5.5941,43.54883],[-5.59386,43.54898],[-5.59328,43.54885],[-5.59235,43.5482],[-5.59129,43.54786],[-5.59067,43.54746],[-5.59033,43.54706],[-5.59023,43.54645],[-5.59028,43.54519],[-5.59003,43.54454],[-5.58943,43.54381],[-5.58733,43.54185],[-5.58715,43.54126],[-5.58882,43.54119],[-5.58926,43.54107],[-5.58938,43.54086],[-5.58963,43.54074],[-5.59059,43.54048],[-5.59102,43.54008],[-5.5911,43.53988],[-5.59107,43.53949],[-5.59133,43.53929],[-5.59178,43.53904],[-5.59199,43.53905],[-5.59241,43.53891],[-5.59289,43.53892],[-5.59314,43.53882],[-5.59333,43.53842],[-5.59336,43.53809],[-5.59379,43.53744],[-5.5939,43.53701],[-5.59433,43.53694],[-5.59537,43.53646],[-5.5973,43.53526],[-5.59669,43.53475],[-5.59683,43.53474],[-5.59674,43.53447],[-5.59691,43.53445],[-5.59676,43.53401],[-5.59716,43.53392],[-5.59639,43.5337],[-5.59678,43.53316],[-5.59805,43.53231],[-5.59774,43.53186],[-5.59782,43.53179],[-5.5985,43.532],[-5.59893,43.53202],[-5.59895,43.53187],[-5.59907,43.53176],[-5.59977,43.53161],[-5.59974,43.53123],[-5.60117,43.53086],[-5.60128,43.53029],[-5.6026,43.52986],[-5.60313,43.5295],[-5.60338,43.52909],[-5.60433,43.5287],[-5.60586,43.52858],[-5.60613,43.52878],[-5.60744,43.52877],[-5.60811,43.52883],[-5.60848,43.52834],[-5.60871,43.52834],[-5.60858,43.52813],[-5.60863,43.52799],[-5.60972,43.52794],[-5.60967,43.52762],[-5.60938,43.52736],[-5.60943,43.52683],[-5.60991,43.52588],[-5.61102,43.52612],[-5.6124,43.52624],[-5.6125,43.52608],[-5.61389,43.52626],[-5.614,43.52594],[-5.61454,43.52523],[-5.61831,43.52557],[-5.61859,43.52524],[-5.61903,43.525],[-5.62054,43.52352],[-5.62156,43.5236],[-5.62346,43.52454],[-5.62409,43.52439],[-5.62467,43.52421],[-5.62689,43.52278],[-5.62781,43.5223],[-5.62819,43.52235],[-5.6295,43.5204],[-5.6299,43.52038],[-5.63008,43.52043],[-5.63031,43.52038],[-5.63188,43.52049],[-5.63205,43.52057],[-5.63214,43.52072],[-5.63213,43.52103],[-5.63198,43.52119],[-5.63164,43.52134],[-5.63141,43.5217],[-5.63097,43.52208],[-5.63082,43.52239],[-5.63069,43.52246],[-5.63066,43.52269],[-5.63108,43.52333],[-5.63149,43.52356],[-5.63172,43.5238],[-5.63264,43.5238],[-5.63301,43.52397],[-5.63314,43.52412],[-5.63318,43.52422],[-5.63301,43.52457],[-5.63299,43.52496],[-5.63329,43.52507],[-5.63336,43.5252],[-5.63317,43.52554],[-5.63316,43.52574],[-5.63286,43.5259],[-5.63285,43.52611],[-5.63267,43.52651],[-5.63299,43.5266],[-5.63331,43.52684],[-5.63399,43.52741],[-5.63415,43.52762],[-5.63465,43.52765],[-5.63498,43.52748],[-5.63508,43.52774],[-5.63488,43.52808],[-5.63427,43.53226],[-5.63428,43.5326],[-5.63471,43.53362],[-5.6347,43.53391],[-5.63442,43.535],[-5.6344,43.53535],[-5.63449,43.53574],[-5.63468,43.53605],[-5.63495,43.53637],[-5.63565,43.53677],[-5.63951,43.53807],[-5.64029,43.5384],[-5.64419,43.54062],[-5.64702,43.54234],[-5.64686,43.54249],[-5.64668,43.54314],[-5.64694,43.54345],[-5.64721,43.54409],[-5.64689,43.54445],[-5.64602,43.54473],[-5.64554,43.54476],[-5.64481,43.54455],[-5.64457,43.54454],[-5.64453,43.54467],[-5.64459,43.54487],[-5.64424,43.54521],[-5.64303,43.54542],[-5.64291,43.54549],[-5.64292,43.54566],[-5.64325,43.54605],[-5.64351,43.54661],[-5.64368,43.54718],[-5.64371,43.54765],[-5.64356,43.54796],[-5.6434,43.54808],[-5.64294,43.54806],[-5.64264,43.54813],[-5.64218,43.54786],[-5.64199,43.54803],[-5.64225,43.54826],[-5.64228,43.54866],[-5.64218,43.54911],[-5.64198,43.54929],[-5.64174,43.54929],[-5.64112,43.54897],[-5.64053,43.54887],[-5.64012,43.54838],[-5.64015,43.54824],[-5.63998,43.54821],[-5.63962,43.54839],[-5.63942,43.54863],[-5.63878,43.54871],[-5.63839,43.54889],[-5.63836,43.54899],[-5.63857,43.5493],[-5.63861,43.54988],[-5.63874,43.55023],[-5.63906,43.55063],[-5.63923,43.55099],[-5.6394,43.55112],[-5.63921,43.55162],[-5.639,43.55158],[-5.63895,43.55173],[-5.6388,43.55169],[-5.63873,43.55185],[-5.63844,43.55191],[-5.63795,43.5523],[-5.63773,43.55221],[-5.63753,43.55238],[-5.63726,43.55247],[-5.63689,43.55228],[-5.63686,43.55219],[-5.63642,43.55205],[-5.63571,43.55166],[-5.63533,43.55158],[-5.63461,43.55111],[-5.63443,43.55106],[-5.63374,43.55102],[-5.63353,43.55111],[-5.63279,43.551],[-5.63224,43.55103],[-5.63216,43.55096],[-5.63165,43.55097],[-5.63108,43.55074],[-5.63052,43.55067],[-5.63039,43.55044],[-5.63024,43.55039],[-5.62967,43.55027],[-5.62955,43.55032],[-5.62892,43.55011],[-5.62827,43.55035],[-5.62799,43.55056],[-5.62667,43.55122],[-5.62559,43.55146],[-5.62345,43.55234],[-5.62279,43.55267],[-5.62253,43.55283],[-5.62218,43.55322],[-5.62176,43.55415],[-5.62185,43.55424],[-5.62201,43.55425],[-5.6219,43.55439],[-5.6218,43.5549],[-5.62182,43.55514],[-5.62206,43.55537],[-5.62225,43.55569],[-5.62218,43.55615],[-5.62231,43.55649],[-5.62231,43.55673],[-5.62215,43.55683],[-5.62169,43.55689],[-5.62122,43.55716],[-5.62047,43.55718],[-5.62009,43.55705],[-5.62,43.55723],[-5.61975,43.55744],[-5.6196,43.55748],[-5.61914,43.55744],[-5.61864,43.55718],[-5.6186,43.55721],[-5.61869,43.55735],[-5.61893,43.55758],[-5.6188,43.55772],[-5.61855,43.55771],[-5.61828,43.55745],[-5.61825,43.55733],[-5.61796,43.55732],[-5.61732,43.55744],[-5.6168,43.55723],[-5.6168,43.55746],[-5.61693,43.55749],[-5.61715,43.5578],[-5.61767,43.55824],[-5.6177,43.55891],[-5.61757,43.55902],[-5.61748,43.55899]]]]}},{"type":"Feature","id":"es-as-neighborhood-24b09","properties":{"id":"es-as-neighborhood-24b09","slug":"gijon-xixon-jove","name":"Jove","localName":"Jove","aliases":[],"kind":"neighborhood","boundaryStatus":"statistical","parentId":"es-as-concejo-33024","population":null,"areaKm2":3.8,"density":null,"referenceYear":2024,"sourceId":"sadei-neighborhoods","bbox":[-5.72338,43.53788,-5.6966,43.57553],"center":[-5.7099899999999995,43.556705]},"geometry":{"type":"MultiPolygon","coordinates":[[[[-5.69796,43.57552],[-5.69778,43.57544],[-5.69809,43.57514],[-5.69772,43.57514],[-5.69777,43.57474],[-5.69788,43.57465],[-5.69786,43.57451],[-5.69776,43.57444],[-5.69777,43.57434],[-5.69795,43.57408],[-5.6978,43.5739],[-5.69803,43.57378],[-5.69806,43.57352],[-5.69831,43.57346],[-5.69831,43.57332],[-5.69857,43.57326],[-5.69846,43.57319],[-5.69908,43.57305],[-5.69924,43.57308],[-5.69899,43.57238],[-5.69834,43.57285],[-5.69774,43.5731],[-5.6975,43.57336],[-5.69713,43.57356],[-5.69693,43.57358],[-5.69679,43.57351],[-5.69666,43.57314],[-5.69689,43.5731],[-5.69704,43.57295],[-5.69853,43.57216],[-5.69871,43.57193],[-5.69811,43.5721],[-5.69763,43.57237],[-5.6984,43.57189],[-5.69832,43.57178],[-5.69947,43.5704],[-5.70123,43.56908],[-5.70281,43.56831],[-5.70274,43.56777],[-5.70335,43.56714],[-5.70342,43.56602],[-5.70367,43.56546],[-5.70413,43.56485],[-5.704,43.56432],[-5.70432,43.56398],[-5.7041,43.56355],[-5.70292,43.56263],[-5.70259,43.5622],[-5.70289,43.56104],[-5.70429,43.55913],[-5.70469,43.55882],[-5.70463,43.55803],[-5.7029,43.5563],[-5.70237,43.55609],[-5.70199,43.55622],[-5.70154,43.55568],[-5.70155,43.55489],[-5.70171,43.55361],[-5.70132,43.55289],[-5.70021,43.55156],[-5.69907,43.55053],[-5.69895,43.54997],[-5.69937,43.54803],[-5.69936,43.54766],[-5.69847,43.54647],[-5.6966,43.54432],[-5.69743,43.54358],[-5.69828,43.54308],[-5.69972,43.54244],[-5.7014,43.54205],[-5.70597,43.5416],[-5.7069,43.54133],[-5.70731,43.54113],[-5.70777,43.54081],[-5.70626,43.53843],[-5.70657,43.53832],[-5.70698,43.53838],[-5.70774,43.53821],[-5.70799,43.53804],[-5.70827,43.53814],[-5.71163,43.53788],[-5.71211,43.53821],[-5.71206,43.53839],[-5.71243,43.53895],[-5.71248,43.53919],[-5.71222,43.54057],[-5.7123,43.54102],[-5.71203,43.54191],[-5.71177,43.54241],[-5.71033,43.54303],[-5.70983,43.54299],[-5.70906,43.5428],[-5.70937,43.54328],[-5.70938,43.54339],[-5.70963,43.5434],[-5.7094,43.54518],[-5.7102,43.54586],[-5.71071,43.54621],[-5.7107,43.54642],[-5.71091,43.54694],[-5.71127,43.54767],[-5.71146,43.54792],[-5.71164,43.54799],[-5.7122,43.54795],[-5.7125,43.54824],[-5.71401,43.54887],[-5.71414,43.54877],[-5.71428,43.54886],[-5.71453,43.54874],[-5.71483,43.54869],[-5.71527,43.54888],[-5.71602,43.54904],[-5.72045,43.55106],[-5.72266,43.55222],[-5.72338,43.5525],[-5.72125,43.55393],[-5.71881,43.55634],[-5.7177,43.55732],[-5.71645,43.55871],[-5.71473,43.56129],[-5.7141,43.56177],[-5.71388,43.56206],[-5.71383,43.5624],[-5.71412,43.56305],[-5.71439,43.56312],[-5.71317,43.56563],[-5.71021,43.56762],[-5.70918,43.56982],[-5.70887,43.57269],[-5.7043,43.57276],[-5.70393,43.57247],[-5.7037,43.57255],[-5.70369,43.57263],[-5.70358,43.5727],[-5.70356,43.57296],[-5.70348,43.57293],[-5.70349,43.57269],[-5.70341,43.57267],[-5.70412,43.57202],[-5.70398,43.57177],[-5.70403,43.57197],[-5.70398,43.57203],[-5.70378,43.57208],[-5.70339,43.57236],[-5.70333,43.57224],[-5.70345,43.57215],[-5.70358,43.57218],[-5.70355,43.57209],[-5.70336,43.57197],[-5.70333,43.57214],[-5.70322,43.57212],[-5.70263,43.57169],[-5.70236,43.57159],[-5.70183,43.57154],[-5.70172,43.57165],[-5.70157,43.57169],[-5.70162,43.5718],[-5.70138,43.57173],[-5.70126,43.57187],[-5.70116,43.57186],[-5.70118,43.57177],[-5.70092,43.57167],[-5.70083,43.57176],[-5.70074,43.57165],[-5.70049,43.57171],[-5.70034,43.57182],[-5.70046,43.57207],[-5.7008,43.57225],[-5.70066,43.57269],[-5.70089,43.57292],[-5.70093,43.57304],[-5.70088,43.57315],[-5.70042,43.57366],[-5.70023,43.57368],[-5.70015,43.5738],[-5.69997,43.57369],[-5.69942,43.57356],[-5.69935,43.5736],[-5.69954,43.57369],[-5.69962,43.57382],[-5.69949,43.57388],[-5.69957,43.5741],[-5.69934,43.57425],[-5.69889,43.5741],[-5.69903,43.57426],[-5.69899,43.57441],[-5.69866,43.57485],[-5.69828,43.57512],[-5.69815,43.57513],[-5.69834,43.57533],[-5.69827,43.57546],[-5.69813,43.57553],[-5.69796,43.57552]]]]}},{"type":"Feature","id":"es-as-neighborhood-24b15","properties":{"id":"es-as-neighborhood-24b15","slug":"gijon-xixon-el-musel-area-portuaria","name":"El Musel (área Portuaria)","localName":"El Musel (área Portuaria)","aliases":[],"kind":"neighborhood","boundaryStatus":"statistical","parentId":"es-as-concejo-33024","population":null,"areaKm2":3.5,"density":null,"referenceYear":2024,"sourceId":"sadei-neighborhoods","bbox":[-5.70469,43.54432,-5.67452,43.58669],"center":[-5.689605,43.565505]},"geometry":{"type":"MultiPolygon","coordinates":[[[[-5.67512,43.58586],[-5.67555,43.58575],[-5.6758,43.58622],[-5.67753,43.58455],[-5.67555,43.58024],[-5.67489,43.58024],[-5.67452,43.57965],[-5.67572,43.57939],[-5.67714,43.58242],[-5.6842,43.58069],[-5.6847,43.57974],[-5.68531,43.57998],[-5.68574,43.57987],[-5.68631,43.58015],[-5.69298,43.57843],[-5.69188,43.57632],[-5.69164,43.57641],[-5.69171,43.57658],[-5.69148,43.57664],[-5.69097,43.57553],[-5.6912,43.57549],[-5.69127,43.57563],[-5.69156,43.57562],[-5.69022,43.57268],[-5.68996,43.57283],[-5.69004,43.57304],[-5.68979,43.5731],[-5.68929,43.572],[-5.68951,43.57192],[-5.68962,43.57213],[-5.68985,43.57206],[-5.68905,43.57026],[-5.68731,43.56937],[-5.68288,43.57055],[-5.68269,43.57047],[-5.68233,43.56967],[-5.68213,43.56963],[-5.67676,43.57109],[-5.67631,43.57115],[-5.67589,43.57095],[-5.67591,43.57066],[-5.67646,43.57048],[-5.67651,43.57057],[-5.67681,43.57048],[-5.67691,43.57066],[-5.68214,43.5693],[-5.68017,43.56518],[-5.68031,43.56506],[-5.68056,43.56504],[-5.68105,43.56606],[-5.68135,43.56596],[-5.68129,43.56583],[-5.6815,43.56576],[-5.68201,43.56682],[-5.6818,43.56687],[-5.68172,43.56668],[-5.68138,43.56677],[-5.68193,43.56802],[-5.69244,43.56527],[-5.69249,43.56512],[-5.69261,43.56513],[-5.69257,43.56523],[-5.69264,43.56524],[-5.69301,43.56513],[-5.69302,43.56504],[-5.69113,43.56252],[-5.69103,43.56231],[-5.69103,43.56221],[-5.69112,43.56211],[-5.69156,43.56183],[-5.69159,43.56173],[-5.69131,43.56137],[-5.69127,43.56117],[-5.69135,43.56107],[-5.69162,43.56108],[-5.69208,43.56167],[-5.69237,43.56159],[-5.69614,43.56681],[-5.70089,43.5682],[-5.70126,43.56615],[-5.69993,43.56603],[-5.70022,43.56464],[-5.70016,43.56456],[-5.69777,43.5655],[-5.69706,43.56456],[-5.70096,43.56303],[-5.70098,43.56272],[-5.69969,43.56094],[-5.6964,43.56223],[-5.69589,43.56153],[-5.69781,43.56076],[-5.69941,43.55963],[-5.69921,43.55948],[-5.69949,43.55931],[-5.69948,43.55912],[-5.69907,43.55859],[-5.69708,43.5594],[-5.69697,43.55926],[-5.69896,43.55852],[-5.69862,43.55809],[-5.69659,43.55765],[-5.69655,43.55773],[-5.69631,43.55785],[-5.69645,43.55822],[-5.69639,43.55831],[-5.69613,43.5583],[-5.69533,43.5573],[-5.69307,43.55572],[-5.6929,43.55556],[-5.69285,43.55533],[-5.69271,43.55523],[-5.69278,43.55519],[-5.69286,43.55525],[-5.69315,43.55504],[-5.6949,43.55634],[-5.69573,43.55604],[-5.69673,43.55736],[-5.69666,43.55749],[-5.69845,43.55787],[-5.69639,43.55509],[-5.69673,43.55428],[-5.69681,43.55428],[-5.69752,43.55262],[-5.69582,43.55035],[-5.69556,43.55012],[-5.69515,43.55018],[-5.69433,43.55101],[-5.69398,43.55103],[-5.69193,43.55324],[-5.69204,43.55331],[-5.6878,43.55749],[-5.68617,43.55609],[-5.68613,43.55612],[-5.68592,43.55598],[-5.68584,43.55604],[-5.68601,43.55625],[-5.68471,43.55753],[-5.68675,43.55989],[-5.68664,43.55994],[-5.68649,43.55976],[-5.68615,43.55993],[-5.68605,43.56013],[-5.68638,43.56049],[-5.68624,43.56056],[-5.68615,43.56044],[-5.68607,43.56045],[-5.68586,43.5603],[-5.68575,43.56011],[-5.68439,43.56071],[-5.68041,43.55615],[-5.68614,43.5504],[-5.6871,43.54951],[-5.6873,43.54959],[-5.68725,43.54968],[-5.68642,43.55042],[-5.6864,43.5506],[-5.68675,43.55077],[-5.68676,43.55084],[-5.6865,43.55089],[-5.68651,43.55093],[-5.68677,43.5509],[-5.68679,43.55099],[-5.68667,43.55109],[-5.68701,43.55127],[-5.68694,43.55135],[-5.6885,43.55218],[-5.68929,43.5514],[-5.68924,43.55123],[-5.69027,43.55019],[-5.68934,43.54969],[-5.68825,43.55018],[-5.6881,43.55031],[-5.68787,43.55024],[-5.6879,43.5501],[-5.68936,43.54947],[-5.69044,43.55002],[-5.69299,43.54734],[-5.69386,43.54682],[-5.69446,43.54621],[-5.6952,43.54578],[-5.6966,43.54432],[-5.69847,43.54647],[-5.69936,43.54766],[-5.69937,43.54803],[-5.69895,43.54997],[-5.69907,43.55053],[-5.70021,43.55156],[-5.70132,43.55289],[-5.70171,43.55361],[-5.70155,43.55489],[-5.70154,43.55568],[-5.70199,43.55622],[-5.70237,43.55609],[-5.7029,43.5563],[-5.70463,43.55803],[-5.70469,43.55882],[-5.70429,43.55913],[-5.70289,43.56104],[-5.70259,43.5622],[-5.70292,43.56263],[-5.7041,43.56355],[-5.70432,43.56398],[-5.704,43.56432],[-5.70413,43.56485],[-5.70367,43.56546],[-5.70342,43.56602],[-5.70335,43.56714],[-5.70274,43.56777],[-5.70281,43.56831],[-5.70123,43.56908],[-5.69947,43.5704],[-5.69832,43.57178],[-5.69829,43.57174],[-5.69764,43.57211],[-5.69743,43.57199],[-5.69637,43.57244],[-5.69616,43.57257],[-5.69602,43.57275],[-5.69602,43.57308],[-5.69632,43.57461],[-5.69645,43.57483],[-5.69719,43.57822],[-5.69725,43.57951],[-5.69697,43.58007],[-5.69592,43.58137],[-5.69472,43.58196],[-5.69423,43.58204],[-5.69431,43.58227],[-5.69354,43.58245],[-5.69337,43.58228],[-5.67559,43.58669],[-5.67512,43.58586]]]]}},{"type":"Feature","id":"es-as-neighborhood-24b20","properties":{"id":"es-as-neighborhood-24b20","slug":"gijon-xixon-el-poligono","name":"El Polígono","localName":"El Polígono","aliases":[],"kind":"neighborhood","boundaryStatus":"statistical","parentId":"es-as-concejo-33024","population":null,"areaKm2":0.6,"density":null,"referenceYear":2024,"sourceId":"sadei-neighborhoods","bbox":[-5.68192,43.52828,-5.67062,43.53974],"center":[-5.676270000000001,43.53401]},"geometry":{"type":"MultiPolygon","coordinates":[[[[-5.68192,43.53272],[-5.68139,43.53318],[-5.68012,43.53453],[-5.67915,43.53543],[-5.67349,43.53935],[-5.67256,43.53974],[-5.67198,43.53867],[-5.67386,43.53737],[-5.67062,43.53369],[-5.67164,43.53228],[-5.67146,43.5321],[-5.67599,43.52828],[-5.67771,43.52937],[-5.68092,43.53192],[-5.68192,43.53272]]]]}},{"type":"Feature","id":"es-as-neighborhood-24b14","properties":{"id":"es-as-neighborhood-24b14","slug":"gijon-xixon-moreda","name":"Moreda","localName":"Moreda","aliases":[],"kind":"neighborhood","boundaryStatus":"statistical","parentId":"es-as-concejo-33024","population":null,"areaKm2":0.4,"density":null,"referenceYear":2024,"sourceId":"sadei-neighborhoods","bbox":[-5.68965,43.53272,-5.67538,43.53932],"center":[-5.682515,43.53601999999999]},"geometry":{"type":"MultiPolygon","coordinates":[[[[-5.67538,43.53806],[-5.67915,43.53543],[-5.68012,43.53453],[-5.68139,43.53318],[-5.68192,43.53272],[-5.68306,43.53362],[-5.68453,43.53438],[-5.68795,43.53545],[-5.68914,43.53593],[-5.68965,43.53623],[-5.68779,43.53662],[-5.6857,43.53716],[-5.67826,43.53932],[-5.67809,43.53924],[-5.67779,43.53925],[-5.67739,43.53882],[-5.67539,43.53806],[-5.67538,43.53806]]]]}},{"type":"Feature","id":"es-as-neighborhood-24b08","properties":{"id":"es-as-neighborhood-24b08","slug":"gijon-xixon-el-coto","name":"El Coto","localName":"El Coto","aliases":[],"kind":"neighborhood","boundaryStatus":"statistical","parentId":"es-as-concejo-33024","population":null,"areaKm2":0.4,"density":null,"referenceYear":2024,"sourceId":"sadei-neighborhoods","bbox":[-5.65475,43.52787,-5.64441,43.53552],"center":[-5.64958,43.531695]},"geometry":{"type":"MultiPolygon","coordinates":[[[[-5.6466,43.53526],[-5.64618,43.53454],[-5.64592,43.53394],[-5.64584,43.53345],[-5.6458,43.53216],[-5.64472,43.53089],[-5.64448,43.53055],[-5.64441,43.53027],[-5.64704,43.5304],[-5.64715,43.52933],[-5.64734,43.52938],[-5.64798,43.52787],[-5.64969,43.52947],[-5.64986,43.52982],[-5.64986,43.5301],[-5.65108,43.52984],[-5.65188,43.52918],[-5.65244,43.52882],[-5.65286,43.52921],[-5.65272,43.52931],[-5.65263,43.53046],[-5.65475,43.53054],[-5.65318,43.53552],[-5.6466,43.53526]]]]}},{"type":"Feature","id":"es-as-neighborhood-24b23","properties":{"id":"es-as-neighborhood-24b23","slug":"gijon-xixon-roces-urbano","name":"Roces Urbano","localName":"Roces Urbano","aliases":[],"kind":"neighborhood","boundaryStatus":"statistical","parentId":"es-as-concejo-33024","population":null,"areaKm2":1,"density":null,"referenceYear":2024,"sourceId":"sadei-neighborhoods","bbox":[-5.68727,43.51314,-5.66502,43.52275],"center":[-5.676145,43.517945]},"geometry":{"type":"MultiPolygon","coordinates":[[[[-5.67843,43.51318],[-5.68182,43.51323],[-5.6835,43.51345],[-5.68507,43.51386],[-5.68653,43.51444],[-5.6871,43.5156],[-5.68724,43.51607],[-5.68727,43.51663],[-5.68708,43.51723],[-5.68409,43.5214],[-5.68254,43.52275],[-5.67988,43.52103],[-5.67721,43.52013],[-5.67694,43.51994],[-5.67668,43.52001],[-5.6754,43.52063],[-5.6737,43.51958],[-5.67564,43.51854],[-5.67492,43.51779],[-5.6747,43.51711],[-5.67387,43.51693],[-5.67336,43.51672],[-5.67246,43.51654],[-5.67102,43.51647],[-5.66895,43.51677],[-5.66746,43.51651],[-5.66502,43.5165],[-5.66506,43.51634],[-5.66524,43.5162],[-5.66572,43.51609],[-5.66627,43.5158],[-5.66675,43.51578],[-5.66747,43.51532],[-5.66751,43.51525],[-5.6673,43.51486],[-5.67032,43.51447],[-5.67059,43.51429],[-5.67109,43.51374],[-5.67188,43.51314],[-5.67579,43.51316],[-5.67843,43.51318]]]]}},{"type":"Feature","id":"es-as-neighborhood-44b12","properties":{"id":"es-as-neighborhood-44b12","slug":"oviedo-uvieu-la-corredoria","name":"La Corredoria","localName":"La Corredoria","aliases":[],"kind":"neighborhood","boundaryStatus":"statistical","parentId":"es-as-concejo-33044","population":null,"areaKm2":1.9,"density":null,"referenceYear":2024,"sourceId":"sadei-neighborhoods","bbox":[-5.82957,43.37655,-5.809,43.39827],"center":[-5.819285000000001,43.38741]},"geometry":{"type":"MultiPolygon","coordinates":[[[[-5.809,43.3884],[-5.8096,43.38777],[-5.8103,43.3869],[-5.81205,43.38428],[-5.81334,43.38174],[-5.8142,43.3795],[-5.81499,43.37715],[-5.81532,43.37655],[-5.81896,43.37717],[-5.81995,43.37751],[-5.82054,43.37785],[-5.821,43.37822],[-5.8239,43.38103],[-5.82957,43.38395],[-5.82664,43.38928],[-5.82573,43.39106],[-5.82492,43.3924],[-5.82271,43.39639],[-5.82186,43.3975],[-5.82098,43.39827],[-5.82052,43.39748],[-5.82026,43.39664],[-5.82002,43.39545],[-5.82013,43.39465],[-5.82038,43.3939],[-5.82025,43.39362],[-5.81989,43.39336],[-5.81767,43.39365],[-5.81718,43.3935],[-5.81702,43.39306],[-5.81813,43.39189],[-5.81837,43.3912],[-5.81836,43.39068],[-5.81643,43.38971],[-5.81385,43.38854],[-5.81309,43.38849],[-5.81188,43.38891],[-5.81114,43.38893],[-5.80913,43.38847],[-5.809,43.3884]]]]}},{"type":"Feature","id":"es-as-neighborhood-44b26","properties":{"id":"es-as-neighborhood-44b26","slug":"oviedo-uvieu-teatinos","name":"Teatinos","localName":"Teatinos","aliases":[],"kind":"neighborhood","boundaryStatus":"statistical","parentId":"es-as-concejo-33044","population":null,"areaKm2":1.1,"density":null,"referenceYear":2024,"sourceId":"sadei-neighborhoods","bbox":[-5.83948,43.36746,-5.821,43.38103],"center":[-5.83024,43.374245]},"geometry":{"type":"MultiPolygon","coordinates":[[[[-5.821,43.37822],[-5.82238,43.37595],[-5.8242,43.37457],[-5.82449,43.37422],[-5.82475,43.37323],[-5.8242,43.3728],[-5.82397,43.37249],[-5.82553,43.3721],[-5.82725,43.3715],[-5.82862,43.37076],[-5.8316,43.36888],[-5.83303,43.36824],[-5.83396,43.36794],[-5.83637,43.36746],[-5.8366,43.36808],[-5.839,43.36867],[-5.83783,43.37024],[-5.83768,43.37053],[-5.83779,43.37109],[-5.83948,43.37156],[-5.83729,43.37276],[-5.83543,43.3752],[-5.83387,43.37678],[-5.83361,43.37673],[-5.83244,43.37621],[-5.83211,43.37594],[-5.83147,43.37646],[-5.83106,43.37721],[-5.83092,43.37733],[-5.82995,43.37779],[-5.82785,43.37913],[-5.82649,43.3798],[-5.82463,43.38083],[-5.82421,43.38099],[-5.8239,43.38103],[-5.82124,43.37844],[-5.821,43.37822]]]]}},{"type":"Feature","id":"es-as-neighborhood-44b11","properties":{"id":"es-as-neighborhood-44b11","slug":"oviedo-uvieu-colloto","name":"Colloto","localName":"Colloto","aliases":[],"kind":"neighborhood","boundaryStatus":"statistical","parentId":"es-as-concejo-33044","population":null,"areaKm2":2.3,"density":null,"referenceYear":2024,"sourceId":"sadei-neighborhoods","bbox":[-5.81532,43.36945,-5.78731,43.3884],"center":[-5.801315,43.378924999999995]},"geometry":{"type":"MultiPolygon","coordinates":[[[[-5.79897,43.3801],[-5.79772,43.38002],[-5.79648,43.38021],[-5.79388,43.3803],[-5.79066,43.37655],[-5.78731,43.37147],[-5.78754,43.37152],[-5.78821,43.37134],[-5.78903,43.37123],[-5.79029,43.37117],[-5.79252,43.37094],[-5.79454,43.37053],[-5.79691,43.36957],[-5.79921,43.36945],[-5.80014,43.37045],[-5.80291,43.37031],[-5.80536,43.36998],[-5.80839,43.37036],[-5.80841,43.37115],[-5.80865,43.37321],[-5.81002,43.37425],[-5.81054,43.37494],[-5.81068,43.37529],[-5.81072,43.3756],[-5.81038,43.37636],[-5.8105,43.37655],[-5.8105,43.37666],[-5.81044,43.37694],[-5.81031,43.37714],[-5.81135,43.37656],[-5.81315,43.37572],[-5.81414,43.37629],[-5.81532,43.37655],[-5.81499,43.37715],[-5.8142,43.3795],[-5.81334,43.38174],[-5.81205,43.38428],[-5.8103,43.3869],[-5.8096,43.38777],[-5.809,43.3884],[-5.80843,43.38809],[-5.80817,43.38752],[-5.80825,43.38682],[-5.80844,43.38617],[-5.8081,43.38563],[-5.80726,43.38533],[-5.80627,43.38533],[-5.80559,43.38512],[-5.8053,43.38477],[-5.80495,43.38353],[-5.80515,43.3832],[-5.80609,43.38251],[-5.80667,43.38217],[-5.80688,43.38179],[-5.80674,43.38136],[-5.80607,43.38095],[-5.80529,43.38067],[-5.80158,43.38048],[-5.79897,43.3801]]]]}},{"type":"Feature","id":"es-as-neighborhood-44b09","properties":{"id":"es-as-neighborhood-44b09","slug":"oviedo-uvieu-cerdeno","name":"Cerdeño","localName":"Cerdeño","aliases":[],"kind":"neighborhood","boundaryStatus":"statistical","parentId":"es-as-concejo-33044","population":null,"areaKm2":2,"density":null,"referenceYear":2024,"sourceId":"sadei-neighborhoods","bbox":[-5.82596,43.35582,-5.8076,43.37714],"center":[-5.81678,43.366479999999996]},"geometry":{"type":"MultiPolygon","coordinates":[[[[-5.81062,43.37591],[-5.81072,43.37552],[-5.81054,43.37494],[-5.80994,43.37417],[-5.80865,43.37321],[-5.80841,43.37115],[-5.80839,43.37036],[-5.81072,43.37037],[-5.81051,43.36928],[-5.81073,43.36827],[-5.81108,43.36773],[-5.81152,43.3674],[-5.81204,43.36667],[-5.81113,43.36653],[-5.81035,43.36624],[-5.80974,43.36584],[-5.80797,43.36349],[-5.8076,43.36152],[-5.81074,43.36074],[-5.8142,43.35849],[-5.81294,43.35694],[-5.81485,43.35582],[-5.82158,43.35652],[-5.82324,43.35749],[-5.82506,43.35923],[-5.82596,43.3596],[-5.82539,43.35995],[-5.8246,43.36032],[-5.82214,43.36127],[-5.8218,43.36313],[-5.82107,43.36355],[-5.82141,43.3648],[-5.82161,43.36508],[-5.82167,43.3654],[-5.82192,43.36587],[-5.82212,43.36644],[-5.82202,43.36684],[-5.82213,43.36713],[-5.82235,43.36715],[-5.82269,43.36747],[-5.82274,43.36803],[-5.82289,43.36853],[-5.81962,43.36914],[-5.8192,43.36927],[-5.81916,43.36978],[-5.81924,43.37014],[-5.81946,43.37084],[-5.81994,43.37179],[-5.82039,43.37314],[-5.81861,43.37384],[-5.81772,43.37428],[-5.81704,43.37471],[-5.81599,43.37563],[-5.81532,43.37655],[-5.81414,43.37629],[-5.81315,43.37572],[-5.81135,43.37656],[-5.81031,43.37714],[-5.81044,43.37694],[-5.8105,43.37666],[-5.8105,43.37655],[-5.81038,43.37636],[-5.81057,43.37603],[-5.81062,43.37591]]]]}},{"type":"Feature","id":"es-as-neighborhood-44b19","properties":{"id":"es-as-neighborhood-44b19","slug":"oviedo-uvieu-olivares","name":"Olivares","localName":"Olivares","aliases":[],"kind":"neighborhood","boundaryStatus":"statistical","parentId":"es-as-concejo-33044","population":null,"areaKm2":1.9,"density":null,"referenceYear":2024,"sourceId":"sadei-neighborhoods","bbox":[-5.8925,43.34757,-5.86725,43.36597],"center":[-5.879875,43.35677]},"geometry":{"type":"MultiPolygon","coordinates":[[[[-5.86897,43.36464],[-5.86933,43.36434],[-5.87049,43.36373],[-5.8708,43.36348],[-5.87097,43.36324],[-5.87162,43.36185],[-5.87226,43.36115],[-5.8721,43.36104],[-5.87123,43.35975],[-5.87106,43.3596],[-5.87085,43.35959],[-5.86733,43.36017],[-5.86725,43.35993],[-5.86742,43.35978],[-5.86748,43.35954],[-5.86733,43.35906],[-5.86866,43.3591],[-5.86939,43.35879],[-5.8704,43.35863],[-5.87169,43.358],[-5.87252,43.358],[-5.87424,43.35744],[-5.87398,43.35701],[-5.87398,43.35684],[-5.87489,43.35645],[-5.87548,43.35641],[-5.87644,43.35653],[-5.87687,43.35646],[-5.87717,43.35626],[-5.87734,43.35591],[-5.87716,43.35511],[-5.87662,43.35403],[-5.87666,43.35369],[-5.87695,43.35338],[-5.87749,43.35317],[-5.8801,43.35296],[-5.88044,43.35279],[-5.88066,43.35259],[-5.88116,43.35174],[-5.88157,43.35141],[-5.88284,43.35073],[-5.8845,43.35032],[-5.88658,43.34959],[-5.88686,43.34938],[-5.88759,43.34848],[-5.88841,43.34807],[-5.88957,43.34763],[-5.89001,43.34757],[-5.89042,43.34758],[-5.89121,43.34774],[-5.89085,43.34878],[-5.89097,43.34927],[-5.89077,43.34962],[-5.89068,43.34998],[-5.89056,43.35013],[-5.89049,43.35056],[-5.89192,43.35092],[-5.89221,43.35109],[-5.8925,43.35161],[-5.89246,43.35231],[-5.89235,43.35281],[-5.89187,43.35416],[-5.89134,43.35476],[-5.8896,43.35616],[-5.88816,43.35743],[-5.88742,43.35852],[-5.88733,43.35915],[-5.88772,43.35964],[-5.88906,43.35983],[-5.88951,43.36013],[-5.88815,43.36073],[-5.88398,43.36356],[-5.88367,43.36373],[-5.88287,43.36399],[-5.8819,43.36413],[-5.87795,43.36422],[-5.87647,43.36436],[-5.87529,43.36458],[-5.86968,43.36597],[-5.86929,43.36567],[-5.86911,43.36564],[-5.869,43.36544],[-5.86923,43.36523],[-5.86981,43.36503],[-5.86905,43.36467],[-5.86897,43.36464]]]]}},{"type":"Feature","id":"es-as-neighborhood-44b06","properties":{"id":"es-as-neighborhood-44b06","slug":"oviedo-uvieu-centro-norte","name":"Centro Norte","localName":"Centro Norte","aliases":[],"kind":"neighborhood","boundaryStatus":"statistical","parentId":"es-as-concejo-33044","population":null,"areaKm2":0.4,"density":null,"referenceYear":2024,"sourceId":"sadei-neighborhoods","bbox":[-5.85442,43.36223,-5.83898,43.36747],"center":[-5.8467,43.36485]},"geometry":{"type":"MultiPolygon","coordinates":[[[[-5.84175,43.36592],[-5.84031,43.36554],[-5.83898,43.36392],[-5.83948,43.36399],[-5.84086,43.36356],[-5.84128,43.36353],[-5.84257,43.36363],[-5.8433,43.36376],[-5.84409,43.36372],[-5.84563,43.3632],[-5.8473,43.36283],[-5.84863,43.36223],[-5.85442,43.36606],[-5.85251,43.36747],[-5.8523,43.36742],[-5.85059,43.36738],[-5.84198,43.36592],[-5.84175,43.36592]]]]}},{"type":"Feature","id":"es-as-neighborhood-44b27","properties":{"id":"es-as-neighborhood-44b27","slug":"oviedo-uvieu-tenderina-fozaneldi","name":"Tenderina - Fozaneldi","localName":"Tenderina - Fozaneldi","aliases":[],"kind":"neighborhood","boundaryStatus":"statistical","parentId":"es-as-concejo-33044","population":null,"areaKm2":1.3,"density":null,"referenceYear":2024,"sourceId":"sadei-neighborhoods","bbox":[-5.84175,43.35533,-5.82107,43.36853],"center":[-5.83141,43.36193]},"geometry":{"type":"MultiPolygon","coordinates":[[[[-5.82107,43.36355],[-5.8218,43.36313],[-5.82214,43.36127],[-5.8246,43.36032],[-5.82539,43.35995],[-5.82647,43.35923],[-5.82726,43.35846],[-5.82785,43.35864],[-5.82846,43.35738],[-5.83086,43.35724],[-5.83116,43.35533],[-5.83178,43.35577],[-5.83219,43.35615],[-5.83255,43.35658],[-5.83331,43.35773],[-5.83399,43.35827],[-5.83465,43.35856],[-5.83832,43.35956],[-5.8387,43.36102],[-5.83873,43.36271],[-5.83898,43.36392],[-5.84031,43.36554],[-5.84175,43.36592],[-5.84141,43.36613],[-5.84013,43.36664],[-5.8386,43.36713],[-5.83457,43.36779],[-5.83339,43.36615],[-5.83327,43.36607],[-5.83327,43.36582],[-5.83375,43.36511],[-5.83258,43.36537],[-5.82289,43.36853],[-5.82274,43.36803],[-5.82269,43.36747],[-5.82235,43.36715],[-5.82213,43.36713],[-5.82202,43.36684],[-5.82212,43.36644],[-5.82192,43.36587],[-5.82167,43.3654],[-5.82161,43.36508],[-5.82141,43.3648],[-5.82107,43.36355]]]]}},{"type":"Feature","id":"es-as-neighborhood-44b08","properties":{"id":"es-as-neighborhood-44b08","slug":"oviedo-uvieu-centro-sur","name":"Centro Sur","localName":"Centro Sur","aliases":[],"kind":"neighborhood","boundaryStatus":"statistical","parentId":"es-as-concejo-33044","population":null,"areaKm2":0.3,"density":null,"referenceYear":2024,"sourceId":"sadei-neighborhoods","bbox":[-5.85461,43.35449,-5.84373,43.36178],"center":[-5.84917,43.358135000000004]},"geometry":{"type":"MultiPolygon","coordinates":[[[[-5.84781,43.36168],[-5.84617,43.3606],[-5.84624,43.3605],[-5.84724,43.35997],[-5.84774,43.35962],[-5.84634,43.35831],[-5.84482,43.35901],[-5.84465,43.35886],[-5.84481,43.35889],[-5.84486,43.35881],[-5.84377,43.35754],[-5.84373,43.35739],[-5.84377,43.35724],[-5.84466,43.35526],[-5.84461,43.35449],[-5.84527,43.35454],[-5.84597,43.35468],[-5.85071,43.3559],[-5.85371,43.3563],[-5.85404,43.35629],[-5.85436,43.35635],[-5.85461,43.35649],[-5.85112,43.35905],[-5.85035,43.35954],[-5.84799,43.36178],[-5.84781,43.36168]]]]}},{"type":"Feature","id":"es-as-neighborhood-44b07","properties":{"id":"es-as-neighborhood-44b07","slug":"oviedo-uvieu-centro-oeste","name":"Centro Oeste","localName":"Centro Oeste","aliases":[],"kind":"neighborhood","boundaryStatus":"statistical","parentId":"es-as-concejo-33044","population":null,"areaKm2":0.6,"density":null,"referenceYear":2024,"sourceId":"sadei-neighborhoods","bbox":[-5.8594,43.35649,-5.84799,43.36606],"center":[-5.853695,43.361275]},"geometry":{"type":"MultiPolygon","coordinates":[[[[-5.84863,43.36223],[-5.84799,43.36178],[-5.85035,43.35954],[-5.85112,43.35905],[-5.85461,43.35649],[-5.85503,43.35669],[-5.85526,43.35673],[-5.85676,43.35668],[-5.85914,43.3608],[-5.85938,43.36128],[-5.8594,43.36145],[-5.85933,43.36176],[-5.85853,43.36275],[-5.8584,43.36302],[-5.85817,43.36318],[-5.85702,43.36433],[-5.85593,43.36514],[-5.85442,43.36606],[-5.8487,43.36227],[-5.84863,43.36223]]]]}},{"type":"Feature","id":"es-as-neighborhood-44b14","properties":{"id":"es-as-neighborhood-44b14","slug":"oviedo-uvieu-la-eria","name":"La Ería","localName":"La Ería","aliases":[],"kind":"neighborhood","boundaryStatus":"statistical","parentId":"es-as-concejo-33044","population":null,"areaKm2":0.2,"density":null,"referenceYear":2024,"sourceId":"sadei-neighborhoods","bbox":[-5.87226,43.35959,-5.86537,43.36464],"center":[-5.868815,43.362115]},"geometry":{"type":"MultiPolygon","coordinates":[[[[-5.86733,43.36017],[-5.87085,43.35959],[-5.87106,43.3596],[-5.87123,43.35975],[-5.8721,43.36104],[-5.87226,43.36115],[-5.87162,43.36185],[-5.87097,43.36324],[-5.8708,43.36348],[-5.87049,43.36373],[-5.86933,43.36434],[-5.86897,43.36464],[-5.868,43.36408],[-5.86786,43.36406],[-5.8675,43.36423],[-5.86728,43.36425],[-5.86537,43.36347],[-5.86717,43.36121],[-5.86734,43.36077],[-5.86735,43.3603],[-5.86733,43.36017]]]]}},{"type":"Feature","id":"es-as-neighborhood-44b17","properties":{"id":"es-as-neighborhood-44b17","slug":"oviedo-uvieu-monte-cerrau","name":"Monte Cerráu","localName":"Monte Cerráu","aliases":[],"kind":"neighborhood","boundaryStatus":"statistical","parentId":"es-as-concejo-33044","population":null,"areaKm2":1.1,"density":null,"referenceYear":2024,"sourceId":"sadei-neighborhoods","bbox":[-5.87589,43.34186,-5.85617,43.35487],"center":[-5.86603,43.348365]},"geometry":{"type":"MultiPolygon","coordinates":[[[[-5.85618,43.35485],[-5.85625,43.35417],[-5.85617,43.35277],[-5.85621,43.35203],[-5.85641,43.35125],[-5.85692,43.35027],[-5.85767,43.34923],[-5.8587,43.34814],[-5.861,43.34633],[-5.86401,43.3441],[-5.86405,43.34337],[-5.86468,43.34252],[-5.86515,43.34218],[-5.86573,43.34196],[-5.86618,43.34187],[-5.86697,43.34186],[-5.86702,43.34314],[-5.86711,43.34375],[-5.86732,43.34431],[-5.86765,43.34476],[-5.8686,43.34578],[-5.86945,43.34644],[-5.87032,43.34692],[-5.87066,43.34704],[-5.87326,43.34689],[-5.87589,43.34651],[-5.87419,43.34711],[-5.87226,43.34745],[-5.87187,43.3503],[-5.87175,43.35076],[-5.87266,43.35138],[-5.87305,43.35221],[-5.87303,43.35228],[-5.87198,43.35241],[-5.87108,43.3527],[-5.8704,43.35272],[-5.86976,43.35296],[-5.86889,43.3534],[-5.86768,43.35371],[-5.86657,43.35386],[-5.86568,43.35425],[-5.86554,43.35408],[-5.86505,43.35377],[-5.86434,43.35354],[-5.86424,43.35345],[-5.86263,43.35428],[-5.86256,43.35419],[-5.86179,43.35382],[-5.86172,43.35388],[-5.86128,43.35388],[-5.85965,43.35417],[-5.85693,43.35487],[-5.85671,43.35486],[-5.85618,43.35485]]]]}},{"type":"Feature","id":"es-as-neighborhood-44b28","properties":{"id":"es-as-neighborhood-44b28","slug":"oviedo-uvieu-vallobin","name":"Vallobín","localName":"Vallobín","aliases":[],"kind":"neighborhood","boundaryStatus":"statistical","parentId":"es-as-concejo-33044","population":null,"areaKm2":0.5,"density":null,"referenceYear":2024,"sourceId":"sadei-neighborhoods","bbox":[-5.87214,43.36302,-5.85702,43.37209],"center":[-5.86458,43.367554999999996]},"geometry":{"type":"MultiPolygon","coordinates":[[[[-5.86254,43.37013],[-5.8624,43.36997],[-5.86234,43.36978],[-5.86089,43.36962],[-5.86067,43.3692],[-5.8615,43.3688],[-5.86166,43.36853],[-5.86159,43.36832],[-5.86061,43.36746],[-5.86062,43.36713],[-5.86122,43.36651],[-5.86125,43.36624],[-5.86118,43.36608],[-5.86046,43.36537],[-5.86038,43.36522],[-5.85891,43.36575],[-5.85863,43.3658],[-5.85852,43.36559],[-5.85811,43.36517],[-5.85702,43.36433],[-5.85817,43.36318],[-5.8584,43.36302],[-5.85851,43.36311],[-5.86023,43.36347],[-5.86169,43.3639],[-5.86302,43.36447],[-5.86397,43.36522],[-5.86489,43.36529],[-5.86627,43.36585],[-5.86709,43.36609],[-5.86786,43.36618],[-5.86891,43.36612],[-5.87149,43.36552],[-5.87214,43.36719],[-5.86868,43.36764],[-5.86869,43.36774],[-5.86849,43.36811],[-5.86819,43.36805],[-5.86793,43.36809],[-5.86764,43.36821],[-5.86735,43.36847],[-5.86732,43.36869],[-5.86738,43.36896],[-5.86775,43.36921],[-5.86827,43.36928],[-5.86852,43.36974],[-5.86866,43.36982],[-5.86861,43.37001],[-5.86822,43.37059],[-5.86723,43.37154],[-5.86762,43.37163],[-5.8686,43.37132],[-5.86881,43.37134],[-5.86895,43.37209],[-5.86756,43.37198],[-5.86593,43.3716],[-5.86506,43.37097],[-5.86523,43.37043],[-5.86508,43.36996],[-5.86431,43.36986],[-5.86317,43.36996],[-5.86254,43.37013]]]]}},{"type":"Feature","id":"es-as-neighborhood-44b13","properties":{"id":"es-as-neighborhood-44b13","slug":"oviedo-uvieu-el-cristo","name":"El Cristo","localName":"El Cristo","aliases":[],"kind":"neighborhood","boundaryStatus":"statistical","parentId":"es-as-concejo-33044","population":null,"areaKm2":0.5,"density":null,"referenceYear":2024,"sourceId":"sadei-neighborhoods","bbox":[-5.87556,43.35138,-5.85461,43.35762],"center":[-5.8650850000000005,43.3545]},"geometry":{"type":"MultiPolygon","coordinates":[[[[-5.85676,43.35668],[-5.85526,43.35673],[-5.85503,43.35669],[-5.85461,43.35649],[-5.85571,43.35568],[-5.85607,43.35517],[-5.85618,43.35485],[-5.85684,43.35489],[-5.85965,43.35417],[-5.86128,43.35388],[-5.86172,43.35388],[-5.86179,43.35382],[-5.86256,43.35419],[-5.86263,43.35428],[-5.86424,43.35345],[-5.86434,43.35354],[-5.86505,43.35377],[-5.86554,43.35408],[-5.86568,43.35425],[-5.86657,43.35386],[-5.86768,43.35371],[-5.86889,43.3534],[-5.86976,43.35296],[-5.8704,43.35272],[-5.87108,43.3527],[-5.87198,43.35241],[-5.87303,43.35228],[-5.87305,43.35221],[-5.87266,43.35138],[-5.87472,43.35172],[-5.87518,43.35207],[-5.87556,43.35288],[-5.8749,43.35379],[-5.87422,43.35454],[-5.87299,43.35502],[-5.87285,43.35514],[-5.87366,43.35636],[-5.87056,43.35733],[-5.86982,43.3567],[-5.86858,43.35711],[-5.86782,43.35721],[-5.86767,43.3573],[-5.86689,43.35736],[-5.86588,43.35762],[-5.86558,43.35713],[-5.86518,43.35694],[-5.86024,43.35622],[-5.85948,43.3562],[-5.85752,43.35654],[-5.85676,43.35668]]]]}},{"type":"Feature","id":"es-as-neighborhood-44b25","properties":{"id":"es-as-neighborhood-44b25","slug":"oviedo-uvieu-san-lazaro","name":"San Lázaro","localName":"San Lázaro","aliases":[],"kind":"neighborhood","boundaryStatus":"statistical","parentId":"es-as-concejo-33044","population":null,"areaKm2":0.6,"density":null,"referenceYear":2024,"sourceId":"sadei-neighborhoods","bbox":[-5.85655,43.34566,-5.83613,43.35449],"center":[-5.84634,43.350075000000004]},"geometry":{"type":"MultiPolygon","coordinates":[[[[-5.83694,43.35031],[-5.83716,43.34945],[-5.83758,43.3492],[-5.8376,43.34905],[-5.83714,43.34878],[-5.83613,43.34881],[-5.83613,43.34741],[-5.83734,43.3472],[-5.83839,43.34799],[-5.84094,43.34775],[-5.84285,43.34847],[-5.84357,43.3485],[-5.84416,43.3486],[-5.84433,43.34746],[-5.84398,43.34608],[-5.84443,43.34575],[-5.84514,43.34566],[-5.84539,43.34588],[-5.845,43.34613],[-5.84528,43.34652],[-5.84557,43.34668],[-5.84577,43.34712],[-5.8455,43.34717],[-5.84538,43.34731],[-5.84556,43.34746],[-5.84549,43.34884],[-5.84704,43.34901],[-5.84807,43.34895],[-5.84929,43.34872],[-5.85132,43.3481],[-5.85301,43.34789],[-5.85447,43.34795],[-5.85562,43.34822],[-5.85655,43.34828],[-5.85599,43.34888],[-5.85549,43.34925],[-5.85433,43.34985],[-5.85306,43.35023],[-5.8459,43.35209],[-5.84487,43.35247],[-5.84459,43.35262],[-5.84493,43.35299],[-5.8449,43.35316],[-5.84446,43.35321],[-5.84461,43.35449],[-5.8438,43.35446],[-5.84378,43.35425],[-5.84369,43.3541],[-5.8434,43.35381],[-5.84277,43.35337],[-5.83829,43.35158],[-5.83789,43.35134],[-5.83724,43.35064],[-5.83694,43.35031]]]]}},{"type":"Feature","id":"es-as-neighborhood-44b16","properties":{"id":"es-as-neighborhood-44b16","slug":"oviedo-uvieu-la-florida","name":"La Florida","localName":"La Florida","aliases":[],"kind":"neighborhood","boundaryStatus":"statistical","parentId":"es-as-concejo-33044","population":null,"areaKm2":0.6,"density":null,"referenceYear":2024,"sourceId":"sadei-neighborhoods","bbox":[-5.8819,43.36413,-5.86723,43.37214],"center":[-5.8745650000000005,43.368135]},"geometry":{"type":"MultiPolygon","coordinates":[[[[-5.87087,43.37164],[-5.8698,43.37157],[-5.86886,43.37161],[-5.86881,43.37134],[-5.8686,43.37132],[-5.86762,43.37163],[-5.86723,43.37154],[-5.86822,43.37059],[-5.86861,43.37001],[-5.86866,43.36982],[-5.86852,43.36974],[-5.86827,43.36928],[-5.86775,43.36921],[-5.86738,43.36896],[-5.86732,43.3686],[-5.8674,43.3684],[-5.86764,43.36821],[-5.86793,43.36809],[-5.86819,43.36805],[-5.86849,43.36811],[-5.86869,43.36774],[-5.86868,43.36764],[-5.87214,43.36719],[-5.87149,43.36552],[-5.87529,43.36458],[-5.87647,43.36436],[-5.87795,43.36422],[-5.8819,43.36413],[-5.88178,43.36465],[-5.88117,43.3654],[-5.88092,43.36585],[-5.88093,43.36618],[-5.88141,43.36813],[-5.88145,43.36861],[-5.88122,43.36927],[-5.8808,43.36975],[-5.88015,43.37017],[-5.87963,43.3706],[-5.8762,43.37014],[-5.87542,43.36995],[-5.87454,43.36996],[-5.87427,43.37099],[-5.87305,43.37082],[-5.87206,43.37103],[-5.87167,43.37136],[-5.87194,43.37214],[-5.87087,43.37164]]]]}},{"type":"Feature","id":"es-as-neighborhood-44b29","properties":{"id":"es-as-neighborhood-44b29","slug":"oviedo-uvieu-ventanielles","name":"Ventanielles","localName":"Ventanielles","aliases":[],"kind":"neighborhood","boundaryStatus":"statistical","parentId":"es-as-concejo-33044","population":null,"areaKm2":0.4,"density":null,"referenceYear":2024,"sourceId":"sadei-neighborhoods","bbox":[-5.83457,43.36511,-5.81917,43.37179],"center":[-5.8268699999999995,43.368449999999996]},"geometry":{"type":"MultiPolygon","coordinates":[[[[-5.81946,43.37084],[-5.81917,43.36991],[-5.8192,43.36927],[-5.81962,43.36914],[-5.82301,43.3685],[-5.83258,43.36537],[-5.83375,43.36511],[-5.83327,43.36582],[-5.83327,43.36607],[-5.83339,43.36615],[-5.83457,43.36779],[-5.83303,43.36824],[-5.8316,43.36888],[-5.82817,43.37103],[-5.82543,43.3704],[-5.82432,43.37031],[-5.8233,43.37036],[-5.82163,43.3709],[-5.81994,43.37179],[-5.81946,43.37084]]]]}},{"type":"Feature","id":"es-as-neighborhood-44b20","properties":{"id":"es-as-neighborhood-44b20","slug":"oviedo-uvieu-otero","name":"Otero","localName":"Otero","aliases":[],"kind":"neighborhood","boundaryStatus":"statistical","parentId":"es-as-concejo-33044","population":null,"areaKm2":0.6,"density":null,"referenceYear":2024,"sourceId":"sadei-neighborhoods","bbox":[-5.8438,43.35064,-5.82905,43.35956],"center":[-5.836425,43.3551]},"geometry":{"type":"MultiPolygon","coordinates":[[[[-5.83116,43.35533],[-5.83133,43.35451],[-5.82905,43.35397],[-5.82953,43.35338],[-5.83003,43.35293],[-5.83087,43.35237],[-5.83197,43.35189],[-5.8331,43.3516],[-5.83617,43.35108],[-5.83724,43.35064],[-5.83789,43.35134],[-5.83829,43.35158],[-5.84277,43.35337],[-5.8434,43.35381],[-5.84369,43.3541],[-5.84378,43.35425],[-5.8438,43.35446],[-5.8424,43.35453],[-5.84187,43.35462],[-5.84115,43.35488],[-5.8405,43.35527],[-5.83877,43.35708],[-5.83842,43.35752],[-5.83823,43.35798],[-5.83815,43.35844],[-5.83819,43.35902],[-5.83832,43.35956],[-5.83465,43.35856],[-5.83399,43.35827],[-5.83331,43.35773],[-5.83255,43.35658],[-5.83219,43.35615],[-5.83129,43.35541],[-5.83116,43.35533]]]]}},{"type":"Feature","id":"es-as-neighborhood-44b22","properties":{"id":"es-as-neighborhood-44b22","slug":"oviedo-uvieu-parque-de-invierno","name":"Parque De Invierno","localName":"Parque De Invierno","aliases":[],"kind":"neighborhood","boundaryStatus":"statistical","parentId":"es-as-concejo-33044","population":null,"areaKm2":0.5,"density":null,"referenceYear":2024,"sourceId":"sadei-neighborhoods","bbox":[-5.8587,43.34814,-5.84446,43.35649],"center":[-5.85158,43.352315000000004]},"geometry":{"type":"MultiPolygon","coordinates":[[[[-5.85371,43.3563],[-5.85071,43.3559],[-5.84597,43.35468],[-5.84527,43.35454],[-5.84461,43.35449],[-5.84446,43.35321],[-5.8449,43.35316],[-5.84493,43.35299],[-5.84459,43.35262],[-5.84513,43.35234],[-5.8459,43.35209],[-5.85306,43.35023],[-5.85433,43.34985],[-5.85549,43.34925],[-5.85599,43.34888],[-5.85655,43.34828],[-5.85766,43.34826],[-5.8587,43.34814],[-5.85767,43.34923],[-5.85692,43.35027],[-5.85641,43.35125],[-5.85617,43.35238],[-5.85625,43.35417],[-5.85618,43.35485],[-5.85607,43.35517],[-5.85571,43.35568],[-5.85461,43.35649],[-5.85428,43.35633],[-5.85383,43.3563],[-5.85371,43.3563]]]]}},{"type":"Feature","id":"es-as-neighborhood-44b01","properties":{"id":"es-as-neighborhood-44b01","slug":"oviedo-uvieu-antiguo","name":"Antiguo","localName":"Antiguo","aliases":[],"kind":"neighborhood","boundaryStatus":"statistical","parentId":"es-as-concejo-33044","population":null,"areaKm2":0.2,"density":null,"referenceYear":2024,"sourceId":"sadei-neighborhoods","bbox":[-5.84863,43.35831,-5.84128,43.36377],"center":[-5.844955000000001,43.36104]},"geometry":{"type":"MultiPolygon","coordinates":[[[[-5.8433,43.36376],[-5.84194,43.36357],[-5.84134,43.36255],[-5.84128,43.36225],[-5.84157,43.36123],[-5.84172,43.36096],[-5.84262,43.36043],[-5.84266,43.35921],[-5.8448,43.35922],[-5.84489,43.35914],[-5.84482,43.35901],[-5.84634,43.35831],[-5.84774,43.35962],[-5.84724,43.35997],[-5.84624,43.3605],[-5.84617,43.3606],[-5.84863,43.36223],[-5.8473,43.36283],[-5.84563,43.3632],[-5.84409,43.36372],[-5.84348,43.36377],[-5.8433,43.36376]]]]}},{"type":"Feature","id":"es-as-neighborhood-44b03","properties":{"id":"es-as-neighborhood-44b03","slug":"oviedo-uvieu-buenavista","name":"Buenavista","localName":"Buenavista","aliases":[],"kind":"neighborhood","boundaryStatus":"statistical","parentId":"es-as-concejo-33044","population":null,"areaKm2":1.1,"density":null,"referenceYear":2024,"sourceId":"sadei-neighborhoods","bbox":[-5.88841,43.346,-5.85676,43.3608],"center":[-5.872585000000001,43.35339999999999]},"geometry":{"type":"MultiPolygon","coordinates":[[[[-5.85676,43.35668],[-5.85874,43.35629],[-5.85961,43.35619],[-5.86008,43.3562],[-5.86518,43.35694],[-5.86558,43.35713],[-5.86588,43.35762],[-5.86689,43.35736],[-5.86767,43.3573],[-5.86782,43.35721],[-5.86858,43.35711],[-5.86982,43.3567],[-5.87056,43.35733],[-5.87366,43.35636],[-5.87285,43.35514],[-5.87299,43.35502],[-5.87422,43.35454],[-5.8749,43.35379],[-5.87556,43.35288],[-5.87518,43.35207],[-5.87472,43.35172],[-5.87266,43.35138],[-5.87175,43.35076],[-5.87187,43.3503],[-5.87226,43.34745],[-5.87419,43.34711],[-5.87589,43.34651],[-5.87628,43.34644],[-5.87622,43.34608],[-5.87696,43.346],[-5.8773,43.34604],[-5.87759,43.34625],[-5.87781,43.34632],[-5.87861,43.34649],[-5.87943,43.34651],[-5.87988,43.34659],[-5.88041,43.34654],[-5.88028,43.34762],[-5.88185,43.34882],[-5.88841,43.34807],[-5.88759,43.34848],[-5.88686,43.34938],[-5.88658,43.34959],[-5.8845,43.35032],[-5.88284,43.35073],[-5.88157,43.35141],[-5.8812,43.35169],[-5.88066,43.35259],[-5.88029,43.35288],[-5.87981,43.35302],[-5.87749,43.35317],[-5.87695,43.35338],[-5.8767,43.35363],[-5.8766,43.35388],[-5.87668,43.35423],[-5.8771,43.35496],[-5.87732,43.35567],[-5.87731,43.35604],[-5.87702,43.35638],[-5.87674,43.3565],[-5.87644,43.35653],[-5.87548,43.35641],[-5.87489,43.35645],[-5.87398,43.35684],[-5.87398,43.35701],[-5.87424,43.35744],[-5.87252,43.358],[-5.87169,43.358],[-5.8704,43.35863],[-5.86939,43.35879],[-5.86866,43.3591],[-5.86733,43.35906],[-5.86747,43.35965],[-5.86742,43.35978],[-5.86725,43.35993],[-5.86677,43.35908],[-5.86252,43.36037],[-5.85914,43.3608],[-5.85688,43.35691],[-5.85676,43.35668]]]]}},{"type":"Feature","id":"es-as-neighborhood-44b23","properties":{"id":"es-as-neighborhood-44b23","slug":"oviedo-uvieu-ponton-de-vaqueros","name":"Pontón De Vaqueros","localName":"Pontón De Vaqueros","aliases":[],"kind":"neighborhood","boundaryStatus":"statistical","parentId":"es-as-concejo-33044","population":null,"areaKm2":0.4,"density":null,"referenceYear":2024,"sourceId":"sadei-neighborhoods","bbox":[-5.84049,43.37594,-5.8239,43.38395],"center":[-5.8321950000000005,43.379945]},"geometry":{"type":"MultiPolygon","coordinates":[[[[-5.8239,43.38103],[-5.82438,43.38095],[-5.82463,43.38083],[-5.82649,43.3798],[-5.82785,43.37913],[-5.82995,43.37779],[-5.83092,43.37733],[-5.83106,43.37721],[-5.83147,43.37646],[-5.83211,43.37594],[-5.83244,43.37621],[-5.83361,43.37673],[-5.83387,43.37678],[-5.83443,43.37621],[-5.83676,43.37745],[-5.83772,43.37777],[-5.83962,43.37812],[-5.84049,43.37809],[-5.83958,43.37856],[-5.83847,43.37903],[-5.83709,43.37944],[-5.83443,43.38003],[-5.83313,43.38045],[-5.83254,43.38074],[-5.83161,43.3813],[-5.83089,43.38195],[-5.83018,43.38293],[-5.82957,43.38395],[-5.82415,43.38117],[-5.8239,43.38103]]]]}},{"type":"Feature","id":"es-as-neighborhood-44b18","properties":{"id":"es-as-neighborhood-44b18","slug":"oviedo-uvieu-monxina-lafuerza","name":"Monxina - Lafuerza","localName":"Monxina - Lafuerza","aliases":[],"kind":"neighborhood","boundaryStatus":"statistical","parentId":"es-as-concejo-33044","population":null,"areaKm2":0.4,"density":null,"referenceYear":2024,"sourceId":"sadei-neighborhoods","bbox":[-5.82817,43.37031,-5.81532,43.37822],"center":[-5.821745,43.374265]},"geometry":{"type":"MultiPolygon","coordinates":[[[[-5.81532,43.37655],[-5.81599,43.37563],[-5.81704,43.37471],[-5.81772,43.37428],[-5.81861,43.37384],[-5.82039,43.37314],[-5.81994,43.37179],[-5.82163,43.3709],[-5.8233,43.37036],[-5.82432,43.37031],[-5.82593,43.37049],[-5.82817,43.37103],[-5.82667,43.37173],[-5.82553,43.3721],[-5.82397,43.37249],[-5.8242,43.3728],[-5.82475,43.37323],[-5.82449,43.37422],[-5.8242,43.37457],[-5.82238,43.37595],[-5.821,43.37822],[-5.82054,43.37785],[-5.81995,43.37751],[-5.81937,43.37729],[-5.81896,43.37717],[-5.81688,43.37681],[-5.81532,43.37655]]]]}},{"type":"Feature","id":"es-as-neighborhood-44b05","properties":{"id":"es-as-neighborhood-44b05","slug":"oviedo-uvieu-centro-este","name":"Centro Este","localName":"Centro Este","aliases":[],"kind":"neighborhood","boundaryStatus":"statistical","parentId":"es-as-concejo-33044","population":null,"areaKm2":0.3,"density":null,"referenceYear":2024,"sourceId":"sadei-neighborhoods","bbox":[-5.84489,43.35446,-5.83815,43.36399],"center":[-5.84152,43.359225]},"geometry":{"type":"MultiPolygon","coordinates":[[[[-5.83897,43.36386],[-5.83873,43.36271],[-5.8387,43.36102],[-5.83823,43.35924],[-5.83815,43.35871],[-5.83819,43.35813],[-5.83842,43.35752],[-5.83877,43.35708],[-5.8405,43.35527],[-5.84115,43.35488],[-5.8422,43.35455],[-5.8438,43.35446],[-5.84461,43.35449],[-5.84466,43.35526],[-5.84373,43.35739],[-5.84382,43.35763],[-5.84486,43.35881],[-5.84481,43.35889],[-5.84465,43.35886],[-5.84489,43.35914],[-5.8448,43.35922],[-5.84459,43.35923],[-5.84266,43.35921],[-5.84262,43.36043],[-5.84172,43.36096],[-5.84157,43.36123],[-5.84128,43.36225],[-5.84134,43.36255],[-5.84194,43.36357],[-5.84086,43.36356],[-5.83948,43.36399],[-5.83898,43.36392],[-5.83897,43.36386]]]]}},{"type":"Feature","id":"es-as-neighborhood-44b02","properties":{"id":"es-as-neighborhood-44b02","slug":"oviedo-uvieu-arganosa","name":"Argañosa","localName":"Argañosa","aliases":[],"kind":"neighborhood","boundaryStatus":"statistical","parentId":"es-as-concejo-33044","population":null,"areaKm2":0.3,"density":null,"referenceYear":2024,"sourceId":"sadei-neighborhoods","bbox":[-5.86981,43.35908,-5.8584,43.36618],"center":[-5.864105,43.362629999999996]},"geometry":{"type":"MultiPolygon","coordinates":[[[[-5.8584,43.36302],[-5.85853,43.36275],[-5.85933,43.36176],[-5.85937,43.36164],[-5.85938,43.36128],[-5.85914,43.3608],[-5.86252,43.36037],[-5.86677,43.35908],[-5.86722,43.35984],[-5.86733,43.36017],[-5.86736,43.36061],[-5.86729,43.36093],[-5.86705,43.36139],[-5.86537,43.36347],[-5.86728,43.36425],[-5.8675,43.36423],[-5.86786,43.36406],[-5.868,43.36408],[-5.86897,43.36464],[-5.86981,43.36503],[-5.86923,43.36523],[-5.869,43.36544],[-5.86911,43.36564],[-5.86929,43.36567],[-5.86968,43.36597],[-5.86831,43.36618],[-5.86709,43.36609],[-5.86627,43.36585],[-5.86489,43.36529],[-5.86397,43.36522],[-5.86302,43.36447],[-5.86169,43.3639],[-5.86023,43.36347],[-5.85851,43.36311],[-5.8584,43.36302]]]]}},{"type":"Feature","id":"es-as-neighborhood-44b10","properties":{"id":"es-as-neighborhood-44b10","slug":"oviedo-uvieu-ciudad-naranco","name":"Ciudad Naranco","localName":"Ciudad Naranco","aliases":[],"kind":"neighborhood","boundaryStatus":"statistical","parentId":"es-as-concejo-33044","population":null,"areaKm2":1.2,"density":null,"referenceYear":2024,"sourceId":"sadei-neighborhoods","bbox":[-5.86608,43.36433,-5.84672,43.37815],"center":[-5.856400000000001,43.37124]},"geometry":{"type":"MultiPolygon","coordinates":[[[[-5.85509,43.37771],[-5.85498,43.3776],[-5.85475,43.37752],[-5.85348,43.37727],[-5.85376,43.37573],[-5.8528,43.37558],[-5.85079,43.37499],[-5.84981,43.37459],[-5.84906,43.37412],[-5.8483,43.37374],[-5.84672,43.3732],[-5.84977,43.37069],[-5.85333,43.36794],[-5.85251,43.36747],[-5.85445,43.36603],[-5.85593,43.36514],[-5.85702,43.36433],[-5.85811,43.36517],[-5.85852,43.36559],[-5.85863,43.3658],[-5.85891,43.36575],[-5.86038,43.36522],[-5.86046,43.36537],[-5.86118,43.36608],[-5.86125,43.36624],[-5.86122,43.36651],[-5.86062,43.36713],[-5.86061,43.36746],[-5.86159,43.36832],[-5.86166,43.36853],[-5.8615,43.3688],[-5.86067,43.3692],[-5.86089,43.36962],[-5.86234,43.36978],[-5.8624,43.36997],[-5.86254,43.37013],[-5.86214,43.3705],[-5.86062,43.37141],[-5.86055,43.37156],[-5.86058,43.37169],[-5.86222,43.37245],[-5.86277,43.37312],[-5.8626,43.37319],[-5.86271,43.37329],[-5.8624,43.37348],[-5.86252,43.37397],[-5.86432,43.37473],[-5.86441,43.37454],[-5.86441,43.37436],[-5.8647,43.37423],[-5.86542,43.37436],[-5.86608,43.37491],[-5.86578,43.37523],[-5.86446,43.37547],[-5.86456,43.37649],[-5.86267,43.37653],[-5.86272,43.37722],[-5.86188,43.37719],[-5.86136,43.37739],[-5.86111,43.37759],[-5.86024,43.3778],[-5.85999,43.37762],[-5.85817,43.37734],[-5.85603,43.37814],[-5.85571,43.37815],[-5.85516,43.37778],[-5.85509,43.37771]]]]}},{"type":"Feature","id":"es-as-neighborhood-44b24","properties":{"id":"es-as-neighborhood-44b24","slug":"oviedo-uvieu-pumarin","name":"Pumarín","localName":"Pumarín","aliases":[],"kind":"neighborhood","boundaryStatus":"statistical","parentId":"es-as-concejo-33044","population":null,"areaKm2":0.6,"density":null,"referenceYear":2024,"sourceId":"sadei-neighborhoods","bbox":[-5.85333,43.36592,-5.83637,43.3732],"center":[-5.844849999999999,43.36956]},"geometry":{"type":"MultiPolygon","coordinates":[[[[-5.83948,43.37156],[-5.83779,43.37109],[-5.83768,43.37053],[-5.83783,43.37024],[-5.839,43.36867],[-5.8366,43.36808],[-5.83637,43.36746],[-5.83814,43.36722],[-5.83906,43.36701],[-5.84141,43.36613],[-5.84175,43.36592],[-5.84198,43.36592],[-5.85059,43.36738],[-5.8523,43.36742],[-5.85285,43.36763],[-5.85333,43.36794],[-5.84977,43.37069],[-5.84672,43.3732],[-5.84535,43.37271],[-5.84384,43.37245],[-5.84123,43.37136],[-5.84047,43.37129],[-5.83972,43.37145],[-5.83948,43.37156]]]]}},{"type":"Feature","id":"es-as-neighborhood-44b04","properties":{"id":"es-as-neighborhood-44b04","slug":"oviedo-uvieu-las-campas","name":"Las Campas","localName":"Las Campas","aliases":[],"kind":"neighborhood","boundaryStatus":"statistical","parentId":"es-as-concejo-33044","population":null,"areaKm2":0.7,"density":null,"referenceYear":2024,"sourceId":"sadei-neighborhoods","bbox":[-5.89298,43.35958,-5.87963,43.37288],"center":[-5.886305,43.36623]},"geometry":{"type":"MultiPolygon","coordinates":[[[[-5.88226,43.37009],[-5.88199,43.3701],[-5.88108,43.37045],[-5.87963,43.3706],[-5.88094,43.36962],[-5.88122,43.36927],[-5.88137,43.36895],[-5.88145,43.36861],[-5.88143,43.36825],[-5.8809,43.36601],[-5.88095,43.36574],[-5.88107,43.36554],[-5.88178,43.36465],[-5.8819,43.36413],[-5.88287,43.36399],[-5.88367,43.36373],[-5.88478,43.36304],[-5.88815,43.36073],[-5.8892,43.36024],[-5.89032,43.35986],[-5.89164,43.35958],[-5.89216,43.35993],[-5.89228,43.3602],[-5.89293,43.36104],[-5.89298,43.36134],[-5.89249,43.3647],[-5.89244,43.36543],[-5.8925,43.36584],[-5.8891,43.36736],[-5.88597,43.36798],[-5.88487,43.36833],[-5.88449,43.36853],[-5.8853,43.37111],[-5.88503,43.37192],[-5.88351,43.37275],[-5.88261,43.37288],[-5.88158,43.37261],[-5.88162,43.37173],[-5.88265,43.37105],[-5.88294,43.37032],[-5.88226,43.37009]]]]}},{"type":"Feature","id":"es-as-neighborhood-44b15","properties":{"id":"es-as-neighborhood-44b15","slug":"oviedo-uvieu-fitoria","name":"Fitoria","localName":"Fitoria","aliases":[],"kind":"neighborhood","boundaryStatus":"statistical","parentId":"es-as-concejo-33044","population":null,"areaKm2":3.4,"density":null,"referenceYear":2024,"sourceId":"sadei-neighborhoods","bbox":[-5.85513,43.3732,-5.82078,43.40234],"center":[-5.837955,43.38777]},"geometry":{"type":"MultiPolygon","coordinates":[[[[-5.82098,43.39827],[-5.82186,43.3975],[-5.82271,43.39639],[-5.82492,43.3924],[-5.82573,43.39106],[-5.82872,43.38547],[-5.83018,43.38293],[-5.83089,43.38195],[-5.83129,43.38154],[-5.83206,43.38101],[-5.83313,43.38045],[-5.83373,43.38024],[-5.83776,43.37926],[-5.83898,43.37883],[-5.84,43.37836],[-5.84108,43.37771],[-5.84672,43.3732],[-5.8483,43.37374],[-5.84906,43.37412],[-5.84981,43.37459],[-5.85079,43.37499],[-5.8528,43.37558],[-5.85376,43.37573],[-5.85348,43.37727],[-5.85475,43.37752],[-5.85498,43.3776],[-5.85509,43.37771],[-5.85513,43.37888],[-5.85384,43.37959],[-5.8482,43.38118],[-5.84698,43.38163],[-5.84663,43.3817],[-5.84713,43.38254],[-5.84701,43.38352],[-5.84645,43.38502],[-5.84746,43.38745],[-5.84531,43.38777],[-5.84463,43.38808],[-5.84347,43.38895],[-5.84282,43.38887],[-5.84159,43.38916],[-5.84105,43.38903],[-5.84062,43.38912],[-5.83676,43.39234],[-5.83626,43.39691],[-5.83595,43.39702],[-5.83564,43.39722],[-5.83554,43.39744],[-5.83531,43.39767],[-5.83508,43.39776],[-5.83495,43.39872],[-5.83517,43.39915],[-5.827,43.40058],[-5.82691,43.40089],[-5.82585,43.40206],[-5.82416,43.40223],[-5.82378,43.40234],[-5.82286,43.40122],[-5.82229,43.4009],[-5.82197,43.40097],[-5.82181,43.40129],[-5.82188,43.40176],[-5.82178,43.40204],[-5.82141,43.40214],[-5.82108,43.40206],[-5.82085,43.40168],[-5.82078,43.40133],[-5.82089,43.40079],[-5.82118,43.40027],[-5.82132,43.39952],[-5.82122,43.39885],[-5.82098,43.39827]]]]}},{"type":"Feature","id":"es-as-neighborhood-44b21","properties":{"id":"es-as-neighborhood-44b21","slug":"oviedo-uvieu-pando","name":"Pando","localName":"Pando","aliases":[],"kind":"neighborhood","boundaryStatus":"statistical","parentId":"es-as-concejo-33044","population":null,"areaKm2":0.4,"density":null,"referenceYear":2024,"sourceId":"sadei-neighborhoods","bbox":[-5.84672,43.37129,-5.83443,43.37812],"center":[-5.840575,43.374705000000006]},"geometry":{"type":"MultiPolygon","coordinates":[[[[-5.84047,43.37129],[-5.84123,43.37136],[-5.84384,43.37245],[-5.84535,43.37271],[-5.84672,43.3732],[-5.84247,43.37662],[-5.84108,43.37771],[-5.84049,43.37809],[-5.83962,43.37812],[-5.83772,43.37777],[-5.83676,43.37745],[-5.83443,43.37621],[-5.83543,43.3752],[-5.83729,43.37276],[-5.83948,43.37156],[-5.8399,43.37138],[-5.84035,43.3713],[-5.84047,43.37129]]]]}}]}
