{"type":"FeatureCollection","features":[{"type":"Feature","id":"physical-eu-river-063c06d1cd3a","properties":{"id":"physical-eu-river-063c06d1cd3a","slug":"al-furat","name":"Al Furat","localName":"Al Furat","aliases":[],"kind":"river","sourceId":"natural-earth","territoryIds":[],"bbox":[38.06582,35.86264,38.56119,36.34249],"center":[38.313505000000006,36.102565]},"geometry":{"type":"Point","coordinates":[38.313505000000006,36.102565]}},{"type":"Feature","id":"physical-eu-river-0608407647db","properties":{"id":"physical-eu-river-0608407647db","slug":"dalalven","name":"Dalälven","localName":"Dalälven","aliases":[],"kind":"river","sourceId":"natural-earth","territoryIds":[],"bbox":[13.21173,60.12168,17.41602,61.66347],"center":[15.313875,60.892574999999994]},"geometry":{"type":"Point","coordinates":[15.313875,60.892574999999994]}},{"type":"Feature","id":"physical-eu-river-b157bd6904fd","properties":{"id":"physical-eu-river-b157bd6904fd","slug":"dniester","name":"Dniester","localName":"Dniester","aliases":[],"kind":"river","sourceId":"natural-earth","territoryIds":[],"bbox":[30.25886,46.10117,30.47833,46.32004],"center":[30.368595,46.210605]},"geometry":{"type":"Point","coordinates":[30.368595,46.210605]}},{"type":"Feature","id":"physical-eu-river-05ed527641db","properties":{"id":"physical-eu-river-05ed527641db","slug":"dnipro","name":"Dnipro","localName":"Dnipro","aliases":[],"kind":"river","sourceId":"natural-earth","territoryIds":[],"bbox":[30.47771,46.83125,35.14879,51.21731],"center":[32.81325,49.02428]},"geometry":{"type":"Point","coordinates":[32.81325,49.02428]}},{"type":"Feature","id":"physical-eu-river-20ae74ec7007","properties":{"id":"physical-eu-river-20ae74ec7007","slug":"don","name":"Don","localName":"Don","aliases":[],"kind":"river","sourceId":"natural-earth","territoryIds":[],"bbox":[42.10971,47.60177,43.98463,49.50664],"center":[43.04717,48.554204999999996]},"geometry":{"type":"Point","coordinates":[43.04717,48.554204999999996]}},{"type":"Feature","id":"physical-eu-river-950b9c74d46b","properties":{"id":"physical-eu-river-950b9c74d46b","slug":"firat","name":"Firat","localName":"Firat","aliases":[],"kind":"river","sourceId":"natural-earth","territoryIds":[],"bbox":[38.73958,38.81282,38.81265,39.07844],"center":[38.776115,38.94563]},"geometry":{"type":"Point","coordinates":[38.776115,38.94563]}},{"type":"Feature","id":"physical-eu-river-2d3f65ea3667","properties":{"id":"physical-eu-river-2d3f65ea3667","slug":"jordan","name":"Jordan","localName":"Jordan","aliases":[],"kind":"river","sourceId":"natural-earth","territoryIds":[],"bbox":[35.42288,31.32538,35.59889,32.89972],"center":[35.510885,32.11255]},"geometry":{"type":"Point","coordinates":[35.510885,32.11255]}},{"type":"Feature","id":"physical-eu-river-a50c87f2d9e3","properties":{"id":"physical-eu-river-a50c87f2d9e3","slug":"kemijoki","name":"Kemijoki","localName":"Kemijoki","aliases":[],"kind":"river","sourceId":"natural-earth","territoryIds":[],"bbox":[27.3595,66.46698,27.51856,66.76476],"center":[27.439030000000002,66.61587]},"geometry":{"type":"Point","coordinates":[27.439030000000002,66.61587]}},{"type":"Feature","id":"physical-eu-river-688beee74f9f","properties":{"id":"physical-eu-river-688beee74f9f","slug":"neva","name":"Neva","localName":"Neva","aliases":[],"kind":"river","sourceId":"natural-earth","territoryIds":[],"bbox":[31.04279,59.95099,31.41403,60.23483],"center":[31.22841,60.09291]},"geometry":{"type":"Point","coordinates":[31.22841,60.09291]}},{"type":"Feature","id":"physical-eu-river-a75ab09d7ec2","properties":{"id":"physical-eu-river-a75ab09d7ec2","slug":"rhein","name":"Rhein","localName":"Rhein","aliases":[],"kind":"river","sourceId":"natural-earth","territoryIds":[],"bbox":[8.88114,47.51116,9.55438,47.67068],"center":[9.21776,47.59092]},"geometry":{"type":"Point","coordinates":[9.21776,47.59092]}},{"type":"Feature","id":"physical-eu-river-7b8e9f5138bc","properties":{"id":"physical-eu-river-7b8e9f5138bc","slug":"rhone","name":"Rhône","localName":"Rhône","aliases":[],"kind":"river","sourceId":"natural-earth","territoryIds":[],"bbox":[6.1333,46.2046,6.86607,46.43737],"center":[6.4996849999999995,46.320985]},"geometry":{"type":"Point","coordinates":[6.4996849999999995,46.320985]}},{"type":"Feature","id":"physical-eu-river-b740f0ff1007","properties":{"id":"physical-eu-river-b740f0ff1007","slug":"suez-canal","name":"Suez Canal","localName":"Suez Canal","aliases":[],"kind":"river","sourceId":"natural-earth","territoryIds":[],"bbox":[32.3595,30.18067,32.56094,30.42429],"center":[32.46022,30.30248]},"geometry":{"type":"Point","coordinates":[32.46022,30.30248]}},{"type":"Feature","id":"physical-eu-river-a53ef263b64e","properties":{"id":"physical-eu-river-a53ef263b64e","slug":"sukhona","name":"Sukhona","localName":"Sukhona","aliases":[],"kind":"river","sourceId":"natural-earth","territoryIds":[],"bbox":[39.05346,59.52523,39.79864,59.86844],"center":[39.426050000000004,59.696835]},"geometry":{"type":"Point","coordinates":[39.426050000000004,59.696835]}},{"type":"Feature","id":"physical-eu-river-11fbb33fe2e9","properties":{"id":"physical-eu-river-11fbb33fe2e9","slug":"svir","name":"Svir’","localName":"Svir’","aliases":[],"kind":"river","sourceId":"natural-earth","territoryIds":[],"bbox":[31.41403,60.23483,32.82113,60.65457],"center":[32.11758,60.4447]},"geometry":{"type":"Point","coordinates":[32.11758,60.4447]}},{"type":"Feature","id":"physical-eu-river-51a5ccdba913","properties":{"id":"physical-eu-river-51a5ccdba913","slug":"tajo","name":"Tajo","localName":"Tajo","aliases":[],"kind":"river","sourceId":"natural-earth","territoryIds":[],"bbox":[-5.99557,39.79726,-2.57681,40.72439],"center":[-4.2861899999999995,40.260825]},"geometry":{"type":"Point","coordinates":[-4.2861899999999995,40.260825]}},{"type":"Feature","id":"physical-eu-river-37063b763596","properties":{"id":"physical-eu-river-37063b763596","slug":"vistula","name":"Vistula","localName":"Vistula","aliases":[],"kind":"river","sourceId":"natural-earth","territoryIds":[],"bbox":[18.81046,49.92504,18.93686,49.93189],"center":[18.87366,49.928465]},"geometry":{"type":"Point","coordinates":[18.87366,49.928465]}},{"type":"Feature","id":"physical-eu-river-79cd663e55b3","properties":{"id":"physical-eu-river-79cd663e55b3","slug":"volga","name":"Volga","localName":"Volga","aliases":[],"kind":"river","sourceId":"natural-earth","territoryIds":[],"bbox":[36.37456,50.22231,49.90479,58.28755],"center":[43.139675,54.25493]},"geometry":{"type":"Point","coordinates":[43.139675,54.25493]}},{"type":"Feature","id":"physical-eu-river-fd29d26ad56e","properties":{"id":"physical-eu-river-fd29d26ad56e","slug":"vorma","name":"Vorma","localName":"Vorma","aliases":[],"kind":"river","sourceId":"natural-earth","territoryIds":[],"bbox":[11.15687,59.38865,11.20286,59.91081],"center":[11.179865,59.64973]},"geometry":{"type":"Point","coordinates":[11.179865,59.64973]}},{"type":"Feature","id":"physical-eu-river-c103551d5ec1","properties":{"id":"physical-eu-river-c103551d5ec1","slug":"vuoksi","name":"Vuoksi","localName":"Vuoksi","aliases":[],"kind":"river","sourceId":"natural-earth","territoryIds":[],"bbox":[29.59636,60.2357,31.41207,60.71699],"center":[30.504215000000002,60.476345]},"geometry":{"type":"Point","coordinates":[30.504215000000002,60.476345]}},{"type":"Feature","id":"physical-eu-river-2843700ece1f","properties":{"id":"physical-eu-river-2843700ece1f","slug":"borcea","name":"Borcea","localName":"Borcea","aliases":[],"kind":"river","sourceId":"natural-earth","territoryIds":[],"bbox":[27.26658,44.1378,27.93461,44.74412],"center":[27.600595,44.440960000000004]},"geometry":{"type":"Point","coordinates":[27.600595,44.440960000000004]}},{"type":"Feature","id":"physical-eu-river-d97dfbd25e49","properties":{"id":"physical-eu-river-d97dfbd25e49","slug":"bratul-chillia","name":"Bratul Chillia","localName":"Bratul Chillia","aliases":[],"kind":"river","sourceId":"natural-earth","territoryIds":[],"bbox":[28.76071,45.18003,29.70592,45.41966],"center":[29.233314999999997,45.299845000000005]},"geometry":{"type":"Point","coordinates":[29.233314999999997,45.299845000000005]}},{"type":"Feature","id":"physical-eu-river-c5add5c05487","properties":{"id":"physical-eu-river-c5add5c05487","slug":"bratul-sfintu-gheorghe","name":"Bratul Sfintu Gheorghe","localName":"Bratul Sfintu Gheorghe","aliases":[],"kind":"river","sourceId":"natural-earth","territoryIds":[],"bbox":[28.88308,44.91548,29.60546,45.18003],"center":[29.24427,45.047755]},"geometry":{"type":"Point","coordinates":[29.24427,45.047755]}},{"type":"Feature","id":"physical-eu-river-9a9138709687","properties":{"id":"physical-eu-river-9a9138709687","slug":"bratul-sulina","name":"Bratul Sulina","localName":"Bratul Sulina","aliases":[],"kind":"river","sourceId":"natural-earth","territoryIds":[],"bbox":[28.88271,45.15164,29.67863,45.17983],"center":[29.28067,45.165735]},"geometry":{"type":"Point","coordinates":[29.28067,45.165735]}},{"type":"Feature","id":"physical-eu-river-a4bfa362ef4f","properties":{"id":"physical-eu-river-a4bfa362ef4f","slug":"damietta-branch","name":"Damietta Branch","localName":"Damietta Branch","aliases":[],"kind":"river","sourceId":"natural-earth","territoryIds":[],"bbox":[31.07813,30.15126,31.83923,31.52632],"center":[31.45868,30.83879]},"geometry":{"type":"Point","coordinates":[31.45868,30.83879]}},{"type":"Feature","id":"physical-eu-river-c81105bb46d5","properties":{"id":"physical-eu-river-c81105bb46d5","slug":"danube","name":"Danube","localName":"Danube","aliases":[],"kind":"river","sourceId":"natural-earth","territoryIds":[],"bbox":[17.20642,43.6708,28.76071,48.0611],"center":[22.983565,45.86595]},"geometry":{"type":"Point","coordinates":[22.983565,45.86595]}},{"type":"Feature","id":"physical-eu-river-9a78c7092149","properties":{"id":"physical-eu-river-9a78c7092149","slug":"daugava","name":"Daugava","localName":"Daugava","aliases":[],"kind":"river","sourceId":"natural-earth","territoryIds":[],"bbox":[24.05433,55.06943,32.31775,57.06613],"center":[28.18604,56.06778]},"geometry":{"type":"Point","coordinates":[28.18604,56.06778]}},{"type":"Feature","id":"physical-eu-river-329f132bc09f","properties":{"id":"physical-eu-river-329f132bc09f","slug":"dicle","name":"Dicle","localName":"Dicle","aliases":[],"kind":"river","sourceId":"natural-earth","territoryIds":[],"bbox":[39.64309,37.06249,42.37657,38.41559],"center":[41.00983,37.73904]},"geometry":{"type":"Point","coordinates":[41.00983,37.73904]}},{"type":"Feature","id":"physical-eu-river-0ed2aa40f5d6","properties":{"id":"physical-eu-river-0ed2aa40f5d6","slug":"dnepre","name":"Dnepre","localName":"Dnepre","aliases":[],"kind":"river","sourceId":"natural-earth","territoryIds":[],"bbox":[33.39066,54.91722,33.89099,55.8737],"center":[33.640825,55.39546]},"geometry":{"type":"Point","coordinates":[33.640825,55.39546]}},{"type":"Feature","id":"physical-eu-river-fa00475f0543","properties":{"id":"physical-eu-river-fa00475f0543","slug":"donau","name":"Donau","localName":"Donau","aliases":[],"kind":"river","sourceId":"natural-earth","territoryIds":[],"bbox":[8.21979,47.93072,17.20642,49.0275],"center":[12.713105,48.479110000000006]},"geometry":{"type":"Point","coordinates":[12.713105,48.479110000000006]}},{"type":"Feature","id":"physical-eu-river-019884b92c44","properties":{"id":"physical-eu-river-019884b92c44","slug":"drava","name":"Drava","localName":"Drava","aliases":[],"kind":"river","sourceId":"natural-earth","territoryIds":[],"bbox":[13.82182,45.558,18.95371,47.40153],"center":[16.387765,46.479765]},"geometry":{"type":"Point","coordinates":[16.387765,46.479765]}},{"type":"Feature","id":"physical-eu-river-7755c8cb9b58","properties":{"id":"physical-eu-river-7755c8cb9b58","slug":"duero","name":"Duero","localName":"Duero","aliases":[],"kind":"river","sourceId":"natural-earth","territoryIds":[],"bbox":[-8.67461,41.0624,-2.35709,41.92806],"center":[-5.5158499999999995,41.49523]},"geometry":{"type":"Point","coordinates":[-5.5158499999999995,41.49523]}},{"type":"Feature","id":"physical-eu-river-1c9abe2c1d96","properties":{"id":"physical-eu-river-1c9abe2c1d96","slug":"ebro","name":"Ebro","localName":"Ebro","aliases":[],"kind":"river","sourceId":"natural-earth","territoryIds":[],"bbox":[-4.18886,40.72235,0.89114,43.01117],"center":[-1.64886,41.86676]},"geometry":{"type":"Point","coordinates":[-1.64886,41.86676]}},{"type":"Feature","id":"physical-eu-river-bd2f9fcf3333","properties":{"id":"physical-eu-river-bd2f9fcf3333","slug":"elbe","name":"Elbe","localName":"Elbe","aliases":[],"kind":"river","sourceId":"natural-earth","territoryIds":[],"bbox":[9.78403,50.03142,15.88904,53.55464],"center":[12.836535,51.79303]},"geometry":{"type":"Point","coordinates":[12.836535,51.79303]}},{"type":"Feature","id":"physical-eu-river-be846783fd49","properties":{"id":"physical-eu-river-be846783fd49","slug":"euphrates","name":"Euphrates","localName":"Euphrates","aliases":[],"kind":"river","sourceId":"natural-earth","territoryIds":[],"bbox":[40.99257,30.90168,47.46845,34.50906],"center":[44.230509999999995,32.70537]},"geometry":{"type":"Point","coordinates":[44.230509999999995,32.70537]}},{"type":"Feature","id":"physical-eu-river-90e08b17523a","properties":{"id":"physical-eu-river-90e08b17523a","slug":"ferenc-csatorna","name":"Ferenc Csatorna","localName":"Ferenc Csatorna","aliases":[],"kind":"river","sourceId":"natural-earth","territoryIds":[],"bbox":[18.83909,45.83576,18.91986,46.26684],"center":[18.879475,46.0513]},"geometry":{"type":"Point","coordinates":[18.879475,46.0513]}},{"type":"Feature","id":"physical-eu-river-4671e42acf27","properties":{"id":"physical-eu-river-4671e42acf27","slug":"ariege","name":"Ariège","localName":"Ariège","aliases":[],"kind":"river","sourceId":"natural-earth","territoryIds":[],"bbox":[1.45447,42.62696,1.82493,43.41527],"center":[1.6397,43.021114999999995]},"geometry":{"type":"Point","coordinates":[1.6397,43.021114999999995]}},{"type":"Feature","id":"physical-eu-river-3c7fcc9b72b5","properties":{"id":"physical-eu-river-3c7fcc9b72b5","slug":"glomma","name":"Glomma","localName":"Glomma","aliases":[],"kind":"river","sourceId":"natural-earth","territoryIds":[],"bbox":[10.62434,60.52483,12.02762,62.68698],"center":[11.325980000000001,61.605905]},"geometry":{"type":"Point","coordinates":[11.325980000000001,61.605905]}},{"type":"Feature","id":"physical-eu-river-6be0ad2225fd","properties":{"id":"physical-eu-river-6be0ad2225fd","slug":"gota-alv","name":"Göta älv","localName":"Göta älv","aliases":[],"kind":"river","sourceId":"natural-earth","territoryIds":[],"bbox":[11.72908,57.76446,12.33468,58.3738],"center":[12.031880000000001,58.06913]},"geometry":{"type":"Point","coordinates":[12.031880000000001,58.06913]}},{"type":"Feature","id":"physical-eu-river-49c0d6bf57ef","properties":{"id":"physical-eu-river-49c0d6bf57ef","slug":"ismailiya-canal","name":"Ismailiya Canal","localName":"Ismailiya Canal","aliases":[],"kind":"river","sourceId":"natural-earth","territoryIds":[],"bbox":[31.23761,30.12069,32.30349,30.59304],"center":[31.77055,30.356865]},"geometry":{"type":"Point","coordinates":[31.77055,30.356865]}},{"type":"Feature","id":"physical-eu-river-df5b2d96e278","properties":{"id":"physical-eu-river-df5b2d96e278","slug":"kem","name":"Kem","localName":"Kem","aliases":[],"kind":"river","sourceId":"natural-earth","territoryIds":[],"bbox":[31.5704,63.76577,34.80349,65.11114],"center":[33.186944999999994,64.438455]},"geometry":{"type":"Point","coordinates":[33.186944999999994,64.438455]}},{"type":"Feature","id":"physical-eu-river-2598e3292b26","properties":{"id":"physical-eu-river-2598e3292b26","slug":"kokemaenjoki","name":"Kokemäenjoki","localName":"Kokemäenjoki","aliases":[],"kind":"river","sourceId":"natural-earth","territoryIds":[],"bbox":[21.59809,61.21099,22.57912,61.5779],"center":[22.088605,61.394445000000005]},"geometry":{"type":"Point","coordinates":[22.088605,61.394445000000005]}},{"type":"Feature","id":"physical-eu-river-2dd9bc3e2b05","properties":{"id":"physical-eu-river-2dd9bc3e2b05","slug":"lek","name":"Lek","localName":"Lek","aliases":[],"kind":"river","sourceId":"natural-earth","territoryIds":[],"bbox":[4.08485,51.89626,5.33108,51.99409],"center":[4.707965,51.945175]},"geometry":{"type":"Point","coordinates":[4.707965,51.945175]}},{"type":"Feature","id":"physical-eu-river-de066f139224","properties":{"id":"physical-eu-river-de066f139224","slug":"nederrijn","name":"Nederrijn","localName":"Nederrijn","aliases":[],"kind":"river","sourceId":"natural-earth","territoryIds":[],"bbox":[5.33108,51.87218,6.03863,51.98138],"center":[5.684855000000001,51.92678]},"geometry":{"type":"Point","coordinates":[5.684855000000001,51.92678]}},{"type":"Feature","id":"physical-eu-river-4f04fdbe0206","properties":{"id":"physical-eu-river-4f04fdbe0206","slug":"nile","name":"Nile","localName":"Nile","aliases":[],"kind":"river","sourceId":"natural-earth","territoryIds":[],"bbox":[30.31663,15.63455,33.96881,30.12069],"center":[32.14272,22.87762]},"geometry":{"type":"Point","coordinates":[32.14272,22.87762]}},{"type":"Feature","id":"physical-eu-river-568980ddbb99","properties":{"id":"physical-eu-river-568980ddbb99","slug":"oder","name":"Oder","localName":"Oder","aliases":[],"kind":"river","sourceId":"natural-earth","territoryIds":[],"bbox":[14.12863,49.63707,18.31659,53.63934],"center":[16.22261,51.638205]},"geometry":{"type":"Point","coordinates":[16.22261,51.638205]}},{"type":"Feature","id":"physical-eu-river-baf2b81e1260","properties":{"id":"physical-eu-river-baf2b81e1260","slug":"po","name":"Po","localName":"Po","aliases":[],"kind":"river","sourceId":"natural-earth","territoryIds":[],"bbox":[7.11019,44.66482,12.5234,45.21977],"center":[9.816795,44.942295]},"geometry":{"type":"Point","coordinates":[9.816795,44.942295]}},{"type":"Feature","id":"physical-eu-river-db333935967d","properties":{"id":"physical-eu-river-db333935967d","slug":"rhin","name":"Rhin","localName":"Rhin","aliases":[],"kind":"river","sourceId":"natural-earth","territoryIds":[],"bbox":[7.52939,47.56384,8.88114,48.96544],"center":[8.205265,48.26464]},"geometry":{"type":"Point","coordinates":[8.205265,48.26464]}},{"type":"Feature","id":"physical-eu-river-57852900e048","properties":{"id":"physical-eu-river-57852900e048","slug":"rhine","name":"Rhine","localName":"Rhine","aliases":[],"kind":"river","sourceId":"natural-earth","territoryIds":[],"bbox":[4.98536,48.96544,8.49822,51.8882],"center":[6.74179,50.42682]},"geometry":{"type":"Point","coordinates":[6.74179,50.42682]}},{"type":"Feature","id":"physical-eu-river-1262f6c0798e","properties":{"id":"physical-eu-river-1262f6c0798e","slug":"rosetta-branch","name":"Rosetta Branch","localName":"Rosetta Branch","aliases":[],"kind":"river","sourceId":"natural-earth","territoryIds":[],"bbox":[30.39508,30.12069,31.23761,31.45762],"center":[30.816345,30.789155]},"geometry":{"type":"Point","coordinates":[30.816345,30.789155]}},{"type":"Feature","id":"physical-eu-river-25f43685787e","properties":{"id":"physical-eu-river-25f43685787e","slug":"seine","name":"Seine","localName":"Seine","aliases":[],"kind":"river","sourceId":"natural-earth","territoryIds":[],"bbox":[0.43926,47.57787,4.70765,49.49362],"center":[2.573455,48.535745]},"geometry":{"type":"Point","coordinates":[2.573455,48.535745]}},{"type":"Feature","id":"physical-eu-river-643ab510d008","properties":{"id":"physical-eu-river-643ab510d008","slug":"soroksari-duna","name":"Soroksari Duna","localName":"Soroksari Duna","aliases":[],"kind":"river","sourceId":"natural-earth","territoryIds":[],"bbox":[18.93531,47.03305,19.09794,47.48103],"center":[19.016625,47.25704]},"geometry":{"type":"Point","coordinates":[19.016625,47.25704]}},{"type":"Feature","id":"physical-eu-river-2500688e870c","properties":{"id":"physical-eu-river-2500688e870c","slug":"severnaya-dvina","name":"Severnaya Dvina","localName":"Severnaya Dvina","aliases":[],"kind":"river","sourceId":"natural-earth","territoryIds":[],"bbox":[40.4078,60.74916,46.61713,64.75489],"center":[43.512465000000006,62.752025]},"geometry":{"type":"Point","coordinates":[43.512465000000006,62.752025]}},{"type":"Feature","id":"physical-eu-river-7b30b3d22f5f","properties":{"id":"physical-eu-river-7b30b3d22f5f","slug":"tejo","name":"Tejo","localName":"Tejo","aliases":[],"kind":"river","sourceId":"natural-earth","territoryIds":[],"bbox":[-8.7916,39.07818,-7.11767,39.68169],"center":[-7.954635000000001,39.379935]},"geometry":{"type":"Point","coordinates":[-7.954635000000001,39.379935]}},{"type":"Feature","id":"physical-eu-river-e7d0e694816e","properties":{"id":"physical-eu-river-e7d0e694816e","slug":"thames","name":"Thames","localName":"Thames","aliases":[],"kind":"river","sourceId":"natural-earth","territoryIds":[],"bbox":[-2.02191,51.39242,0.4245,51.76317],"center":[-0.798705,51.577795]},"geometry":{"type":"Point","coordinates":[-0.798705,51.577795]}},{"type":"Feature","id":"physical-eu-river-9b7a9863369d","properties":{"id":"physical-eu-river-9b7a9863369d","slug":"tigris","name":"Tigris","localName":"Tigris","aliases":[],"kind":"river","sourceId":"natural-earth","territoryIds":[],"bbox":[42.37657,30.99909,47.44132,37.06249],"center":[44.908945,34.030789999999996]},"geometry":{"type":"Point","coordinates":[44.908945,34.030789999999996]}},{"type":"Feature","id":"physical-eu-river-253466820ac8","properties":{"id":"physical-eu-river-253466820ac8","slug":"tisa","name":"Tisa","localName":"Tisa","aliases":[],"kind":"river","sourceId":"natural-earth","territoryIds":[],"bbox":[20.06113,45.12577,20.30835,46.26085],"center":[20.184739999999998,45.69331]},"geometry":{"type":"Point","coordinates":[20.184739999999998,45.69331]}},{"type":"Feature","id":"physical-eu-river-ba46f3007485","properties":{"id":"physical-eu-river-ba46f3007485","slug":"tisza","name":"Tisza","localName":"Tisza","aliases":[],"kind":"river","sourceId":"natural-earth","territoryIds":[],"bbox":[20.06609,46.26085,24.33787,48.41472],"center":[22.20198,47.337785]},"geometry":{"type":"Point","coordinates":[22.20198,47.337785]}},{"type":"Feature","id":"physical-eu-river-019386130fa4","properties":{"id":"physical-eu-river-019386130fa4","slug":"waal","name":"Waal","localName":"Waal","aliases":[],"kind":"river","sourceId":"natural-earth","territoryIds":[],"bbox":[3.97891,51.71896,4.98536,51.84779],"center":[4.4821349999999995,51.78337500000001]},"geometry":{"type":"Point","coordinates":[4.4821349999999995,51.78337500000001]}},{"type":"Feature","id":"physical-eu-river-803baf84af6e","properties":{"id":"physical-eu-river-803baf84af6e","slug":"garonne","name":"Garonne","localName":"Garonne","aliases":[],"kind":"river","sourceId":"natural-earth","territoryIds":[],"bbox":[-0.56722,43.41527,1.45447,45.00059],"center":[0.443625,44.207930000000005]},"geometry":{"type":"Point","coordinates":[0.443625,44.207930000000005]}},{"type":"Feature","id":"physical-eu-river-682e5a0c6ff9","properties":{"id":"physical-eu-river-682e5a0c6ff9","slug":"loire","name":"Loire","localName":"Loire","aliases":[],"kind":"river","sourceId":"natural-earth","territoryIds":[],"bbox":[-1.74252,44.77467,4.25576,47.89418],"center":[1.2566200000000003,46.334424999999996]},"geometry":{"type":"Point","coordinates":[1.2566200000000003,46.334424999999996]}},{"type":"Feature","id":"physical-eu-lake-1159122891","properties":{"id":"physical-eu-lake-1159122891","slug":"malar","name":"Mälar","localName":"Mälaren","aliases":[],"kind":"lake","sourceId":"natural-earth","territoryIds":[],"bbox":[16.04424,59.26763,17.97979,59.62051],"center":[17.012014999999998,59.444069999999996]},"geometry":{"type":"Point","coordinates":[17.012014999999998,59.444069999999996]}},{"type":"Feature","id":"physical-eu-lake-1159113095","properties":{"id":"physical-eu-lake-1159113095","slug":"ladoga","name":"Ládoga","localName":"Lake Ladoga","aliases":[],"kind":"lake","sourceId":"natural-earth","territoryIds":[],"bbox":[29.825,59.90718,32.94434,61.77505],"center":[31.38467,60.841115]},"geometry":{"type":"Point","coordinates":[31.38467,60.841115]}},{"type":"Feature","id":"physical-eu-lake-1159113235","properties":{"id":"physical-eu-lake-1159113235","slug":"vanern","name":"Vänern","localName":"Vänern","aliases":[],"kind":"lake","sourceId":"natural-earth","territoryIds":[],"bbox":[12.31328,58.37212,14.09082,59.38994],"center":[13.20205,58.88103]},"geometry":{"type":"Point","coordinates":[13.20205,58.88103]}},{"type":"Feature","id":"physical-eu-lake-1159113251","properties":{"id":"physical-eu-lake-1159113251","slug":"onega","name":"Onega","localName":"Lake Onega","aliases":[],"kind":"lake","sourceId":"natural-earth","territoryIds":[],"bbox":[33.94062,60.8665,36.42793,62.91572],"center":[35.184275,61.89111]},"geometry":{"type":"Point","coordinates":[35.184275,61.89111]}},{"type":"Feature","id":"physical-eu-lake-1159126631","properties":{"id":"physical-eu-lake-1159126631","slug":"sselmeer","name":"Ĳsselmeer","localName":"IJsselmeer","aliases":[],"kind":"lake","sourceId":"natural-earth","territoryIds":[],"bbox":[5.01406,52.2519,5.87002,53.0647],"center":[5.44204,52.6583]},"geometry":{"type":"Point","coordinates":[5.44204,52.6583]}},{"type":"Feature","id":"physical-eu-lake-1159124965","properties":{"id":"physical-eu-lake-1159124965","slug":"rybinsk","name":"Rybinsk","localName":"Rybinsk Reservoir","aliases":[],"kind":"lake","sourceId":"natural-earth","territoryIds":[],"bbox":[37.15078,58.01558,39.00527,59.20977],"center":[38.078025,58.612674999999996]},"geometry":{"type":"Point","coordinates":[38.078025,58.612674999999996]}},{"type":"Feature","id":"physical-eu-lake-1159126681","properties":{"id":"physical-eu-lake-1159126681","slug":"del-vistula","name":"del Vístula","localName":"Kaliningradskiy Zaliv","aliases":[],"kind":"lake","sourceId":"natural-earth","territoryIds":[],"bbox":[19.71709,54.43384,20.40488,54.70996],"center":[20.060985,54.5719]},"geometry":{"type":"Point","coordinates":[20.060985,54.5719]}},{"type":"Feature","id":"physical-eu-lake-1159123125","properties":{"id":"physical-eu-lake-1159123125","slug":"tharthar","name":"Tharthar","localName":"Lake Tharthar","aliases":[],"kind":"lake","sourceId":"natural-earth","territoryIds":[],"bbox":[43.06602,33.70625,43.49277,34.32915],"center":[43.279395,34.0177]},"geometry":{"type":"Point","coordinates":[43.279395,34.0177]}},{"type":"Feature","id":"physical-eu-lake-1159126735","properties":{"id":"physical-eu-lake-1159126735","slug":"razzaza","name":"Razzaza","localName":"Razzaza Lake","aliases":[],"kind":"lake","sourceId":"natural-earth","territoryIds":[],"bbox":[43.42305,32.53101,43.87842,33.07944],"center":[43.650735,32.805225]},"geometry":{"type":"Point","coordinates":[43.650735,32.805225]}},{"type":"Feature","id":"physical-eu-lake-1159126747","properties":{"id":"physical-eu-lake-1159126747","slug":"mar-muerto","name":"mar Muerto","localName":"Dead Sea","aliases":[],"kind":"lake","sourceId":"natural-earth","territoryIds":[],"bbox":[35.40215,31.32539,35.58535,31.76553],"center":[35.49375,31.54546]},"geometry":{"type":"Point","coordinates":[35.49375,31.54546]}},{"type":"Feature","id":"physical-eu-lake-1159113451","properties":{"id":"physical-eu-lake-1159113451","slug":"pskos","name":"Pskos","localName":"Lake Pskov","aliases":[],"kind":"lake","sourceId":"natural-earth","territoryIds":[],"bbox":[27.49707,57.85996,28.16924,58.2148],"center":[27.833154999999998,58.03738]},"geometry":{"type":"Point","coordinates":[27.833154999999998,58.03738]}},{"type":"Feature","id":"physical-eu-lake-1159113545","properties":{"id":"physical-eu-lake-1159113545","slug":"inari","name":"Inari","localName":"Inarijärvi","aliases":[],"kind":"lake","sourceId":"natural-earth","territoryIds":[],"bbox":[27.16172,68.71484,28.76035,69.41914],"center":[27.961035,69.06699]},"geometry":{"type":"Point","coordinates":[27.961035,69.06699]}},{"type":"Feature","id":"physical-eu-lake-1159117309","properties":{"id":"physical-eu-lake-1159117309","slug":"oulu","name":"Oulu","localName":"Oulujärvi","aliases":[],"kind":"lake","sourceId":"natural-earth","territoryIds":[],"bbox":[26.77988,64.12036,28.18789,64.52998],"center":[27.483885,64.32517]},"geometry":{"type":"Point","coordinates":[27.483885,64.32517]}},{"type":"Feature","id":"physical-eu-lake-1159113563","properties":{"id":"physical-eu-lake-1159113563","slug":"peipus","name":"Peipus","localName":"Lake Peipus","aliases":[],"kind":"lake","sourceId":"natural-earth","territoryIds":[],"bbox":[26.96641,58.18413,27.82051,59.00693],"center":[27.393459999999997,58.59553]},"geometry":{"type":"Point","coordinates":[27.393459999999997,58.59553]}},{"type":"Feature","id":"physical-eu-lake-1159125001","properties":{"id":"physical-eu-lake-1159125001","slug":"kremenchuk","name":"Kremenchuk","localName":"Kremenchuk Reservoir","aliases":[],"kind":"lake","sourceId":"natural-earth","territoryIds":[],"bbox":[31.88799,48.9936,33.19434,49.56968],"center":[32.541165,49.281639999999996]},"geometry":{"type":"Point","coordinates":[32.541165,49.281639999999996]}},{"type":"Feature","id":"physical-eu-lake-1159126815","properties":{"id":"physical-eu-lake-1159126815","slug":"tuz","name":"Tuz","localName":"Lake Tuz","aliases":[],"kind":"lake","sourceId":"natural-earth","territoryIds":[],"bbox":[33.15811,38.52275,33.67354,39.12671],"center":[33.415825,38.82473]},"geometry":{"type":"Point","coordinates":[33.415825,38.82473]}},{"type":"Feature","id":"physical-eu-lake-1159123265","properties":{"id":"physical-eu-lake-1159123265","slug":"rikkavesi","name":"Rikkavesi","localName":"Rikkavesi","aliases":[],"kind":"lake","sourceId":"natural-earth","territoryIds":[],"bbox":[29.42158,62.68203,29.82246,63.05137],"center":[29.62202,62.866699999999994]},"geometry":{"type":"Point","coordinates":[29.62202,62.866699999999994]}},{"type":"Feature","id":"physical-eu-lake-1159113819","properties":{"id":"physical-eu-lake-1159113819","slug":"vygozero","name":"Vygózero","localName":"Lake Vygozero","aliases":[],"kind":"lake","sourceId":"natural-earth","territoryIds":[],"bbox":[34.21435,62.91904,35.41318,63.85117],"center":[34.813765000000004,63.385105]},"geometry":{"type":"Point","coordinates":[34.813765000000004,63.385105]}},{"type":"Feature","id":"physical-eu-lake-1159113851","properties":{"id":"physical-eu-lake-1159113851","slug":"segozero","name":"Segozero","localName":"Lake Segozerskoye","aliases":[],"kind":"lake","sourceId":"natural-earth","territoryIds":[],"bbox":[33.25742,63.18857,34.06602,63.4874],"center":[33.66172,63.337985]},"geometry":{"type":"Point","coordinates":[33.66172,63.337985]}},{"type":"Feature","id":"physical-eu-lake-1159123247","properties":{"id":"physical-eu-lake-1159123247","slug":"koitere","name":"Koitere","localName":"Koitere","aliases":[],"kind":"lake","sourceId":"natural-earth","territoryIds":[],"bbox":[30.48076,62.7669,30.84678,63.04976],"center":[30.66377,62.90833]},"geometry":{"type":"Point","coordinates":[30.66377,62.90833]}},{"type":"Feature","id":"physical-eu-lake-1159113873","properties":{"id":"physical-eu-lake-1159113873","slug":"pielinen","name":"Pielinen","localName":"Pielinen","aliases":[],"kind":"lake","sourceId":"natural-earth","territoryIds":[],"bbox":[29.04248,62.72173,30.32979,63.57339],"center":[29.686135,63.14756]},"geometry":{"type":"Point","coordinates":[29.686135,63.14756]}},{"type":"Feature","id":"physical-eu-lake-1159106703","properties":{"id":"physical-eu-lake-1159106703","slug":"piaozero","name":"Piaozero","localName":"Pääjärvi","aliases":[],"kind":"lake","sourceId":"natural-earth","territoryIds":[],"bbox":[30.65147,65.90503,31.33486,66.26958],"center":[30.993164999999998,66.087305]},"geometry":{"type":"Point","coordinates":[30.993164999999998,66.087305]}},{"type":"Feature","id":"physical-eu-lake-1159113889","properties":{"id":"physical-eu-lake-1159113889","slug":"topozero","name":"Topozero","localName":"Lake Topozero","aliases":[],"kind":"lake","sourceId":"natural-earth","territoryIds":[],"bbox":[31.50742,65.38838,32.71231,65.8896],"center":[32.109865,65.63899]},"geometry":{"type":"Point","coordinates":[32.109865,65.63899]}},{"type":"Feature","id":"physical-eu-lake-1159123281","properties":{"id":"physical-eu-lake-1159123281","slug":"ilmen","name":"Ilmen","localName":"Lake Il'Men'","aliases":[],"kind":"lake","sourceId":"natural-earth","territoryIds":[],"bbox":[30.85703,58.14199,31.68828,58.47656],"center":[31.272655,58.309275]},"geometry":{"type":"Point","coordinates":[31.272655,58.309275]}},{"type":"Feature","id":"physical-eu-lake-1159114143","properties":{"id":"physical-eu-lake-1159114143","slug":"leman","name":"Lemán","localName":"Lake Geneva","aliases":[],"kind":"lake","sourceId":"natural-earth","territoryIds":[],"bbox":[6.1333,46.20459,6.87363,46.52881],"center":[6.503465,46.3667]},"geometry":{"type":"Point","coordinates":[6.503465,46.3667]}},{"type":"Feature","id":"physical-eu-lake-1159114155","properties":{"id":"physical-eu-lake-1159114155","slug":"neagh","name":"Neagh","localName":"Lough Neagh","aliases":[],"kind":"lake","sourceId":"natural-earth","territoryIds":[],"bbox":[-6.58472,54.49941,-6.27187,54.7228],"center":[-6.428295,54.611104999999995]},"geometry":{"type":"Point","coordinates":[-6.428295,54.611104999999995]}},{"type":"Feature","id":"physical-eu-lake-1159114173","properties":{"id":"physical-eu-lake-1159114173","slug":"vattern","name":"Vättern","localName":"Vättern","aliases":[],"kind":"lake","sourceId":"natural-earth","territoryIds":[],"bbox":[14.12109,57.79629,14.96807,58.8541],"center":[14.54458,58.325195]},"geometry":{"type":"Point","coordinates":[14.54458,58.325195]}},{"type":"Feature","id":"physical-eu-lake-1159126829","properties":{"id":"physical-eu-lake-1159126829","slug":"van","name":"Van","localName":"Lake Van","aliases":[],"kind":"lake","sourceId":"natural-earth","territoryIds":[],"bbox":[42.35313,38.32607,43.61074,38.98784],"center":[42.981935,38.656954999999996]},"geometry":{"type":"Point","coordinates":[42.981935,38.656954999999996]}},{"type":"Feature","id":"physical-eu-lake-1159114237","properties":{"id":"physical-eu-lake-1159114237","slug":"storsjon","name":"Storsjön","localName":"Storsjön","aliases":[],"kind":"lake","sourceId":"natural-earth","territoryIds":[],"bbox":[13.97188,62.82622,14.67148,63.32524],"center":[14.32168,63.07573]},"geometry":{"type":"Point","coordinates":[14.32168,63.07573]}},{"type":"Feature","id":"physical-eu-lake-1159114391","properties":{"id":"physical-eu-lake-1159114391","slug":"hjalmaren","name":"Hjälmaren","localName":"Hjälmaren","aliases":[],"kind":"lake","sourceId":"natural-earth","territoryIds":[],"bbox":[15.34404,59.14893,16.40605,59.31665],"center":[15.875045,59.23279]},"geometry":{"type":"Point","coordinates":[15.875045,59.23279]}},{"type":"Feature","id":"physical-eu-lake-1159114573","properties":{"id":"physical-eu-lake-1159114573","slug":"beloye","name":"Béloye","localName":"Lake Beloye","aliases":[],"kind":"lake","sourceId":"natural-earth","territoryIds":[],"bbox":[37.23106,60.07744,38.0042,60.32944],"center":[37.61763,60.20344]},"geometry":{"type":"Point","coordinates":[37.61763,60.20344]}},{"type":"Feature","id":"physical-eu-lake-1159123397","properties":{"id":"physical-eu-lake-1159123397","slug":"akkajaure","name":"Akkajaure","localName":"Akkajaure","aliases":[],"kind":"lake","sourceId":"natural-earth","territoryIds":[],"bbox":[17.13076,67.41909,18.42793,67.79248],"center":[17.779345,67.605785]},"geometry":{"type":"Point","coordinates":[17.779345,67.605785]}},{"type":"Feature","id":"physical-eu-lake-1159114609","properties":{"id":"physical-eu-lake-1159114609","slug":"balaton","name":"Balaton","localName":"Lake Balaton","aliases":[],"kind":"lake","sourceId":"natural-earth","territoryIds":[],"bbox":[17.26934,46.72129,18.16367,47.05469],"center":[17.716504999999998,46.88799]},"geometry":{"type":"Point","coordinates":[17.716504999999998,46.88799]}},{"type":"Feature","id":"physical-eu-lake-1159123333","properties":{"id":"physical-eu-lake-1159123333","slug":"umbozero","name":"Umbozero","localName":"Umbozero Lake","aliases":[],"kind":"lake","sourceId":"natural-earth","territoryIds":[],"bbox":[34.19356,67.54307,34.58232,67.88701],"center":[34.38794,67.71504]},"geometry":{"type":"Point","coordinates":[34.38794,67.71504]}},{"type":"Feature","id":"physical-eu-lake-1159123191","properties":{"id":"physical-eu-lake-1159123191","slug":"kovdozero","name":"Kovdozero","localName":"Lake Kovdozero","aliases":[],"kind":"lake","sourceId":"natural-earth","territoryIds":[],"bbox":[31.5542,66.42534,32.39746,66.91211],"center":[31.975830000000002,66.668725]},"geometry":{"type":"Point","coordinates":[31.975830000000002,66.668725]}},{"type":"Feature","id":"physical-eu-lake-1159115043","properties":{"id":"physical-eu-lake-1159115043","slug":"vortsjarv","name":"Võrtsjärv","localName":"Võrtsjärv","aliases":[],"kind":"lake","sourceId":"natural-earth","territoryIds":[],"bbox":[25.92793,58.14346,26.14277,58.39624],"center":[26.03535,58.26985]},"geometry":{"type":"Point","coordinates":[26.03535,58.26985]}},{"type":"Feature","id":"physical-eu-lake-1159115109","properties":{"id":"physical-eu-lake-1159115109","slug":"sevan","name":"Sevan","localName":"Lake Sevan","aliases":[],"kind":"lake","sourceId":"natural-earth","territoryIds":[],"bbox":[44.97227,40.14883,45.65918,40.61436],"center":[45.315725,40.381595]},"geometry":{"type":"Point","coordinates":[45.315725,40.381595]}},{"type":"Feature","id":"physical-eu-lake-1159125041","properties":{"id":"physical-eu-lake-1159125041","slug":"kubenskoye","name":"Kubenskoye","localName":"Ozero Kubenskoye","aliases":[],"kind":"lake","sourceId":"natural-earth","territoryIds":[],"bbox":[39.05254,59.47983,39.79815,59.86934],"center":[39.425345,59.674585]},"geometry":{"type":"Point","coordinates":[39.425345,59.674585]}},{"type":"Feature","id":"physical-eu-lake-1159114259","properties":{"id":"physical-eu-lake-1159114259","slug":"constanza","name":"Constanza","localName":"Bodensee","aliases":[],"kind":"lake","sourceId":"natural-earth","territoryIds":[],"bbox":[9.11318,47.5064,9.73066,47.78218],"center":[9.42192,47.64429]},"geometry":{"type":"Point","coordinates":[9.42192,47.64429]}},{"type":"Feature","id":"physical-eu-lake-1159114879","properties":{"id":"physical-eu-lake-1159114879","slug":"mar-de-galilea","name":"mar de Galilea","localName":"Sea of Galilee","aliases":[],"kind":"lake","sourceId":"natural-earth","territoryIds":[],"bbox":[35.53389,32.72031,35.63584,32.89971],"center":[35.584865,32.81001]},"geometry":{"type":"Point","coordinates":[35.584865,32.81001]}},{"type":"Feature","id":"physical-eu-lake-1159126643","properties":{"id":"physical-eu-lake-1159126643","slug":"mar-de-syvach","name":"Mar de Syvach","localName":"Syvash","aliases":[],"kind":"lake","sourceId":"natural-earth","territoryIds":[],"bbox":[33.69619,45.25537,35.43906,46.2666],"center":[34.567625,45.760985]},"geometry":{"type":"Point","coordinates":[34.567625,45.760985]}},{"type":"Feature","id":"physical-eu-lake-1159113295","properties":{"id":"physical-eu-lake-1159113295","slug":"saimaa","name":"Saimaa","localName":"Lake Saimaa","aliases":[],"kind":"lake","sourceId":"natural-earth","territoryIds":[],"bbox":[26.89863,61.06768,29.98154,63.58398],"center":[28.440085,62.325829999999996]},"geometry":{"type":"Point","coordinates":[28.440085,62.325829999999996]}},{"type":"Feature","id":"physical-eu-lake-1159113395","properties":{"id":"physical-eu-lake-1159113395","slug":"paijanne","name":"Päijänne","localName":"Päijänne","aliases":[],"kind":"lake","sourceId":"natural-earth","territoryIds":[],"bbox":[25.18789,60.96143,27.09229,63.21577],"center":[26.14009,62.0886]},"geometry":{"type":"Point","coordinates":[26.14009,62.0886]}},{"type":"Feature","id":"physical-eu-lake-1159113481","properties":{"id":"physical-eu-lake-1159113481","slug":"lago-srednye-kuyto","name":"Lago Srednye Kuyto","localName":"Lake Srednye Kuyto","aliases":[],"kind":"lake","sourceId":"natural-earth","territoryIds":[],"bbox":[30.36191,64.86372,31.95459,65.18281],"center":[31.158250000000002,65.02326500000001]},"geometry":{"type":"Point","coordinates":[31.158250000000002,65.02326500000001]}},{"type":"Feature","id":"physical-eu-lake-1159124989","properties":{"id":"physical-eu-lake-1159124989","slug":"kajovka","name":"Kajovka","localName":"Kakhovka Reservoir","aliases":[],"kind":"lake","sourceId":"natural-earth","territoryIds":[],"bbox":[33.53984,46.82222,35.30176,47.8416],"center":[34.4208,47.33191]},"geometry":{"type":"Point","coordinates":[34.4208,47.33191]}},{"type":"Feature","id":"physical-eu-lake-1159114429","properties":{"id":"physical-eu-lake-1159114429","slug":"pyha","name":"Pyhä","localName":"Pyhäjärvi","aliases":[],"kind":"lake","sourceId":"natural-earth","territoryIds":[],"bbox":[23.34902,61.26162,24.72842,62.26563],"center":[24.038719999999998,61.763625000000005]},"geometry":{"type":"Point","coordinates":[24.038719999999998,61.763625000000005]}},{"type":"Feature","id":"physical-eu-lake-1159115361","properties":{"id":"physical-eu-lake-1159115361","slug":"uddjaure","name":"Uddjaure","localName":"Uddjaure","aliases":[],"kind":"lake","sourceId":"natural-earth","territoryIds":[],"bbox":[17.34609,65.8523,18.00947,66.20083],"center":[17.67778,66.026565]},"geometry":{"type":"Point","coordinates":[17.67778,66.026565]}},{"type":"Feature","id":"physical-eu-lake-1159115335","properties":{"id":"physical-eu-lake-1159115335","slug":"lago-storavan","name":"Lago Storavan","localName":"Storavan","aliases":[],"kind":"lake","sourceId":"natural-earth","territoryIds":[],"bbox":[17.96729,65.61602,18.50859,65.88198],"center":[18.237940000000002,65.749]},"geometry":{"type":"Point","coordinates":[18.237940000000002,65.749]}},{"type":"Feature","id":"physical-eu-lake-1159123107","properties":{"id":"physical-eu-lake-1159123107","slug":"habbaniyah","name":"Habbaniyah","localName":"Lake Habbaniyah","aliases":[],"kind":"lake","sourceId":"natural-earth","territoryIds":[],"bbox":[43.3043,33.19038,43.59531,33.43511],"center":[43.449805,33.312745]},"geometry":{"type":"Point","coordinates":[43.449805,33.312745]}},{"type":"Feature","id":"physical-eu-lake-1159115429","properties":{"id":"physical-eu-lake-1159115429","slug":"skadar","name":"Skadar","localName":"Lake Skadar","aliases":[],"kind":"lake","sourceId":"natural-earth","territoryIds":[],"bbox":[19.09883,42.07881,19.48057,42.28965],"center":[19.2897,42.18423]},"geometry":{"type":"Point","coordinates":[19.2897,42.18423]}},{"type":"Feature","id":"physical-eu-lake-1159123217","properties":{"id":"physical-eu-lake-1159123217","slug":"imandra","name":"Imandra","localName":"Imandra","aliases":[],"kind":"lake","sourceId":"natural-earth","territoryIds":[],"bbox":[31.89863,67.41475,32.40566,67.54419],"center":[32.152145,67.47946999999999]},"geometry":{"type":"Point","coordinates":[32.152145,67.47946999999999]}},{"type":"Feature","id":"physical-eu-lake-1159115801","properties":{"id":"physical-eu-lake-1159115801","slug":"femund","name":"Femund","localName":"Femunden","aliases":[],"kind":"lake","sourceId":"natural-earth","territoryIds":[],"bbox":[11.74229,61.92881,11.79678,62.05244],"center":[11.769535000000001,61.990624999999994]},"geometry":{"type":"Point","coordinates":[11.769535000000001,61.990624999999994]}},{"type":"Feature","id":"physical-eu-range-f9bec0d49a63","properties":{"id":"physical-eu-range-f9bec0d49a63","slug":"alpes","name":"Alpes","localName":"Alpes","aliases":[],"kind":"range","sourceId":"natural-earth","territoryIds":[],"bbox":[5.15699,43.66578,16.18348,48.15485],"center":[10.670235,45.910315]},"geometry":{"type":"Point","coordinates":[10.670235,45.910315]}},{"type":"Feature","id":"physical-eu-range-347b6e721ce6","properties":{"id":"physical-eu-range-347b6e721ce6","slug":"caucaso","name":"Cáucaso","localName":"Cáucaso","aliases":[],"kind":"range","sourceId":"natural-earth","territoryIds":[],"bbox":[37.20669,40.37073,49.46351,45.09864],"center":[43.3351,42.734685]},"geometry":{"type":"Point","coordinates":[43.3351,42.734685]}},{"type":"Feature","id":"physical-eu-range-8d5a1ab2cee5","properties":{"id":"physical-eu-range-8d5a1ab2cee5","slug":"peninsula-iberica","name":"península ibérica","localName":"península ibérica","aliases":[],"kind":"range","sourceId":"natural-earth","territoryIds":[],"bbox":[-9.47974,36.02593,3.24805,43.76455],"center":[-3.1158449999999998,39.89524]},"geometry":{"type":"Point","coordinates":[-3.1158449999999998,39.89524]}},{"type":"Feature","id":"physical-eu-range-ed2fafb4f34e","properties":{"id":"physical-eu-range-ed2fafb4f34e","slug":"atlas","name":"Atlas","localName":"Atlas","aliases":[],"kind":"range","sourceId":"natural-earth","territoryIds":[],"bbox":[-10.98925,28.31165,10.46852,37.3075],"center":[-0.2603650000000002,32.809574999999995]},"geometry":{"type":"Point","coordinates":[-0.2603650000000002,32.809574999999995]}},{"type":"Feature","id":"physical-eu-range-234076b74248","properties":{"id":"physical-eu-range-234076b74248","slug":"atlas-sahariano","name":"Atlas sahariano","localName":"Atlas sahariano","aliases":[],"kind":"range","sourceId":"natural-earth","territoryIds":[],"bbox":[-2.35057,31.83723,4.85939,35.67371],"center":[1.2544100000000002,33.75547]},"geometry":{"type":"Point","coordinates":[1.2544100000000002,33.75547]}},{"type":"Feature","id":"physical-eu-range-2fa1a11cdb29","properties":{"id":"physical-eu-range-2fa1a11cdb29","slug":"alto-atlas","name":"Alto Atlas","localName":"Alto Atlas","aliases":[],"kind":"range","sourceId":"natural-earth","territoryIds":[],"bbox":[-9.48772,30.64661,-2.37041,33.15351],"center":[-5.929065,31.900059999999996]},"geometry":{"type":"Point","coordinates":[-5.929065,31.900059999999996]}},{"type":"Feature","id":"physical-eu-range-ba48fbe9b1bb","properties":{"id":"physical-eu-range-ba48fbe9b1bb","slug":"montanas-hejaz","name":"MONTAÑAS HEJAZ","localName":"MONTAÑAS HEJAZ","aliases":[],"kind":"range","sourceId":"natural-earth","territoryIds":[],"bbox":[35.42286,22.60773,40.01991,28.87373],"center":[37.721385,25.74073]},"geometry":{"type":"Point","coordinates":[37.721385,25.74073]}},{"type":"Feature","id":"physical-eu-range-b907724c316d","properties":{"id":"physical-eu-range-b907724c316d","slug":"alpes-escandinavos","name":"Alpes escandinavos","localName":"Alpes escandinavos","aliases":[],"kind":"range","sourceId":"natural-earth","territoryIds":[],"bbox":[5.58766,58.51874,24.44569,70.06287],"center":[15.016675,64.290805]},"geometry":{"type":"Point","coordinates":[15.016675,64.290805]}},{"type":"Feature","id":"physical-eu-range-c4eb69a44d54","properties":{"id":"physical-eu-range-c4eb69a44d54","slug":"montes-carpatos","name":"montes Cárpatos","localName":"montes Cárpatos","aliases":[],"kind":"range","sourceId":"natural-earth","territoryIds":[],"bbox":[17.48341,44.60352,27.20204,50.06721],"center":[22.342725,47.335365]},"geometry":{"type":"Point","coordinates":[22.342725,47.335365]}},{"type":"Feature","id":"physical-eu-range-9a57e97f7eae","properties":{"id":"physical-eu-range-9a57e97f7eae","slug":"apeninos-ligures","name":"Apeninos ligures","localName":"Apeninos ligures","aliases":[],"kind":"range","sourceId":"natural-earth","territoryIds":[],"bbox":[8.94032,39.90052,16.19715,45.06971],"center":[12.568735,42.485115]},"geometry":{"type":"Point","coordinates":[12.568735,42.485115]}},{"type":"Feature","id":"physical-eu-range-96990890b80f","properties":{"id":"physical-eu-range-96990890b80f","slug":"pirineos","name":"Pirineos","localName":"Pirineos","aliases":[],"kind":"range","sourceId":"natural-earth","territoryIds":[],"bbox":[-2.28618,41.95502,3.18031,43.47468],"center":[0.44706500000000005,42.71485]},"geometry":{"type":"Point","coordinates":[0.44706500000000005,42.71485]}},{"type":"Feature","id":"physical-eu-range-4140a7807245","properties":{"id":"physical-eu-range-4140a7807245","slug":"meseta-central-rusa","name":"Meseta central rusa","localName":"Meseta central rusa","aliases":[],"kind":"range","sourceId":"natural-earth","territoryIds":[],"bbox":[33.86305,49.78046,39.73243,54.97614],"center":[36.797740000000005,52.378299999999996]},"geometry":{"type":"Point","coordinates":[36.797740000000005,52.378299999999996]}},{"type":"Feature","id":"physical-eu-range-fa8d71120a5d","properties":{"id":"physical-eu-range-fa8d71120a5d","slug":"anti-atlas","name":"Anti-Atlas","localName":"Anti-Atlas","aliases":[],"kind":"range","sourceId":"natural-earth","territoryIds":[],"bbox":[-10.83043,28.39979,-4.31292,31.69825],"center":[-7.571675,30.04902]},"geometry":{"type":"Point","coordinates":[-7.571675,30.04902]}},{"type":"Feature","id":"physical-eu-range-1559185c9e86","properties":{"id":"physical-eu-range-1559185c9e86","slug":"caucaso-menor","name":"Cáucaso Menor","localName":"Cáucaso Menor","aliases":[],"kind":"range","sourceId":"natural-earth","territoryIds":[],"bbox":[41.88368,39.02644,47.22255,42.24628],"center":[44.553115,40.636359999999996]},"geometry":{"type":"Point","coordinates":[44.553115,40.636359999999996]}},{"type":"Feature","id":"physical-eu-range-2a79fb6f4f9b","properties":{"id":"physical-eu-range-2a79fb6f4f9b","slug":"montes-ponticos","name":"Montes Pónticos","localName":"Montes Pónticos","aliases":[],"kind":"range","sourceId":"natural-earth","territoryIds":[],"bbox":[34.05128,40.14326,42.02674,41.91987],"center":[38.03901,41.031565]},"geometry":{"type":"Point","coordinates":[38.03901,41.031565]}},{"type":"Feature","id":"physical-eu-range-e1d721772d8e","properties":{"id":"physical-eu-range-e1d721772d8e","slug":"montes-balcanes","name":"Montes Balcanes","localName":"Montes Balcanes","aliases":[],"kind":"range","sourceId":"natural-earth","territoryIds":[],"bbox":[22.3274,42.50599,27.43092,43.81354],"center":[24.87916,43.159765]},"geometry":{"type":"Point","coordinates":[24.87916,43.159765]}},{"type":"Feature","id":"physical-eu-range-0c4cf198c923","properties":{"id":"physical-eu-range-0c4cf198c923","slug":"alpes-dinaricos","name":"Alpes Dináricos","localName":"Alpes Dináricos","aliases":[],"kind":"range","sourceId":"natural-earth","territoryIds":[],"bbox":[13.59571,41.80291,21.64381,46.22004],"center":[17.61976,44.011475]},"geometry":{"type":"Point","coordinates":[17.61976,44.011475]}},{"type":"Feature","id":"physical-eu-range-1eed7d6cbe5e","properties":{"id":"physical-eu-range-1eed7d6cbe5e","slug":"cordillera-cantabrica","name":"Cordillera Cantábrica","localName":"Cordillera Cantábrica","aliases":[],"kind":"range","sourceId":"natural-earth","territoryIds":[],"bbox":[-7.41155,42.68159,-1.90758,43.42799],"center":[-4.659565,43.05479]},"geometry":{"type":"Point","coordinates":[-4.659565,43.05479]}},{"type":"Feature","id":"physical-eu-range-246743586a68","properties":{"id":"physical-eu-range-246743586a68","slug":"sierra-nevada","name":"Sierra Nevada","localName":"Sierra Nevada","aliases":[],"kind":"range","sourceId":"natural-earth","territoryIds":[],"bbox":[-4.71367,36.83124,-1.97094,37.92023],"center":[-3.3423049999999996,37.375735]},"geometry":{"type":"Point","coordinates":[-3.3423049999999996,37.375735]}},{"type":"Feature","id":"physical-eu-range-012648a7f962","properties":{"id":"physical-eu-range-012648a7f962","slug":"sierra-morena","name":"Sierra Morena","localName":"Sierra Morena","aliases":[],"kind":"range","sourceId":"natural-earth","territoryIds":[],"bbox":[-7.21026,37.36024,-2.49309,38.83655],"center":[-4.851675,38.098395]},"geometry":{"type":"Point","coordinates":[-4.851675,38.098395]}},{"type":"Feature","id":"physical-eu-coast-c717cea15304","properties":{"id":"physical-eu-coast-c717cea15304","slug":"dalmacia","name":"Dalmacia","localName":"Dalmacia","aliases":[],"kind":"coast","sourceId":"natural-earth","territoryIds":[],"bbox":[14.66035,42.70034,17.77565,44.84815],"center":[16.218,43.77424499999999]},"geometry":{"type":"Point","coordinates":[16.218,43.77424499999999]}},{"type":"Feature","id":"physical-eu-peak-1159105953","properties":{"id":"physical-eu-peak-1159105953","slug":"monte-elbrus","name":"Monte Elbrus","localName":"Gora Elbrus","aliases":[],"kind":"peak","sourceId":"natural-earth","territoryIds":[],"elevationM":5642,"bbox":[42.4392,43.35517,42.4392,43.35517],"center":[42.4392,43.35517]},"geometry":{"type":"Point","coordinates":[42.4392,43.35517]}},{"type":"Feature","id":"physical-eu-peak-1159105949","properties":{"id":"physical-eu-peak-1159105949","slug":"mont-blanc","name":"Mont Blanc","localName":"Mont Blanc","aliases":[],"kind":"peak","sourceId":"natural-earth","territoryIds":[],"elevationM":4807,"bbox":[6.86504,45.83368,6.86504,45.83368],"center":[6.86504,45.83368]},"geometry":{"type":"Point","coordinates":[6.86504,45.83368]}},{"type":"Feature","id":"physical-eu-peak-1159105269","properties":{"id":"physical-eu-peak-1159105269","slug":"monte-tubqal","name":"Monte Tubqal","localName":"Jebel Toubkal","aliases":[],"kind":"peak","sourceId":"natural-earth","territoryIds":[],"elevationM":4165,"bbox":[-7.91613,31.06208,-7.91613,31.06208],"center":[-7.91613,31.06208]},"geometry":{"type":"Point","coordinates":[-7.91613,31.06208]}}]}
