{"type":"FeatureCollection","features":[{"type":"Feature","id":"physical-es-water-ES010MSPFES503MAT000260","properties":{"id":"physical-es-water-ES010MSPFES503MAT000260","name":"Estuario del Miño_tramo2","slug":"estuario-del-mino-tramo2","aliases":["Minho Estuary - Body 2"],"kind":"estuary","sourceId":"miteco-water-2027","geometryRole":"area","boundaryStatus":"reference","bbox":[-8.84828,41.87546,-8.78658,41.91889],"center":[-8.817430000000002,41.897175],"referenceYear":2023,"geometryNote":"Superficie de la masa de agua de transición del plan hidrológico 2022–2027. No delimita todo el paisaje de la ría ni sus terrenos ribereños.","sourceCode":"ES010MSPFES503MAT000260","sourceDate":"2023-09-25"},"geometry":{"type":"Point","coordinates":[-8.817430000000002,41.897175]}},{"type":"Feature","id":"physical-es-water-ES010MSPFES505MAT000270","properties":{"id":"physical-es-water-ES010MSPFES505MAT000270","name":"Estuario del Miño_tramo1","slug":"estuario-del-mino-tramo1","aliases":["Minho Estuary - Body 1"],"kind":"estuary","sourceId":"miteco-water-2027","geometryRole":"area","boundaryStatus":"reference","bbox":[-8.87388,41.84348,-8.84129,41.89723],"center":[-8.857585,41.870355],"referenceYear":2023,"geometryNote":"Superficie de la masa de agua de transición del plan hidrológico 2022–2027. No delimita todo el paisaje de la ría ni sus terrenos ribereños.","sourceCode":"ES010MSPFES505MAT000270","sourceDate":"2023-09-25"},"geometry":{"type":"Point","coordinates":[-8.857585,41.870355]}},{"type":"Feature","id":"physical-es-water-ES091MSPF893","properties":{"id":"physical-es-water-ES091MSPF893","name":"Bahía de Los Alfaques","slug":"bahia-de-los-alfaques","aliases":["Bahia of Los Alfaques"],"kind":"bay","sourceId":"miteco-water-2027","geometryRole":"area","boundaryStatus":"reference","bbox":[0.54785,40.55255,0.74607,40.64127],"center":[0.64696,40.596909999999994],"referenceYear":2023,"geometryNote":"Superficie de la masa de agua de transición del plan hidrológico 2022–2027. No delimita todo el paisaje de la ría ni sus terrenos ribereños.","sourceCode":"ES091MSPF893","sourceDate":"2023-09-25"},"geometry":{"type":"Point","coordinates":[0.64696,40.596909999999994]}},{"type":"Feature","id":"physical-es-water-ES091MSPF892","properties":{"id":"physical-es-water-ES091MSPF892","name":"Bahía del Fangal","slug":"bahia-del-fangal","aliases":["Bahia del Fangal"],"kind":"bay","sourceId":"miteco-water-2027","geometryRole":"area","boundaryStatus":"reference","bbox":[0.69952,40.76179,0.78307,40.82398],"center":[0.741295,40.792885],"referenceYear":2023,"geometryNote":"Superficie de la masa de agua de transición del plan hidrológico 2022–2027. No delimita todo el paisaje de la ría ni sus terrenos ribereños.","sourceCode":"ES091MSPF892","sourceDate":"2023-09-25"},"geometry":{"type":"Point","coordinates":[0.741295,40.792885]}},{"type":"Feature","id":"physical-es-water-ES060MSPF610027","properties":{"id":"physical-es-water-ES060MSPF610027","name":"Estuario del Guadarranque","slug":"estuario-del-guadarranque","aliases":["Estuario del Guadarranque"],"kind":"estuary","sourceId":"miteco-water-2027","geometryRole":"area","boundaryStatus":"reference","bbox":[-5.42652,36.17973,-5.41193,36.20163],"center":[-5.419225,36.19068],"referenceYear":2023,"geometryNote":"Superficie de la masa de agua de transición del plan hidrológico 2022–2027. No delimita todo el paisaje de la ría ni sus terrenos ribereños.","sourceCode":"ES060MSPF610027","sourceDate":"2023-09-25"},"geometry":{"type":"Point","coordinates":[-5.419225,36.19068]}},{"type":"Feature","id":"physical-es-water-ES060MSPF610028","properties":{"id":"physical-es-water-ES060MSPF610028","name":"Estuario del Guadiaro","slug":"estuario-del-guadiaro","aliases":["Estuario del Guadiaro"],"kind":"estuary","sourceId":"miteco-water-2027","geometryRole":"area","boundaryStatus":"reference","bbox":[-5.2924,36.27788,-5.27554,36.2951],"center":[-5.28397,36.28649],"referenceYear":2023,"geometryNote":"Superficie de la masa de agua de transición del plan hidrológico 2022–2027. No delimita todo el paisaje de la ría ni sus terrenos ribereños.","sourceCode":"ES060MSPF610028","sourceDate":"2023-09-25"},"geometry":{"type":"Point","coordinates":[-5.28397,36.28649]}},{"type":"Feature","id":"physical-es-water-ES018MSPFES112MAT000130","properties":{"id":"physical-es-water-ES018MSPFES112MAT000130","name":"Ría de San Martín de la Arena","slug":"ria-de-san-martin-de-la-arena","aliases":["San Martin de la Arena Estuary"],"kind":"estuary","sourceId":"miteco-water-2027","geometryRole":"area","boundaryStatus":"reference","bbox":[-4.04958,43.37455,-4.01453,43.4358],"center":[-4.032055,43.405175],"referenceYear":2023,"geometryNote":"Superficie de la masa de agua de transición del plan hidrológico 2022–2027. No delimita todo el paisaje de la ría ni sus terrenos ribereños.","sourceCode":"ES018MSPFES112MAT000130","sourceDate":"2023-09-25"},"geometry":{"type":"Point","coordinates":[-4.032055,43.405175]}},{"type":"Feature","id":"physical-es-water-ES018MSPFES087MAT000150","properties":{"id":"physical-es-water-ES018MSPFES087MAT000150","name":"Bahía de Santander-Puerto","slug":"bahia-de-santander-puerto","aliases":["Santander-Port Bay"],"kind":"bay","sourceId":"miteco-water-2027","geometryRole":"area","boundaryStatus":"reference","bbox":[-3.83666,43.42563,-3.75059,43.47054],"center":[-3.793625,43.448085],"referenceYear":2023,"geometryNote":"Superficie de la masa de agua de transición del plan hidrológico 2022–2027. No delimita todo el paisaje de la ría ni sus terrenos ribereños.","sourceCode":"ES018MSPFES087MAT000150","sourceDate":"2023-09-25"},"geometry":{"type":"Point","coordinates":[-3.793625,43.448085]}},{"type":"Feature","id":"physical-es-water-ES018MSPFES244MAT000020","properties":{"id":"physical-es-water-ES018MSPFES244MAT000020","name":"Estuario del Eo","slug":"estuario-del-eo","aliases":["Eo Estuary"],"kind":"estuary","sourceId":"miteco-water-2027","geometryRole":"area","boundaryStatus":"reference","bbox":[-7.09421,43.44295,-7.00505,43.55661],"center":[-7.0496300000000005,43.49978],"referenceYear":2023,"geometryNote":"Superficie de la masa de agua de transición del plan hidrológico 2022–2027. No delimita todo el paisaje de la ría ni sus terrenos ribereños.","sourceCode":"ES018MSPFES244MAT000020","sourceDate":"2023-09-25"},"geometry":{"type":"Point","coordinates":[-7.0496300000000005,43.49978]}},{"type":"Feature","id":"physical-es-water-ES018MSPFES145MAT000060","properties":{"id":"physical-es-water-ES018MSPFES145MAT000060","name":"Estuario de Avilés","slug":"estuario-de-aviles","aliases":["Aviles Estuary","Ría De Avilés","Avilés"],"kind":"estuary","sourceId":"miteco-water-2027","geometryRole":"area","boundaryStatus":"reference","bbox":[-5.94661,43.55251,-5.88557,43.60332],"center":[-5.9160900000000005,43.577915],"referenceYear":2023,"geometryNote":"Superficie de la masa de agua de transición del plan hidrológico 2022–2027. No delimita todo el paisaje de la ría ni sus terrenos ribereños.","sourceCode":"ES018MSPFES145MAT000060","sourceDate":"2023-09-25"},"geometry":{"type":"Point","coordinates":[-5.9160900000000005,43.577915]}},{"type":"Feature","id":"physical-es-water-ES018MSPFES087MAT000160","properties":{"id":"physical-es-water-ES018MSPFES087MAT000160","name":"Bahía de Santander-Interior","slug":"bahia-de-santander-interior","aliases":["Santander-Inland Bay"],"kind":"bay","sourceId":"miteco-water-2027","geometryRole":"area","boundaryStatus":"reference","bbox":[-3.85649,43.37829,-3.76808,43.43227],"center":[-3.812285,43.405280000000005],"referenceYear":2023,"geometryNote":"Superficie de la masa de agua de transición del plan hidrológico 2022–2027. No delimita todo el paisaje de la ría ni sus terrenos ribereños.","sourceCode":"ES018MSPFES087MAT000160","sourceDate":"2023-09-25"},"geometry":{"type":"Point","coordinates":[-3.812285,43.405280000000005]}},{"type":"Feature","id":"physical-es-water-ES018MSPFES118MAT000100","properties":{"id":"physical-es-water-ES018MSPFES118MAT000100","name":"Estuario de Tina MeNor","slug":"estuario-de-tina-menor","aliases":["Tina Menor Estuary"],"kind":"estuary","sourceId":"miteco-water-2027","geometryRole":"area","boundaryStatus":"reference","bbox":[-4.48947,43.36517,-4.46281,43.39438],"center":[-4.47614,43.379774999999995],"referenceYear":2023,"geometryNote":"Superficie de la masa de agua de transición del plan hidrológico 2022–2027. No delimita todo el paisaje de la ría ni sus terrenos ribereños.","sourceCode":"ES018MSPFES118MAT000100","sourceDate":"2023-09-25"},"geometry":{"type":"Point","coordinates":[-4.47614,43.379774999999995]}},{"type":"Feature","id":"physical-es-water-ES018MSPFES145MAT000070","properties":{"id":"physical-es-water-ES018MSPFES145MAT000070","name":"Estuario de Villaviciosa","slug":"estuario-de-villaviciosa","aliases":["Villaviciosa Estuary","Villaviciosa","Ría De Villaviciosa"],"kind":"estuary","sourceId":"miteco-water-2027","geometryRole":"area","boundaryStatus":"reference","bbox":[-5.44323,43.47631,-5.37372,43.53842],"center":[-5.408474999999999,43.507365],"referenceYear":2023,"geometryNote":"Superficie de la masa de agua de transición del plan hidrológico 2022–2027. No delimita todo el paisaje de la ría ni sus terrenos ribereños.","sourceCode":"ES018MSPFES145MAT000070","sourceDate":"2023-09-25"},"geometry":{"type":"Point","coordinates":[-5.408474999999999,43.507365]}},{"type":"Feature","id":"physical-es-water-ES018MSPFES092MAT000140","properties":{"id":"physical-es-water-ES018MSPFES092MAT000140","name":"Ría de Mogro","slug":"ria-de-mogro","aliases":["Mogro Estuary"],"kind":"estuary","sourceId":"miteco-water-2027","geometryRole":"area","boundaryStatus":"reference","bbox":[-3.9901,43.39583,-3.94241,43.44555],"center":[-3.9662550000000003,43.42068999999999],"referenceYear":2023,"geometryNote":"Superficie de la masa de agua de transición del plan hidrológico 2022–2027. No delimita todo el paisaje de la ría ni sus terrenos ribereños.","sourceCode":"ES018MSPFES092MAT000140","sourceDate":"2023-09-25"},"geometry":{"type":"Point","coordinates":[-3.9662550000000003,43.42068999999999]}},{"type":"Feature","id":"physical-es-water-ES018MSPFES132MAT000090","properties":{"id":"physical-es-water-ES018MSPFES132MAT000090","name":"Estuario de Tina Mayor","slug":"estuario-de-tina-mayor","aliases":["Tina Mayor Estuary"],"kind":"estuary","sourceId":"miteco-water-2027","geometryRole":"area","boundaryStatus":"reference","bbox":[-4.53747,43.3613,-4.50442,43.39361],"center":[-4.520944999999999,43.377455],"referenceYear":2023,"geometryNote":"Superficie de la masa de agua de transición del plan hidrológico 2022–2027. No delimita todo el paisaje de la ría ni sus terrenos ribereños.","sourceCode":"ES018MSPFES132MAT000090","sourceDate":"2023-09-25"},"geometry":{"type":"Point","coordinates":[-4.520944999999999,43.377455]}},{"type":"Feature","id":"physical-es-water-ES018MSPFES076MAT000230","properties":{"id":"physical-es-water-ES018MSPFES076MAT000230","name":"Ría de Oriñón","slug":"ria-de-orinon","aliases":["Orinon Estuary"],"kind":"estuary","sourceId":"miteco-water-2027","geometryRole":"area","boundaryStatus":"reference","bbox":[-3.32406,43.36642,-3.31468,43.39758],"center":[-3.31937,43.382],"referenceYear":2023,"geometryNote":"Superficie de la masa de agua de transición del plan hidrológico 2022–2027. No delimita todo el paisaje de la ría ni sus terrenos ribereños.","sourceCode":"ES018MSPFES076MAT000230","sourceDate":"2023-09-25"},"geometry":{"type":"Point","coordinates":[-3.31937,43.382]}},{"type":"Feature","id":"physical-es-water-ES018MSPFES200MAT000040","properties":{"id":"physical-es-water-ES018MSPFES200MAT000040","name":"Estuario del Esva","slug":"estuario-del-esva","aliases":["Esva Estuary"],"kind":"estuary","sourceId":"miteco-water-2027","geometryRole":"area","boundaryStatus":"reference","bbox":[-6.47934,43.53997,-6.45434,43.55494],"center":[-6.4668399999999995,43.547455],"referenceYear":2023,"geometryNote":"Superficie de la masa de agua de transición del plan hidrológico 2022–2027. No delimita todo el paisaje de la ría ni sus terrenos ribereños.","sourceCode":"ES018MSPFES200MAT000040","sourceDate":"2023-09-25"},"geometry":{"type":"Point","coordinates":[-6.4668399999999995,43.547455]}},{"type":"Feature","id":"physical-es-water-ES018MSPFES144MAT000080","properties":{"id":"physical-es-water-ES018MSPFES144MAT000080","name":"Estuario de Ribadesella","slug":"estuario-de-ribadesella","aliases":["Ribadesella Estuary","Ribadesella"],"kind":"estuary","sourceId":"miteco-water-2027","geometryRole":"area","boundaryStatus":"reference","bbox":[-5.08527,43.4269,-5.05227,43.47047],"center":[-5.068770000000001,43.448685],"referenceYear":2023,"geometryNote":"Superficie de la masa de agua de transición del plan hidrológico 2022–2027. No delimita todo el paisaje de la ría ni sus terrenos ribereños.","sourceCode":"ES018MSPFES144MAT000080","sourceDate":"2023-09-25"},"geometry":{"type":"Point","coordinates":[-5.068770000000001,43.448685]}},{"type":"Feature","id":"physical-es-water-ES018MSPFES113MAT000120","properties":{"id":"physical-es-water-ES018MSPFES113MAT000120","name":"Ría de Oyambre","slug":"ria-de-oyambre","aliases":["Oyambre Estuary"],"kind":"estuary","sourceId":"miteco-water-2027","geometryRole":"area","boundaryStatus":"reference","bbox":[-4.34208,43.36744,-4.30727,43.38947],"center":[-4.324675,43.378455],"referenceYear":2023,"geometryNote":"Superficie de la masa de agua de transición del plan hidrológico 2022–2027. No delimita todo el paisaje de la ría ni sus terrenos ribereños.","sourceCode":"ES018MSPFES113MAT000120","sourceDate":"2023-09-25"},"geometry":{"type":"Point","coordinates":[-4.324675,43.378455]}},{"type":"Feature","id":"physical-es-water-ES018MSPFES194MAT000050","properties":{"id":"physical-es-water-ES018MSPFES194MAT000050","name":"Estuario del Nalón","slug":"estuario-del-nalon","aliases":["Nalon Estuary"],"kind":"estuary","sourceId":"miteco-water-2027","geometryRole":"area","boundaryStatus":"reference","bbox":[-6.09778,43.49287,-6.06295,43.57041],"center":[-6.0803650000000005,43.53164],"referenceYear":2023,"geometryNote":"Superficie de la masa de agua de transición del plan hidrológico 2022–2027. No delimita todo el paisaje de la ría ni sus terrenos ribereños.","sourceCode":"ES018MSPFES194MAT000050","sourceDate":"2023-09-25"},"geometry":{"type":"Point","coordinates":[-6.0803650000000005,43.53164]}},{"type":"Feature","id":"physical-es-water-ES018MSPFES087MAT000170","properties":{"id":"physical-es-water-ES018MSPFES087MAT000170","name":"Bahía de Santander-Páramos","slug":"bahia-de-santander-paramos","aliases":["Santander-Paramos Bay"],"kind":"bay","sourceId":"miteco-water-2027","geometryRole":"area","boundaryStatus":"reference","bbox":[-3.80873,43.42626,-3.71674,43.45868],"center":[-3.762735,43.44247],"referenceYear":2023,"geometryNote":"Superficie de la masa de agua de transición del plan hidrológico 2022–2027. No delimita todo el paisaje de la ría ni sus terrenos ribereños.","sourceCode":"ES018MSPFES087MAT000170","sourceDate":"2023-09-25"},"geometry":{"type":"Point","coordinates":[-3.762735,43.44247]}},{"type":"Feature","id":"physical-es-water-ES018MSPFES234MAT000030","properties":{"id":"physical-es-water-ES018MSPFES234MAT000030","name":"Estuario de Navia","slug":"estuario-de-navia","aliases":["Navia Estuary","Navia","Navía"],"kind":"estuary","sourceId":"miteco-water-2027","geometryRole":"area","boundaryStatus":"reference","bbox":[-6.74468,43.49769,-6.7152,43.56001],"center":[-6.72994,43.52885],"referenceYear":2023,"geometryNote":"Superficie de la masa de agua de transición del plan hidrológico 2022–2027. No delimita todo el paisaje de la ría ni sus terrenos ribereños.","sourceCode":"ES018MSPFES234MAT000030","sourceDate":"2023-09-25"},"geometry":{"type":"Point","coordinates":[-6.72994,43.52885]}},{"type":"Feature","id":"physical-es-water-ES018MSPFES085MAT000180","properties":{"id":"physical-es-water-ES018MSPFES085MAT000180","name":"Ría de Ajo","slug":"ria-de-ajo","aliases":["Ajo Estuary"],"kind":"estuary","sourceId":"miteco-water-2027","geometryRole":"area","boundaryStatus":"reference","bbox":[-3.59687,43.46074,-3.57607,43.50783],"center":[-3.5864700000000003,43.484285],"referenceYear":2023,"geometryNote":"Superficie de la masa de agua de transición del plan hidrológico 2022–2027. No delimita todo el paisaje de la ría ni sus terrenos ribereños.","sourceCode":"ES018MSPFES085MAT000180","sourceDate":"2023-09-25"},"geometry":{"type":"Point","coordinates":[-3.5864700000000003,43.484285]}},{"type":"Feature","id":"physical-es-delta-ebro","properties":{"id":"physical-es-delta-ebro","name":"Delta del Ebro","slug":"delta-del-ebro","aliases":["Delta de l'Ebre","Delta del Ebre","Ebro Delta"],"kind":"delta","sourceId":"icgc-life-ebro","geometryRole":"area","boundaryStatus":"reference","bbox":[0.57976,40.61725,0.8517,40.79785],"center":[0.71573,40.70755],"sourceDate":"2021-02","referenceYear":2021,"geometryNote":"Área de referencia formada por las unidades de llanura deltaica y marismas del mapa de ambientes sedimentarios modernos del ICGC (QHpd y QHm). No es el límite del parque natural ni incluye los depósitos marinos sumergidos."},"geometry":{"type":"Point","coordinates":[0.71573,40.70755]}}]}
